<?xml version="1.0" encoding="UTF-8"?>
<gpx version="1.1" creator="Garmin Connect" xmlns="http://www.topografix.com/GPX/1/1">
  <!-- 1 Hz: 60 s running (~3 m/s), a 5 min pause inside the same segment, then 60 s running. Moving = 120 s. -->
  <trk>
    <type>running</type>
    <trkseg>
      <trkpt lat="-33.900000" lon="151.180"><time>2026-09-27T20:00:00Z</time></trkpt>
      <trkpt lat="-33.899973" lon="151.180"><time>2026-09-27T20:00:01Z</time></trkpt>
      <trkpt lat="-33.899946" lon="151.180"><time>2026-09-27T20:00:02Z</time></trkpt>
      <trkpt lat="-33.899919" lon="151.180"><time>2026-09-27T20:00:03Z</time></trkpt>
      <trkpt lat="-33.899892" lon="151.180"><time>2026-09-27T20:00:04Z</time></trkpt>
      <trkpt lat="-33.899865" lon="151.180"><time>2026-09-27T20:00:05Z</time></trkpt>
      <trkpt lat="-33.899838" lon="151.180"><time>2026-09-27T20:00:06Z</time></trkpt>
      <trkpt lat="-33.899811" lon="151.180"><time>2026-09-27T20:00:07Z</time></trkpt>
      <trkpt lat="-33.899784" lon="151.180"><time>2026-09-27T20:00:08Z</time></trkpt>
      <trkpt lat="-33.899757" lon="151.180"><time>2026-09-27T20:00:09Z</time></trkpt>
      <trkpt lat="-33.899730" lon="151.180"><time>2026-09-27T20:00:10Z</time></trkpt>
      <trkpt lat="-33.899703" lon="151.180"><time>2026-09-27T20:00:11Z</time></trkpt>
      <trkpt lat="-33.899676" lon="151.180"><time>2026-09-27T20:00:12Z</time></trkpt>
      <trkpt lat="-33.899649" lon="151.180"><time>2026-09-27T20:00:13Z</time></trkpt>
      <trkpt lat="-33.899622" lon="151.180"><time>2026-09-27T20:00:14Z</time></trkpt>
      <trkpt lat="-33.899595" lon="151.180"><time>2026-09-27T20:00:15Z</time></trkpt>
      <trkpt lat="-33.899568" lon="151.180"><time>2026-09-27T20:00:16Z</time></trkpt>
      <trkpt lat="-33.899541" lon="151.180"><time>2026-09-27T20:00:17Z</time></trkpt>
      <trkpt lat="-33.899514" lon="151.180"><time>2026-09-27T20:00:18Z</time></trkpt>
      <trkpt lat="-33.899487" lon="151.180"><time>2026-09-27T20:00:19Z</time></trkpt>
      <trkpt lat="-33.899460" lon="151.180"><time>2026-09-27T20:00:20Z</time></trkpt>
      <trkpt lat="-33.899433" lon="151.180"><time>2026-09-27T20:00:21Z</time></trkpt>
      <trkpt lat="-33.899406" lon="151.180"><time>2026-09-27T20:00:22Z</time></trkpt>
      <trkpt lat="-33.899379" lon="151.180"><time>2026-09-27T20:00:23Z</time></trkpt>
      <trkpt lat="-33.899352" lon="151.180"><time>2026-09-27T20:00:24Z</time></trkpt>
      <trkpt lat="-33.899325" lon="151.180"><time>2026-09-27T20:00:25Z</time></trkpt>
      <trkpt lat="-33.899298" lon="151.180"><time>2026-09-27T20:00:26Z</time></trkpt>
      <trkpt lat="-33.899271" lon="151.180"><time>2026-09-27T20:00:27Z</time></trkpt>
      <trkpt lat="-33.899244" lon="151.180"><time>2026-09-27T20:00:28Z</time></trkpt>
      <trkpt lat="-33.899217" lon="151.180"><time>2026-09-27T20:00:29Z</time></trkpt>
      <trkpt lat="-33.899190" lon="151.180"><time>2026-09-27T20:00:30Z</time></trkpt>
      <trkpt lat="-33.899163" lon="151.180"><time>2026-09-27T20:00:31Z</time></trkpt>
      <trkpt lat="-33.899136" lon="151.180"><time>2026-09-27T20:00:32Z</time></trkpt>
      <trkpt lat="-33.899109" lon="151.180"><time>2026-09-27T20:00:33Z</time></trkpt>
      <trkpt lat="-33.899082" lon="151.180"><time>2026-09-27T20:00:34Z</time></trkpt>
      <trkpt lat="-33.899055" lon="151.180"><time>2026-09-27T20:00:35Z</time></trkpt>
      <trkpt lat="-33.899028" lon="151.180"><time>2026-09-27T20:00:36Z</time></trkpt>
      <trkpt lat="-33.899001" lon="151.180"><time>2026-09-27T20:00:37Z</time></trkpt>
      <trkpt lat="-33.898974" lon="151.180"><time>2026-09-27T20:00:38Z</time></trkpt>
      <trkpt lat="-33.898947" lon="151.180"><time>2026-09-27T20:00:39Z</time></trkpt>
      <trkpt lat="-33.898920" lon="151.180"><time>2026-09-27T20:00:40Z</time></trkpt>
      <trkpt lat="-33.898893" lon="151.180"><time>2026-09-27T20:00:41Z</time></trkpt>
      <trkpt lat="-33.898866" lon="151.180"><time>2026-09-27T20:00:42Z</time></trkpt>
      <trkpt lat="-33.898839" lon="151.180"><time>2026-09-27T20:00:43Z</time></trkpt>
      <trkpt lat="-33.898812" lon="151.180"><time>2026-09-27T20:00:44Z</time></trkpt>
      <trkpt lat="-33.898785" lon="151.180"><time>2026-09-27T20:00:45Z</time></trkpt>
      <trkpt lat="-33.898758" lon="151.180"><time>2026-09-27T20:00:46Z</time></trkpt>
      <trkpt lat="-33.898731" lon="151.180"><time>2026-09-27T20:00:47Z</time></trkpt>
      <trkpt lat="-33.898704" lon="151.180"><time>2026-09-27T20:00:48Z</time></trkpt>
      <trkpt lat="-33.898677" lon="151.180"><time>2026-09-27T20:00:49Z</time></trkpt>
      <trkpt lat="-33.898650" lon="151.180"><time>2026-09-27T20:00:50Z</time></trkpt>
      <trkpt lat="-33.898623" lon="151.180"><time>2026-09-27T20:00:51Z</time></trkpt>
      <trkpt lat="-33.898596" lon="151.180"><time>2026-09-27T20:00:52Z</time></trkpt>
      <trkpt lat="-33.898569" lon="151.180"><time>2026-09-27T20:00:53Z</time></trkpt>
      <trkpt lat="-33.898542" lon="151.180"><time>2026-09-27T20:00:54Z</time></trkpt>
      <trkpt lat="-33.898515" lon="151.180"><time>2026-09-27T20:00:55Z</time></trkpt>
      <trkpt lat="-33.898488" lon="151.180"><time>2026-09-27T20:00:56Z</time></trkpt>
      <trkpt lat="-33.898461" lon="151.180"><time>2026-09-27T20:00:57Z</time></trkpt>
      <trkpt lat="-33.898434" lon="151.180"><time>2026-09-27T20:00:58Z</time></trkpt>
      <trkpt lat="-33.898407" lon="151.180"><time>2026-09-27T20:00:59Z</time></trkpt>
      <trkpt lat="-33.898380" lon="151.180"><time>2026-09-27T20:01:00Z</time></trkpt>
      <trkpt lat="-33.898360" lon="151.180"><time>2026-09-27T20:06:00Z</time></trkpt>
      <trkpt lat="-33.898333" lon="151.180"><time>2026-09-27T20:06:01Z</time></trkpt>
      <trkpt lat="-33.898306" lon="151.180"><time>2026-09-27T20:06:02Z</time></trkpt>
      <trkpt lat="-33.898279" lon="151.180"><time>2026-09-27T20:06:03Z</time></trkpt>
      <trkpt lat="-33.898252" lon="151.180"><time>2026-09-27T20:06:04Z</time></trkpt>
      <trkpt lat="-33.898225" lon="151.180"><time>2026-09-27T20:06:05Z</time></trkpt>
      <trkpt lat="-33.898198" lon="151.180"><time>2026-09-27T20:06:06Z</time></trkpt>
      <trkpt lat="-33.898171" lon="151.180"><time>2026-09-27T20:06:07Z</time></trkpt>
      <trkpt lat="-33.898144" lon="151.180"><time>2026-09-27T20:06:08Z</time></trkpt>
      <trkpt lat="-33.898117" lon="151.180"><time>2026-09-27T20:06:09Z</time></trkpt>
      <trkpt lat="-33.898090" lon="151.180"><time>2026-09-27T20:06:10Z</time></trkpt>
      <trkpt lat="-33.898063" lon="151.180"><time>2026-09-27T20:06:11Z</time></trkpt>
      <trkpt lat="-33.898036" lon="151.180"><time>2026-09-27T20:06:12Z</time></trkpt>
      <trkpt lat="-33.898009" lon="151.180"><time>2026-09-27T20:06:13Z</time></trkpt>
      <trkpt lat="-33.897982" lon="151.180"><time>2026-09-27T20:06:14Z</time></trkpt>
      <trkpt lat="-33.897955" lon="151.180"><time>2026-09-27T20:06:15Z</time></trkpt>
      <trkpt lat="-33.897928" lon="151.180"><time>2026-09-27T20:06:16Z</time></trkpt>
      <trkpt lat="-33.897901" lon="151.180"><time>2026-09-27T20:06:17Z</time></trkpt>
      <trkpt lat="-33.897874" lon="151.180"><time>2026-09-27T20:06:18Z</time></trkpt>
      <trkpt lat="-33.897847" lon="151.180"><time>2026-09-27T20:06:19Z</time></trkpt>
      <trkpt lat="-33.897820" lon="151.180"><time>2026-09-27T20:06:20Z</time></trkpt>
      <trkpt lat="-33.897793" lon="151.180"><time>2026-09-27T20:06:21Z</time></trkpt>
      <trkpt lat="-33.897766" lon="151.180"><time>2026-09-27T20:06:22Z</time></trkpt>
      <trkpt lat="-33.897739" lon="151.180"><time>2026-09-27T20:06:23Z</time></trkpt>
      <trkpt lat="-33.897712" lon="151.180"><time>2026-09-27T20:06:24Z</time></trkpt>
      <trkpt lat="-33.897685" lon="151.180"><time>2026-09-27T20:06:25Z</time></trkpt>
      <trkpt lat="-33.897658" lon="151.180"><time>2026-09-27T20:06:26Z</time></trkpt>
      <trkpt lat="-33.897631" lon="151.180"><time>2026-09-27T20:06:27Z</time></trkpt>
      <trkpt lat="-33.897604" lon="151.180"><time>2026-09-27T20:06:28Z</time></trkpt>
      <trkpt lat="-33.897577" lon="151.180"><time>2026-09-27T20:06:29Z</time></trkpt>
      <trkpt lat="-33.897550" lon="151.180"><time>2026-09-27T20:06:30Z</time></trkpt>
      <trkpt lat="-33.897523" lon="151.180"><time>2026-09-27T20:06:31Z</time></trkpt>
      <trkpt lat="-33.897496" lon="151.180"><time>2026-09-27T20:06:32Z</time></trkpt>
      <trkpt lat="-33.897469" lon="151.180"><time>2026-09-27T20:06:33Z</time></trkpt>
      <trkpt lat="-33.897442" lon="151.180"><time>2026-09-27T20:06:34Z</time></trkpt>
      <trkpt lat="-33.897415" lon="151.180"><time>2026-09-27T20:06:35Z</time></trkpt>
      <trkpt lat="-33.897388" lon="151.180"><time>2026-09-27T20:06:36Z</time></trkpt>
      <trkpt lat="-33.897361" lon="151.180"><time>2026-09-27T20:06:37Z</time></trkpt>
      <trkpt lat="-33.897334" lon="151.180"><time>2026-09-27T20:06:38Z</time></trkpt>
      <trkpt lat="-33.897307" lon="151.180"><time>2026-09-27T20:06:39Z</time></trkpt>
      <trkpt lat="-33.897280" lon="151.180"><time>2026-09-27T20:06:40Z</time></trkpt>
      <trkpt lat="-33.897253" lon="151.180"><time>2026-09-27T20:06:41Z</time></trkpt>
      <trkpt lat="-33.897226" lon="151.180"><time>2026-09-27T20:06:42Z</time></trkpt>
      <trkpt lat="-33.897199" lon="151.180"><time>2026-09-27T20:06:43Z</time></trkpt>
      <trkpt lat="-33.897172" lon="151.180"><time>2026-09-27T20:06:44Z</time></trkpt>
      <trkpt lat="-33.897145" lon="151.180"><time>2026-09-27T20:06:45Z</time></trkpt>
      <trkpt lat="-33.897118" lon="151.180"><time>2026-09-27T20:06:46Z</time></trkpt>
      <trkpt lat="-33.897091" lon="151.180"><time>2026-09-27T20:06:47Z</time></trkpt>
      <trkpt lat="-33.897064" lon="151.180"><time>2026-09-27T20:06:48Z</time></trkpt>
      <trkpt lat="-33.897037" lon="151.180"><time>2026-09-27T20:06:49Z</time></trkpt>
      <trkpt lat="-33.897010" lon="151.180"><time>2026-09-27T20:06:50Z</time></trkpt>
      <trkpt lat="-33.896983" lon="151.180"><time>2026-09-27T20:06:51Z</time></trkpt>
      <trkpt lat="-33.896956" lon="151.180"><time>2026-09-27T20:06:52Z</time></trkpt>
      <trkpt lat="-33.896929" lon="151.180"><time>2026-09-27T20:06:53Z</time></trkpt>
      <trkpt lat="-33.896902" lon="151.180"><time>2026-09-27T20:06:54Z</time></trkpt>
      <trkpt lat="-33.896875" lon="151.180"><time>2026-09-27T20:06:55Z</time></trkpt>
      <trkpt lat="-33.896848" lon="151.180"><time>2026-09-27T20:06:56Z</time></trkpt>
      <trkpt lat="-33.896821" lon="151.180"><time>2026-09-27T20:06:57Z</time></trkpt>
      <trkpt lat="-33.896794" lon="151.180"><time>2026-09-27T20:06:58Z</time></trkpt>
      <trkpt lat="-33.896767" lon="151.180"><time>2026-09-27T20:06:59Z</time></trkpt>
      <trkpt lat="-33.896740" lon="151.180"><time>2026-09-27T20:07:00Z</time></trkpt>
    </trkseg>
  </trk>
</gpx>
