<?xml version="1.0" encoding="UTF-8"?>
<gpx version="1.1" creator="StravaGPX iPhone" xmlns="http://www.topografix.com/GPX/1/1">
  <trk>
    <type>running</type>
    <trkseg>
      <!-- Cold-start fix ~5.6 km north of the real start, 10 s before it. -->
      <trkpt lat="-33.850" lon="151.180"><time>2026-09-27T20:00:00Z</time></trkpt>
      <trkpt lat="-33.900" lon="151.180"><time>2026-09-27T20:00:10Z</time></trkpt>
      <trkpt lat="-33.899" lon="151.180"><time>2026-09-27T20:00:40Z</time></trkpt>
      <trkpt lat="-33.898" lon="151.180"><time>2026-09-27T20:01:10Z</time></trkpt>
      <trkpt lat="-33.897" lon="151.180"><time>2026-09-27T20:01:40Z</time></trkpt>
    </trkseg>
  </trk>
</gpx>
