<?xml version="1.0" encoding="UTF-8"?>
<gpx version="1.1" creator="Garmin Connect" xmlns="http://www.topografix.com/GPX/1/1"
     xmlns:gpxtpx="http://www.garmin.com/xmlschemas/TrackPointExtension/v1"
     xmlns:gpxpx="http://www.garmin.com/xmlschemas/PowerExtension/v1">
  <trk>
    <type>cycling</type>
    <trkseg>
      <trkpt lat="-37.810" lon="144.960"><time>2026-09-27T21:00:00Z</time>
        <extensions><gpxtpx:TrackPointExtension><gpxtpx:hr>140</gpxtpx:hr></gpxtpx:TrackPointExtension><gpxpx:PowerExtension><gpxpx:PowerInWatts>198</gpxpx:PowerInWatts></gpxpx:PowerExtension></extensions>
      </trkpt>
      <trkpt lat="-37.809" lon="144.960"><time>2026-09-27T21:00:10Z</time></trkpt>
    </trkseg>
  </trk>
</gpx>
