<?xml version="1.0" encoding="UTF-8"?>
<gpx version="1.1" creator="StravaGPX Android" xmlns="http://www.topografix.com/GPX/1/1">
  <trk>
    <trkseg>
      <trkpt lat="-33.900" lon="151.180"><time>2026-09-27T20:00:00Z</time></trkpt>
      <trkpt lat="-33.899" lon="151.180"><time>2026-09-27T20:00:30Z</time></trkpt>
      <!-- Spike: ~925 m east of its neighbours 30 s later (≈111 km/h). -->
      <trkpt lat="-33.8985" lon="151.190"><time>2026-09-27T20:01:00Z</time></trkpt>
      <trkpt lat="-33.898" lon="151.180"><time>2026-09-27T20:01:30Z</time></trkpt>
    </trkseg>
  </trk>
</gpx>
