<?xml version="1.0" encoding="UTF-8"?>
<gpx version="1.1" creator="OsmAnd" xmlns="http://www.topografix.com/GPX/1/1">
  <!-- No <type>, no power: 222 m in 60 s (13.3 km/h), inside the 12–18 km/h overlap band. -->
  <trk>
    <name>Lunch outing</name>
    <trkseg>
      <trkpt lat="-33.900" lon="151.180"><time>2026-09-27T20:00:00Z</time></trkpt>
      <trkpt lat="-33.899" lon="151.180"><time>2026-09-27T20:00:30Z</time></trkpt>
      <trkpt lat="-33.898" lon="151.180"><time>2026-09-27T20:01:00Z</time></trkpt>
    </trkseg>
  </trk>
</gpx>
