{
  "type": "FeatureCollection",
  "features": [
    {
      "type": "Feature",
      "properties": { "code": "2001" },
      "geometry": {
        "type": "Polygon",
        "coordinates": [
          [
            [151.17, -33.91],
            [151.18, -33.91],
            [151.18, -33.9],
            [151.17, -33.9],
            [151.17, -33.91]
          ]
        ]
      }
    },
    {
      "type": "Feature",
      "properties": { "code": "2002" },
      "geometry": {
        "type": "Polygon",
        "coordinates": [
          [
            [151.18, -33.91],
            [151.19, -33.91],
            [151.19, -33.9],
            [151.18, -33.9],
            [151.18, -33.91]
          ]
        ]
      }
    },
    {
      "type": "Feature",
      "properties": { "code": "2003" },
      "geometry": {
        "type": "Polygon",
        "coordinates": [
          [
            [151.17, -33.9],
            [151.18, -33.9],
            [151.18, -33.89],
            [151.17, -33.89],
            [151.17, -33.9]
          ]
        ]
      }
    },
    {
      "type": "Feature",
      "properties": { "code": "2004" },
      "geometry": {
        "type": "Polygon",
        "coordinates": [
          [
            [151.18, -33.9],
            [151.19, -33.9],
            [151.19, -33.89],
            [151.18, -33.89],
            [151.18, -33.9]
          ]
        ]
      }
    },
    {
      "type": "Feature",
      "properties": { "code": "2005" },
      "geometry": {
        "type": "MultiPolygon",
        "coordinates": [
          [
            [
              [151.2, -33.91],
              [151.21, -33.91],
              [151.21, -33.9],
              [151.2, -33.9],
              [151.2, -33.91]
            ]
          ]
        ]
      }
    },
    {
      "type": "Feature",
      "properties": { "code": "2006" },
      "geometry": {
        "type": "Polygon",
        "coordinates": [
          [
            [151.22, -33.91],
            [151.25, -33.91],
            [151.25, -33.9],
            [151.24, -33.9],
            [151.24, -33.905],
            [151.23, -33.905],
            [151.23, -33.9],
            [151.22, -33.9],
            [151.22, -33.91]
          ]
        ]
      }
    }
  ]
}
