<?xml version="1.0" encoding="UTF-8"?>
<gpx version="1.1" creator="StravaGPX" xmlns="http://www.topografix.com/GPX/1/1">
  <metadata><time>2026-09-27T20:42:10Z</time></metadata>
  <trk>
    <name>Morning Run</name>
    <type>running</type>
    <trkseg>
      <trkpt lat="-33.900" lon="151.180"><ele>20</ele><time>2026-09-27T20:42:10Z</time></trkpt>
      <trkpt lat="-33.899" lon="151.180"><ele>21</ele><time>2026-09-27T20:42:40Z</time></trkpt>
      <trkpt lat="-33.898" lon="151.180"><ele>22</ele><time>2026-09-27T20:4