<?xml version="1.0" encoding="UTF-8"?>
<gpx version="1.1" creator="StravaGPX" xmlns="http://www.topografix.com/GPX/1/1">
<trk>
<type>running</type>
<trkseg>
<trkpt lat="-27.482823" lon="152.996573"><ele>9.2</ele><time>2026-01-01T00:00:00Z</time></trkpt>
<trkpt lat="-27.482764" lon="152.996606"><ele>9.2</ele><time>2026-01-01T00:00:02Z</time></trkpt>
<trkpt lat="-27.482679" lon="152.996652"><ele>9.4</ele><time>2026-01-01T00:00:05Z</time></trkpt>
<trkpt lat="-27.482502" lon="152.996741"><ele>9.4</ele><time>2026-01-01T00:00:11Z</time></trkpt>
<trkpt lat="-27.482381" lon="152.996822"><ele>9.2</ele><time>2026-01-01T00:00:16Z</time></trkpt>
<trkpt lat="-27.4822" lon="152.99691"><ele>8.6</ele><time>2026-01-01T00:00:23Z</time></trkpt>
<trkpt lat="-27.482173" lon="152.996921"><ele>8.4</ele><time>2026-01-01T00:00:24Z</time></trkpt>
<trkpt lat="-27.482086" lon="152.996944"><ele>8</ele><time>2026-01-01T00:00:27Z</time></trkpt>
<trkpt lat="-27.482009" lon="152.997004"><ele>7.6</ele><time>2026-01-01T00:00:30Z</time></trkpt>
<trkpt lat="-27.481833" lon="152.997137"><ele>7.4</ele><time>2026-01-01T00:00:37Z</time></trkpt>
<trkpt lat="-27.481804" lon="152.997153"><ele>7.4</ele><time>2026-01-01T00:00:38Z</time></trkpt>
<trkpt lat="-27.481775" lon="152.997168"><ele>7.4</ele><time>2026-01-01T00:00:39Z</time></trkpt>
<trkpt lat="-27.481747" lon="152.997181"><ele>7.4</ele><time>2026-01-01T00:00:40Z</time></trkpt>
<trkpt lat="-27.481586" lon="152.997298"><ele>7.4</ele><time>2026-01-01T00:00:47Z</time></trkpt>
<trkpt lat="-27.481561" lon="152.997316"><ele>7.4</ele><time>2026-01-01T00:00:48Z</time></trkpt>
<trkpt lat="-27.481378" lon="152.997408"><ele>7.6</ele><time>2026-01-01T00:00:55Z</time></trkpt>
<trkpt lat="-27.481319" lon="152.997436"><ele>7.6</ele><time>2026-01-01T00:00:57Z</time></trkpt>
<trkpt lat="-27.481158" lon="152.997565"><ele>7.4</ele><time>2026-01-01T00:01:03Z</time></trkpt>
<trkpt lat="-27.481135" lon="152.997592"><ele>7.4</ele><time>2026-01-01T00:01:04Z</time></trkpt>
<trkpt lat="-27.480978" lon="152.997718"><ele>7.2</ele><time>2026-01-01T00:01:10Z</time></trkpt>
<trkpt lat="-27.480868" lon="152.99778"><ele>7</ele><time>2026-01-01T00:01:14Z</time></trkpt>
<trkpt lat="-27.480704" lon="152.997874"><ele>7.4</ele><time>2026-01-01T00:01:20Z</time></trkpt>
<trkpt lat="-27.480546" lon="152.997963"><ele>7.4</ele><time>2026-01-01T00:01:26Z</time></trkpt>
<trkpt lat="-27.480376" lon="152.998092"><ele>7.6</ele><time>2026-01-01T00:01:33Z</time></trkpt>
<trkpt lat="-27.480328" lon="152.998132"><ele>7.4</ele><time>2026-01-01T00:01:35Z</time></trkpt>
<trkpt lat="-27.480154" lon="152.998261"><ele>7.2</ele><time>2026-01-01T00:01:42Z</time></trkpt>
<trkpt lat="-27.480128" lon="152.998278"><ele>7.2</ele><time>2026-01-01T00:01:43Z</time></trkpt>
<trkpt lat="-27.479966" lon="152.998412"><ele>7.2</ele><time>2026-01-01T00:01:50Z</time></trkpt>
<trkpt lat="-27.479827" lon="152.998549"><ele>7</ele><time>2026-01-01T00:01:56Z</time></trkpt>
<trkpt lat="-27.479774" lon="152.998594"><ele>6.8</ele><time>2026-01-01T00:01:58Z</time></trkpt>
<trkpt lat="-27.479645" lon="152.998759"><ele>6.2</ele><time>2026-01-01T00:02:04Z</time></trkpt>
<trkpt lat="-27.479623" lon="152.998785"><ele>6</ele><time>2026-01-01T00:02:05Z</time></trkpt>
<trkpt lat="-27.479479" lon="152.998908"><ele>6.2</ele><time>2026-01-01T00:02:11Z</time></trkpt>
<trkpt lat="-27.479431" lon="152.998946"><ele>6.2</ele><time>2026-01-01T00:02:13Z</time></trkpt>
<trkpt lat="-27.479409" lon="152.998965"><ele>6.2</ele><time>2026-01-01T00:02:14Z</time></trkpt>
<trkpt lat="-27.47925" lon="152.999104"><ele>6.2</ele><time>2026-01-01T00:02:21Z</time></trkpt>
<trkpt lat="-27.479228" lon="152.999125"><ele>6.2</ele><time>2026-01-01T00:02:22Z</time></trkpt>
<trkpt lat="-27.479075" lon="152.999287"><ele>6.2</ele><time>2026-01-01T00:02:29Z</time></trkpt>
<trkpt lat="-27.47903" lon="152.999328"><ele>6.4</ele><time>2026-01-01T00:02:31Z</time></trkpt>
<trkpt lat="-27.478896" lon="152.999469"><ele>6.4</ele><time>2026-01-01T00:02:37Z</time></trkpt>
<trkpt lat="-27.478811" lon="152.999558"><ele>6.4</ele><time>2026-01-01T00:02:41Z</time></trkpt>
<trkpt lat="-27.478675" lon="152.999694"><ele>6.2</ele><time>2026-01-01T00:02:47Z</time></trkpt>
<trkpt lat="-27.47858" lon="152.999796"><ele>6.4</ele><time>2026-01-01T00:02:51Z</time></trkpt>
<trkpt lat="-27.478433" lon="152.999924"><ele>6.4</ele><time>2026-01-01T00:02:57Z</time></trkpt>
<trkpt lat="-27.478363" lon="152.99999"><ele>6.4</ele><time>2026-01-01T00:03:00Z</time></trkpt>
<trkpt lat="-27.47822" lon="153.000121"><ele>6.6</ele><time>2026-01-01T00:03:06Z</time></trkpt>
<trkpt lat="-27.478121" lon="153.000228"><ele>6.6</ele><time>2026-01-01T00:03:11Z</time></trkpt>
<trkpt lat="-27.47797" lon="153.000378"><ele>6.6</ele><time>2026-01-01T00:03:18Z</time></trkpt>
<trkpt lat="-27.477927" lon="153.000411"><ele>6.6</ele><time>2026-01-01T00:03:20Z</time></trkpt>
<trkpt lat="-27.477777" lon="153.000562"><ele>6.6</ele><time>2026-01-01T00:03:27Z</time></trkpt>
<trkpt lat="-27.477751" lon="153.000587"><ele>6.8</ele><time>2026-01-01T00:03:28Z</time></trkpt>
<trkpt lat="-27.477621" lon="153.000731"><ele>6.8</ele><time>2026-01-01T00:03:34Z</time></trkpt>
<trkpt lat="-27.477544" lon="153.000834"><ele>6.8</ele><time>2026-01-01T00:03:38Z</time></trkpt>
<trkpt lat="-27.477423" lon="153.000989"><ele>6.6</ele><time>2026-01-01T00:03:44Z</time></trkpt>
<trkpt lat="-27.477401" lon="153.001012"><ele>6.6</ele><time>2026-01-01T00:03:45Z</time></trkpt>
<trkpt lat="-27.477273" lon="153.001161"><ele>6.6</ele><time>2026-01-01T00:03:51Z</time></trkpt>
<trkpt lat="-27.477195" lon="153.001266"><ele>6.6</ele><time>2026-01-01T00:03:55Z</time></trkpt>
<trkpt lat="-27.477061" lon="153.001434"><ele>6.2</ele><time>2026-01-01T00:04:02Z</time></trkpt>
<trkpt lat="-27.476994" lon="153.001511"><ele>6.2</ele><time>2026-01-01T00:04:05Z</time></trkpt>
<trkpt lat="-27.476871" lon="153.00164"><ele>6</ele><time>2026-01-01T00:04:11Z</time></trkpt>
<trkpt lat="-27.476745" lon="153.001795"><ele>6.2</ele><time>2026-01-01T00:04:17Z</time></trkpt>
<trkpt lat="-27.476624" lon="153.001915"><ele>6.2</ele><time>2026-01-01T00:04:23Z</time></trkpt>
<trkpt lat="-27.476495" lon="153.002061"><ele>6.2</ele><time>2026-01-01T00:04:29Z</time></trkpt>
<trkpt lat="-27.476449" lon="153.002112"><ele>6.2</ele><time>2026-01-01T00:04:31Z</time></trkpt>
<trkpt lat="-27.476312" lon="153.002259"><ele>6.4</ele><time>2026-01-01T00:04:37Z</time></trkpt>
<trkpt lat="-27.476269" lon="153.002306"><ele>6.4</ele><time>2026-01-01T00:04:39Z</time></trkpt>
<trkpt lat="-27.476134" lon="153.002448"><ele>6.6</ele><time>2026-01-01T00:04:45Z</time></trkpt>
<trkpt lat="-27.476071" lon="153.002516"><ele>6.6</ele><time>2026-01-01T00:04:48Z</time></trkpt>
<trkpt lat="-27.476038" lon="153.002564"><ele>6.6</ele><time>2026-01-01T00:04:50Z</time></trkpt>
<trkpt lat="-27.476018" lon="153.002591"><ele>6.6</ele><time>2026-01-01T00:04:51Z</time></trkpt>
<trkpt lat="-27.475885" lon="153.002765"><ele>6.4</ele><time>2026-01-01T00:04:58Z</time></trkpt>
<trkpt lat="-27.475806" lon="153.002867"><ele>6.2</ele><time>2026-01-01T00:05:02Z</time></trkpt>
<trkpt lat="-27.475669" lon="153.003005"><ele>6.2</ele><time>2026-01-01T00:05:08Z</time></trkpt>
<trkpt lat="-27.475623" lon="153.00306"><ele>6</ele><time>2026-01-01T00:05:10Z</time></trkpt>
<trkpt lat="-27.475574" lon="153.003098"><ele>6</ele><time>2026-01-01T00:05:12Z</time></trkpt>
<trkpt lat="-27.475548" lon="153.003118"><ele>6</ele><time>2026-01-01T00:05:13Z</time></trkpt>
<trkpt lat="-27.475459" lon="153.00321"><ele>6</ele><time>2026-01-01T00:05:17Z</time></trkpt>
<trkpt lat="-27.475315" lon="153.003362"><ele>6.2</ele><time>2026-01-01T00:05:23Z</time></trkpt>
<trkpt lat="-27.475265" lon="153.00341"><ele>6.2</ele><time>2026-01-01T00:05:25Z</time></trkpt>
<trkpt lat="-27.475118" lon="153.003543"><ele>6.4</ele><time>2026-01-01T00:05:31Z</time></trkpt>
<trkpt lat="-27.475048" lon="153.003593"><ele>6.8</ele><time>2026-01-01T00:05:34Z</time></trkpt>
<trkpt lat="-27.474887" lon="153.003689"><ele>7</ele><time>2026-01-01T00:05:41Z</time></trkpt>
<trkpt lat="-27.474863" lon="153.003699"><ele>7.2</ele><time>2026-01-01T00:05:42Z</time></trkpt>
<trkpt lat="-27.474676" lon="153.003801"><ele>7.4</ele><time>2026-01-01T00:05:49Z</time></trkpt>
<trkpt lat="-27.474535" lon="153.003932"><ele>7</ele><time>2026-01-01T00:05:55Z</time></trkpt>
<trkpt lat="-27.474426" lon="153.004068"><ele>6.8</ele><time>2026-01-01T00:06:00Z</time></trkpt>
<trkpt lat="-27.474383" lon="153.004117"><ele>6.6</ele><time>2026-01-01T00:06:02Z</time></trkpt>
<trkpt lat="-27.474222" lon="153.00424"><ele>6.4</ele><time>2026-01-01T00:06:08Z</time></trkpt>
<trkpt lat="-27.474193" lon="153.004265"><ele>6.4</ele><time>2026-01-01T00:06:09Z</time></trkpt>
<trkpt lat="-27.474034" lon="153.004393"><ele>6.4</ele><time>2026-01-01T00:06:15Z</time></trkpt>
<trkpt lat="-27.473994" lon="153.004452"><ele>6.4</ele><time>2026-01-01T00:06:17Z</time></trkpt>
<trkpt lat="-27.473845" lon="153.004617"><ele>6.6</ele><time>2026-01-01T00:06:24Z</time></trkpt>
<trkpt lat="-27.473799" lon="153.004673"><ele>6.6</ele><time>2026-01-01T00:06:26Z</time></trkpt>
<trkpt lat="-27.473665" lon="153.004816"><ele>6.8</ele><time>2026-01-01T00:06:33Z</time></trkpt>
<trkpt lat="-27.473643" lon="153.004839"><ele>6.8</ele><time>2026-01-01T00:06:34Z</time></trkpt>
<trkpt lat="-27.473512" lon="153.005029"><ele>6.8</ele><time>2026-01-01T00:06:41Z</time></trkpt>
<trkpt lat="-27.473493" lon="153.005061"><ele>6.8</ele><time>2026-01-01T00:06:42Z</time></trkpt>
<trkpt lat="-27.473431" lon="153.005198"><ele>6.8</ele><time>2026-01-01T00:06:46Z</time></trkpt>
<trkpt lat="-27.473387" lon="153.005286"><ele>6.8</ele><time>2026-01-01T00:06:49Z</time></trkpt>
<trkpt lat="-27.473319" lon="153.005379"><ele>7</ele><time>2026-01-01T00:06:53Z</time></trkpt>
<trkpt lat="-27.473281" lon="153.005433"><ele>7</ele><time>2026-01-01T00:06:55Z</time></trkpt>
<trkpt lat="-27.47314" lon="153.00556"><ele>6.8</ele><time>2026-01-01T00:07:01Z</time></trkpt>
<trkpt lat="-27.473083" lon="153.00561"><ele>6.8</ele><time>2026-01-01T00:07:03Z</time></trkpt>
<trkpt lat="-27.472957" lon="153.005788"><ele>6.8</ele><time>2026-01-01T00:07:09Z</time></trkpt>
<trkpt lat="-27.472932" lon="153.00582"><ele>6.8</ele><time>2026-01-01T00:07:10Z</time></trkpt>
<trkpt lat="-27.472879" lon="153.005875"><ele>7</ele><time>2026-01-01T00:07:12Z</time></trkpt>
<trkpt lat="-27.472797" lon="153.005994"><ele>7.2</ele><time>2026-01-01T00:07:16Z</time></trkpt>
<trkpt lat="-27.472676" lon="153.006151"><ele>7.2</ele><time>2026-01-01T00:07:22Z</time></trkpt>
<trkpt lat="-27.472627" lon="153.006217"><ele>7.2</ele><time>2026-01-01T00:07:24Z</time></trkpt>
<trkpt lat="-27.472493" lon="153.006368"><ele>7.2</ele><time>2026-01-01T00:07:30Z</time></trkpt>
<trkpt lat="-27.472451" lon="153.006417"><ele>7.2</ele><time>2026-01-01T00:07:32Z</time></trkpt>
<trkpt lat="-27.472307" lon="153.006576"><ele>7.4</ele><time>2026-01-01T00:07:38Z</time></trkpt>
<trkpt lat="-27.472287" lon="153.006603"><ele>7.4</ele><time>2026-01-01T00:07:39Z</time></trkpt>
<trkpt lat="-27.472163" lon="153.006762"><ele>7.4</ele><time>2026-01-01T00:07:45Z</time></trkpt>
<trkpt lat="-27.472092" lon="153.006838"><ele>7.4</ele><time>2026-01-01T00:07:48Z</time></trkpt>
<trkpt lat="-27.47202" lon="153.006904"><ele>7.6</ele><time>2026-01-01T00:07:51Z</time></trkpt>
<trkpt lat="-27.471935" lon="153.007018"><ele>7.6</ele><time>2026-01-01T00:07:55Z</time></trkpt>
<trkpt lat="-27.471804" lon="153.007183"><ele>7.8</ele><time>2026-01-01T00:08:01Z</time></trkpt>
<trkpt lat="-27.471695" lon="153.007301"><ele>8</ele><time>2026-01-01T00:08:06Z</time></trkpt>
<trkpt lat="-27.471568" lon="153.007478"><ele>8.2</ele><time>2026-01-01T00:08:13Z</time></trkpt>
<trkpt lat="-27.471522" lon="153.007528"><ele>8</ele><time>2026-01-01T00:08:15Z</time></trkpt>
<trkpt lat="-27.47138" lon="153.007699"><ele>8.4</ele><time>2026-01-01T00:08:22Z</time></trkpt>
<trkpt lat="-27.471361" lon="153.007727"><ele>8.4</ele><time>2026-01-01T00:08:23Z</time></trkpt>
<trkpt lat="-27.471342" lon="153.007751"><ele>8.4</ele><time>2026-01-01T00:08:24Z</time></trkpt>
<trkpt lat="-27.471224" lon="153.007912"><ele>8.2</ele><time>2026-01-01T00:08:30Z</time></trkpt>
<trkpt lat="-27.471139" lon="153.008018"><ele>8.2</ele><time>2026-01-01T00:08:34Z</time></trkpt>
<trkpt lat="-27.471011" lon="153.00816"><ele>8.2</ele><time>2026-01-01T00:08:40Z</time></trkpt>
<trkpt lat="-27.470963" lon="153.008221"><ele>8.4</ele><time>2026-01-01T00:08:42Z</time></trkpt>
<trkpt lat="-27.470944" lon="153.008249"><ele>8.4</ele><time>2026-01-01T00:08:43Z</time></trkpt>
<trkpt lat="-27.470831" lon="153.00842"><ele>8.4</ele><time>2026-01-01T00:08:49Z</time></trkpt>
<trkpt lat="-27.47081" lon="153.008449"><ele>8.4</ele><time>2026-01-01T00:08:50Z</time></trkpt>
<trkpt lat="-27.470681" lon="153.008619"><ele>8.2</ele><time>2026-01-01T00:08:56Z</time></trkpt>
<trkpt lat="-27.47066" lon="153.008644"><ele>8</ele><time>2026-01-01T00:08:57Z</time></trkpt>
<trkpt lat="-27.470515" lon="153.008812"><ele>8</ele><time>2026-01-01T00:09:04Z</time></trkpt>
<trkpt lat="-27.470496" lon="153.008838"><ele>8</ele><time>2026-01-01T00:09:05Z</time></trkpt>
<trkpt lat="-27.470349" lon="153.008974"><ele>8</ele><time>2026-01-01T00:09:12Z</time></trkpt>
<trkpt lat="-27.470331" lon="153.008991"><ele>8.2</ele><time>2026-01-01T00:09:13Z</time></trkpt>
<trkpt lat="-27.470211" lon="153.009149"><ele>8.6</ele><time>2026-01-01T00:09:19Z</time></trkpt>
<trkpt lat="-27.470116" lon="153.009282"><ele>8.4</ele><time>2026-01-01T00:09:24Z</time></trkpt>
<trkpt lat="-27.470057" lon="153.009374"><ele>8.8</ele><time>2026-01-01T00:09:27Z</time></trkpt>
<trkpt lat="-27.469982" lon="153.00944"><ele>9</ele><time>2026-01-01T00:09:31Z</time></trkpt>
<trkpt lat="-27.469907" lon="153.009547"><ele>9.4</ele><time>2026-01-01T00:09:36Z</time></trkpt>
<trkpt lat="-27.469904" lon="153.009574"><ele>9.4</ele><time>2026-01-01T00:09:37Z</time></trkpt>
<trkpt lat="-27.469734" lon="153.009559"><ele>9.6</ele><time>2026-01-01T00:09:45Z</time></trkpt>
<trkpt lat="-27.469565" lon="153.009544"><ele>9.8</ele><time>2026-01-01T00:09:51Z</time></trkpt>
<trkpt lat="-27.469537" lon="153.009542"><ele>10</ele><time>2026-01-01T00:09:53Z</time></trkpt>
<trkpt lat="-27.469402" lon="153.009579"><ele>10.2</ele><time>2026-01-01T00:09:55Z</time></trkpt>
<trkpt lat="-27.469375" lon="153.009633"><ele>10.8</ele><time>2026-01-01T00:09:57Z</time></trkpt>
<trkpt lat="-27.469296" lon="153.009725"><ele>12</ele><time>2026-01-01T00:10:01Z</time></trkpt>
<trkpt lat="-27.469218" lon="153.009818"><ele>12.8</ele><time>2026-01-01T00:10:08Z</time></trkpt>
<trkpt lat="-27.469206" lon="153.009803"><ele>13</ele><time>2026-01-01T00:10:09Z</time></trkpt>
<trkpt lat="-27.469148" lon="153.009754"><ele>13.6</ele><time>2026-01-01T00:10:12Z</time></trkpt>
<trkpt lat="-27.469078" lon="153.009702"><ele>14.2</ele><time>2026-01-01T00:10:15Z</time></trkpt>
<trkpt lat="-27.46902" lon="153.00966"><ele>14.6</ele><time>2026-01-01T00:10:18Z</time></trkpt>
<trkpt lat="-27.468935" lon="153.009561"><ele>14.6</ele><time>2026-01-01T00:10:21Z</time></trkpt>
<trkpt lat="-27.468902" lon="153.009527"><ele>14.6</ele><time>2026-01-01T00:10:22Z</time></trkpt>
<trkpt lat="-27.46888" lon="153.009503"><ele>14.6</ele><time>2026-01-01T00:10:23Z</time></trkpt>
<trkpt lat="-27.4687" lon="153.009378"><ele>14</ele><time>2026-01-01T00:10:28Z</time></trkpt>
<trkpt lat="-27.468488" lon="153.009342"><ele>13.4</ele><time>2026-01-01T00:10:34Z</time></trkpt>
<trkpt lat="-27.468361" lon="153.009384"><ele>13.4</ele><time>2026-01-01T00:10:38Z</time></trkpt>
<trkpt lat="-27.468237" lon="153.009529"><ele>13.4</ele><time>2026-01-01T00:10:43Z</time></trkpt>
<trkpt lat="-27.468169" lon="153.009641"><ele>13.8</ele><time>2026-01-01T00:10:49Z</time></trkpt>
<trkpt lat="-27.468044" lon="153.009759"><ele>14.2</ele><time>2026-01-01T00:10:54Z</time></trkpt>
<trkpt lat="-27.467959" lon="153.009912"><ele>14.4</ele><time>2026-01-01T00:11:00Z</time></trkpt>
<trkpt lat="-27.467891" lon="153.010002"><ele>14.6</ele><time>2026-01-01T00:11:04Z</time></trkpt>
<trkpt lat="-27.467886" lon="153.010069"><ele>14.6</ele><time>2026-01-01T00:11:06Z</time></trkpt>
<trkpt lat="-27.467763" lon="153.010254"><ele>14.2</ele><time>2026-01-01T00:11:12Z</time></trkpt>
<trkpt lat="-27.467745" lon="153.01028"><ele>14.2</ele><time>2026-01-01T00:11:13Z</time></trkpt>
<trkpt lat="-27.467717" lon="153.010297"><ele>14</ele><time>2026-01-01T00:11:14Z</time></trkpt>
<trkpt lat="-27.46761" lon="153.01032"><ele>13.6</ele><time>2026-01-01T00:11:18Z</time></trkpt>
<trkpt lat="-27.467518" lon="153.010267"><ele>14.2</ele><time>2026-01-01T00:11:22Z</time></trkpt>
<trkpt lat="-27.467445" lon="153.010204"><ele>15</ele><time>2026-01-01T00:11:26Z</time></trkpt>
<trkpt lat="-27.467431" lon="153.010202"><ele>15.2</ele><time>2026-01-01T00:11:27Z</time></trkpt>
<trkpt lat="-27.467392" lon="153.010191"><ele>15.8</ele><time>2026-01-01T00:11:29Z</time></trkpt>
<trkpt lat="-27.467376" lon="153.010173"><ele>16</ele><time>2026-01-01T00:11:30Z</time></trkpt>
<trkpt lat="-27.467273" lon="153.010111"><ele>16.4</ele><time>2026-01-01T00:11:35Z</time></trkpt>
<trkpt lat="-27.467275" lon="153.010061"><ele>16.6</ele><time>2026-01-01T00:11:37Z</time></trkpt>
<trkpt lat="-27.467291" lon="153.01"><ele>16.6</ele><time>2026-01-01T00:11:39Z</time></trkpt>
<trkpt lat="-27.46731" lon="153.00975"><ele>17</ele><time>2026-01-01T00:11:46Z</time></trkpt>
<trkpt lat="-27.467301" lon="153.009669"><ele>17.2</ele><time>2026-01-01T00:11:48Z</time></trkpt>
<trkpt lat="-27.467309" lon="153.009635"><ele>17.4</ele><time>2026-01-01T00:11:49Z</time></trkpt>
<trkpt lat="-27.46736" lon="153.009437"><ele>18</ele><time>2026-01-01T00:11:55Z</time></trkpt>
<trkpt lat="-27.467385" lon="153.00927"><ele>18.6</ele><time>2026-01-01T00:12:00Z</time></trkpt>
<trkpt lat="-27.467414" lon="153.009176"><ele>18.8</ele><time>2026-01-01T00:12:03Z</time></trkpt>
<trkpt lat="-27.467421" lon="153.009066"><ele>19.2</ele><time>2026-01-01T00:12:08Z</time></trkpt>
<trkpt lat="-27.467296" lon="153.009079"><ele>19.4</ele><time>2026-01-01T00:12:12Z</time></trkpt>
<trkpt lat="-27.467192" lon="153.009104"><ele>19.6</ele><time>2026-01-01T00:12:15Z</time></trkpt>
<trkpt lat="-27.466993" lon="153.009121"><ele>19.6</ele><time>2026-01-01T00:12:21Z</time></trkpt>
<trkpt lat="-27.466966" lon="153.009129"><ele>19.8</ele><time>2026-01-01T00:12:22Z</time></trkpt>
<trkpt lat="-27.466769" lon="153.009175"><ele>20.2</ele><time>2026-01-01T00:12:29Z</time></trkpt>
<trkpt lat="-27.466652" lon="153.009199"><ele>20.6</ele><time>2026-01-01T00:12:33Z</time></trkpt>
<trkpt lat="-27.466501" lon="153.00931"><ele>20.2</ele><time>2026-01-01T00:12:39Z</time></trkpt>
<trkpt lat="-27.466485" lon="153.009341"><ele>20</ele><time>2026-01-01T00:12:40Z</time></trkpt>
<trkpt lat="-27.466429" lon="153.009554"><ele>19.6</ele><time>2026-01-01T00:12:47Z</time></trkpt>
<trkpt lat="-27.466408" lon="153.009621"><ele>19.6</ele><time>2026-01-01T00:12:49Z</time></trkpt>
<trkpt lat="-27.466405" lon="153.009827"><ele>19.6</ele><time>2026-01-01T00:12:55Z</time></trkpt>
<trkpt lat="-27.466415" lon="153.00993"><ele>19.8</ele><time>2026-01-01T00:12:58Z</time></trkpt>
<trkpt lat="-27.466464" lon="153.010151"><ele>20.6</ele><time>2026-01-01T00:13:05Z</time></trkpt>
<trkpt lat="-27.466469" lon="153.010181"><ele>20.6</ele><time>2026-01-01T00:13:06Z</time></trkpt>
<trkpt lat="-27.466477" lon="153.010276"><ele>20.8</ele><time>2026-01-01T00:13:09Z</time></trkpt>
<trkpt lat="-27.466421" lon="153.010353"><ele>21.2</ele><time>2026-01-01T00:13:13Z</time></trkpt>
<trkpt lat="-27.466253" lon="153.010385"><ele>21.6</ele><time>2026-01-01T00:13:19Z</time></trkpt>
<trkpt lat="-27.466191" lon="153.01039"><ele>21.6</ele><time>2026-01-01T00:13:21Z</time></trkpt>
<trkpt lat="-27.466004" lon="153.010414"><ele>21.4</ele><time>2026-01-01T00:13:27Z</time></trkpt>
<trkpt lat="-27.465976" lon="153.010417"><ele>21.4</ele><time>2026-01-01T00:13:28Z</time></trkpt>
<trkpt lat="-27.465758" lon="153.010384"><ele>21</ele><time>2026-01-01T00:13:35Z</time></trkpt>
<trkpt lat="-27.465611" lon="153.010388"><ele>20.6</ele><time>2026-01-01T00:13:39Z</time></trkpt>
<trkpt lat="-27.465559" lon="153.010415"><ele>20.2</ele><time>2026-01-01T00:13:41Z</time></trkpt>
<trkpt lat="-27.465393" lon="153.010518"><ele>19.6</ele><time>2026-01-01T00:13:47Z</time></trkpt>
<trkpt lat="-27.46529" lon="153.010534"><ele>19.6</ele><time>2026-01-01T00:13:50Z</time></trkpt>
<trkpt lat="-27.465248" lon="153.010532"><ele>19.6</ele><time>2026-01-01T00:13:51Z</time></trkpt>
<trkpt lat="-27.465109" lon="153.010572"><ele>19.4</ele><time>2026-01-01T00:13:56Z</time></trkpt>
<trkpt lat="-27.464967" lon="153.010611"><ele>19.4</ele><time>2026-01-01T00:14:01Z</time></trkpt>
<trkpt lat="-27.46494" lon="153.010617"><ele>19.4</ele><time>2026-01-01T00:14:02Z</time></trkpt>
<trkpt lat="-27.464809" lon="153.010645"><ele>19.4</ele><time>2026-01-01T00:14:07Z</time></trkpt>
<trkpt lat="-27.464786" lon="153.010658"><ele>19.4</ele><time>2026-01-01T00:14:08Z</time></trkpt>
<trkpt lat="-27.464629" lon="153.010696"><ele>19.2</ele><time>2026-01-01T00:14:14Z</time></trkpt>
<trkpt lat="-27.464431" lon="153.010727"><ele>19.2</ele><time>2026-01-01T00:14:20Z</time></trkpt>
<trkpt lat="-27.464367" lon="153.010721"><ele>19.2</ele><time>2026-01-01T00:14:22Z</time></trkpt>
<trkpt lat="-27.464182" lon="153.010703"><ele>19.2</ele><time>2026-01-01T00:14:27Z</time></trkpt>
<trkpt lat="-27.464158" lon="153.010694"><ele>19.2</ele><time>2026-01-01T00:14:28Z</time></trkpt>
<trkpt lat="-27.463945" lon="153.010662"><ele>19</ele><time>2026-01-01T00:14:35Z</time></trkpt>
<trkpt lat="-27.463911" lon="153.010661"><ele>19</ele><time>2026-01-01T00:14:36Z</time></trkpt>
<trkpt lat="-27.463705" lon="153.010698"><ele>18.8</ele><time>2026-01-01T00:14:42Z</time></trkpt>
<trkpt lat="-27.463673" lon="153.010704"><ele>18.8</ele><time>2026-01-01T00:14:43Z</time></trkpt>
<trkpt lat="-27.463516" lon="153.010817"><ele>19.4</ele><time>2026-01-01T00:14:49Z</time></trkpt>
<trkpt lat="-27.46342" lon="153.011"><ele>19.6</ele><time>2026-01-01T00:14:54Z</time></trkpt>
<trkpt lat="-27.46346" lon="153.011092"><ele>20.6</ele><time>2026-01-01T00:14:57Z</time></trkpt>
<trkpt lat="-27.463475" lon="153.011124"><ele>20.8</ele><time>2026-01-01T00:14:58Z</time></trkpt>
<trkpt lat="-27.463521" lon="153.011199"><ele>21</ele><time>2026-01-01T00:15:03Z</time></trkpt>
<trkpt lat="-27.463512" lon="153.01122"><ele>21.2</ele><time>2026-01-01T00:15:07Z</time></trkpt>
<trkpt lat="-27.463502" lon="153.011242"><ele>21.2</ele><time>2026-01-01T00:15:09Z</time></trkpt>
<trkpt lat="-27.463497" lon="153.011249"><ele>21.2</ele><time>2026-01-01T00:15:10Z</time></trkpt>
<trkpt lat="-27.463493" lon="153.01125"><ele>21.2</ele><time>2026-01-01T00:15:15Z</time></trkpt>
<trkpt lat="-27.463491" lon="153.01125"><ele>21.2</ele><time>2026-01-01T00:15:20Z</time></trkpt>
<trkpt lat="-27.463492" lon="153.01125"><ele>21</ele><time>2026-01-01T00:15:29Z</time></trkpt>
<trkpt lat="-27.463493" lon="153.01125"><ele>21</ele><time>2026-01-01T00:15:32Z</time></trkpt>
<trkpt lat="-27.463496" lon="153.011247"><ele>20.6</ele><time>2026-01-01T00:15:53Z</time></trkpt>
<trkpt lat="-27.463497" lon="153.011247"><ele>20.4</ele><time>2026-01-01T00:15:58Z</time></trkpt>
<trkpt lat="-27.463497" lon="153.011247"><ele>20.4</ele><time>2026-01-01T00:16:02Z</time></trkpt>
<trkpt lat="-27.463498" lon="153.011247"><ele>20.4</ele><time>2026-01-01T00:16:05Z</time></trkpt>
<trkpt lat="-27.463498" lon="153.011247"><ele>20.2</ele><time>2026-01-01T00:16:08Z</time></trkpt>
<trkpt lat="-27.463499" lon="153.011247"><ele>20.2</ele><time>2026-01-01T00:16:11Z</time></trkpt>
<trkpt lat="-27.463499" lon="153.011245"><ele>20.2</ele><time>2026-01-01T00:16:14Z</time></trkpt>
<trkpt lat="-27.463499" lon="153.011245"><ele>20.2</ele><time>2026-01-01T00:16:15Z</time></trkpt>
<trkpt lat="-27.463499" lon="153.011245"><ele>20.2</ele><time>2026-01-01T00:16:16Z</time></trkpt>
<trkpt lat="-27.463499" lon="153.01124"><ele>20.2</ele><time>2026-01-01T00:16:18Z</time></trkpt>
<trkpt lat="-27.463499" lon="153.011238"><ele>20.2</ele><time>2026-01-01T00:16:20Z</time></trkpt>
<trkpt lat="-27.4635" lon="153.011236"><ele>20</ele><time>2026-01-01T00:16:24Z</time></trkpt>
<trkpt lat="-27.4635" lon="153.011235"><ele>20</ele><time>2026-01-01T00:16:27Z</time></trkpt>
<trkpt lat="-27.4635" lon="153.011235"><ele>20</ele><time>2026-01-01T00:16:30Z</time></trkpt>
<trkpt lat="-27.463448" lon="153.011293"><ele>20</ele><time>2026-01-01T00:16:40Z</time></trkpt>
<trkpt lat="-27.463397" lon="153.011389"><ele>20.2</ele><time>2026-01-01T00:16:43Z</time></trkpt>
<trkpt lat="-27.463394" lon="153.011465"><ele>20.4</ele><time>2026-01-01T00:16:45Z</time></trkpt>
<trkpt lat="-27.463436" lon="153.01157"><ele>20.8</ele><time>2026-01-01T00:16:48Z</time></trkpt>
<trkpt lat="-27.46345" lon="153.011594"><ele>21.4</ele><time>2026-01-01T00:16:49Z</time></trkpt>
<trkpt lat="-27.463489" lon="153.011656"><ele>21.8</ele><time>2026-01-01T00:16:51Z</time></trkpt>
<trkpt lat="-27.46355" lon="153.011776"><ele>23</ele><time>2026-01-01T00:16:55Z</time></trkpt>
<trkpt lat="-27.46358" lon="153.011839"><ele>23.6</ele><time>2026-01-01T00:16:57Z</time></trkpt>
<trkpt lat="-27.463609" lon="153.011899"><ele>24</ele><time>2026-01-01T00:16:59Z</time></trkpt>
<trkpt lat="-27.463673" lon="153.011998"><ele>24.8</ele><time>2026-01-01T00:17:03Z</time></trkpt>
<trkpt lat="-27.463696" lon="153.01202"><ele>25</ele><time>2026-01-01T00:17:04Z</time></trkpt>
<trkpt lat="-27.463709" lon="153.012035"><ele>25.2</ele><time>2026-01-01T00:17:05Z</time></trkpt>
<trkpt lat="-27.463788" lon="153.012109"><ele>25.6</ele><time>2026-01-01T00:17:09Z</time></trkpt>
<trkpt lat="-27.463813" lon="153.012133"><ele>25.6</ele><time>2026-01-01T00:17:10Z</time></trkpt>
<trkpt lat="-27.463868" lon="153.012184"><ele>26.2</ele><time>2026-01-01T00:17:12Z</time></trkpt>
<trkpt lat="-27.463953" lon="153.012282"><ele>26.6</ele><time>2026-01-01T00:17:17Z</time></trkpt>
<trkpt lat="-27.463968" lon="153.012298"><ele>26.6</ele><time>2026-01-01T00:17:18Z</time></trkpt>
<trkpt lat="-27.464059" lon="153.01236"><ele>27</ele><time>2026-01-01T00:17:21Z</time></trkpt>
<trkpt lat="-27.464084" lon="153.012384"><ele>27.2</ele><time>2026-01-01T00:17:22Z</time></trkpt>
<trkpt lat="-27.464134" lon="153.012504"><ele>27.8</ele><time>2026-01-01T00:17:27Z</time></trkpt>
<trkpt lat="-27.464147" lon="153.012522"><ele>28</ele><time>2026-01-01T00:17:28Z</time></trkpt>
<trkpt lat="-27.464179" lon="153.012563"><ele>28</ele><time>2026-01-01T00:17:30Z</time></trkpt>
<trkpt lat="-27.464195" lon="153.012576"><ele>28.4</ele><time>2026-01-01T00:17:31Z</time></trkpt>
<trkpt lat="-27.464206" lon="153.012586"><ele>28.4</ele><time>2026-01-01T00:17:32Z</time></trkpt>
<trkpt lat="-27.464307" lon="153.012598"><ele>28.8</ele><time>2026-01-01T00:17:35Z</time></trkpt>
<trkpt lat="-27.46438" lon="153.012637"><ele>29</ele><time>2026-01-01T00:17:37Z</time></trkpt>
<trkpt lat="-27.464412" lon="153.012657"><ele>29</ele><time>2026-01-01T00:17:38Z</time></trkpt>
<trkpt lat="-27.464535" lon="153.012734"><ele>29.4</ele><time>2026-01-01T00:17:41Z</time></trkpt>
<trkpt lat="-27.464601" lon="153.012791"><ele>29.8</ele><time>2026-01-01T00:17:43Z</time></trkpt>
<trkpt lat="-27.464628" lon="153.012837"><ele>29.8</ele><time>2026-01-01T00:17:44Z</time></trkpt>
<trkpt lat="-27.464675" lon="153.01288"><ele>30</ele><time>2026-01-01T00:17:45Z</time></trkpt>
<trkpt lat="-27.464712" lon="153.012988"><ele>30.2</ele><time>2026-01-01T00:17:48Z</time></trkpt>
<trkpt lat="-27.464718" lon="153.01301"><ele>30.4</ele><time>2026-01-01T00:17:49Z</time></trkpt>
<trkpt lat="-27.464725" lon="153.013028"><ele>30.6</ele><time>2026-01-01T00:17:50Z</time></trkpt>
<trkpt lat="-27.464741" lon="153.013033"><ele>30.8</ele><time>2026-01-01T00:17:51Z</time></trkpt>
<trkpt lat="-27.464739" lon="153.013052"><ele>31</ele><time>2026-01-01T00:17:52Z</time></trkpt>
<trkpt lat="-27.464752" lon="153.013106"><ele>31.4</ele><time>2026-01-01T00:17:55Z</time></trkpt>
<trkpt lat="-27.464785" lon="153.013145"><ele>32</ele><time>2026-01-01T00:17:57Z</time></trkpt>
<trkpt lat="-27.46479" lon="153.013166"><ele>32.4</ele><time>2026-01-01T00:17:58Z</time></trkpt>
<trkpt lat="-27.464773" lon="153.013193"><ele>33</ele><time>2026-01-01T00:18:00Z</time></trkpt>
<trkpt lat="-27.46476" lon="153.013205"><ele>33.2</ele><time>2026-01-01T00:18:01Z</time></trkpt>
<trkpt lat="-27.464659" lon="153.013307"><ele>34</ele><time>2026-01-01T00:18:07Z</time></trkpt>
<trkpt lat="-27.46464" lon="153.013326"><ele>34.2</ele><time>2026-01-01T00:18:08Z</time></trkpt>
<trkpt lat="-27.464569" lon="153.013435"><ele>35</ele><time>2026-01-01T00:18:12Z</time></trkpt>
<trkpt lat="-27.464537" lon="153.013537"><ele>35.8</ele><time>2026-01-01T00:18:14Z</time></trkpt>
<trkpt lat="-27.464464" lon="153.013664"><ele>36.2</ele><time>2026-01-01T00:18:17Z</time></trkpt>
<trkpt lat="-27.464393" lon="153.013806"><ele>37.2</ele><time>2026-01-01T00:18:22Z</time></trkpt>
<trkpt lat="-27.46429" lon="153.01399"><ele>38.4</ele><time>2026-01-01T00:18:29Z</time></trkpt>
<trkpt lat="-27.464273" lon="153.014024"><ele>38.6</ele><time>2026-01-01T00:18:30Z</time></trkpt>
<trkpt lat="-27.46416" lon="153.014147"><ele>39.2</ele><time>2026-01-01T00:18:36Z</time></trkpt>
<trkpt lat="-27.464047" lon="153.014306"><ele>39.4</ele><time>2026-01-01T00:18:42Z</time></trkpt>
<trkpt lat="-27.463874" lon="153.014358"><ele>39</ele><time>2026-01-01T00:18:47Z</time></trkpt>
<trkpt lat="-27.463753" lon="153.014376"><ele>39</ele><time>2026-01-01T00:18:51Z</time></trkpt>
<trkpt lat="-27.463719" lon="153.014382"><ele>39</ele><time>2026-01-01T00:18:52Z</time></trkpt>
<trkpt lat="-27.463691" lon="153.01438"><ele>39</ele><time>2026-01-01T00:18:53Z</time></trkpt>
<trkpt lat="-27.463516" lon="153.014356"><ele>38.8</ele><time>2026-01-01T00:18:59Z</time></trkpt>
<trkpt lat="-27.463309" lon="153.014337"><ele>38.4</ele><time>2026-01-01T00:19:06Z</time></trkpt>
<trkpt lat="-27.463244" lon="153.014337"><ele>38</ele><time>2026-01-01T00:19:08Z</time></trkpt>
<trkpt lat="-27.463219" lon="153.014339"><ele>38</ele><time>2026-01-01T00:19:09Z</time></trkpt>
<trkpt lat="-27.46309" lon="153.014345"><ele>38.6</ele><time>2026-01-01T00:19:14Z</time></trkpt>
<trkpt lat="-27.46289" lon="153.014346"><ele>39.2</ele><time>2026-01-01T00:19:21Z</time></trkpt>
<trkpt lat="-27.462832" lon="153.014341"><ele>39.4</ele><time>2026-01-01T00:19:23Z</time></trkpt>
<trkpt lat="-27.462644" lon="153.014335"><ele>40</ele><time>2026-01-01T00:19:29Z</time></trkpt>
<trkpt lat="-27.462584" lon="153.014332"><ele>40</ele><time>2026-01-01T00:19:31Z</time></trkpt>
<trkpt lat="-27.462463" lon="153.014337"><ele>40.2</ele><time>2026-01-01T00:19:35Z</time></trkpt>
<trkpt lat="-27.462374" lon="153.014351"><ele>40.4</ele><time>2026-01-01T00:19:38Z</time></trkpt>
<trkpt lat="-27.462344" lon="153.014359"><ele>40.4</ele><time>2026-01-01T00:19:39Z</time></trkpt>
<trkpt lat="-27.462144" lon="153.014371"><ele>40.2</ele><time>2026-01-01T00:19:46Z</time></trkpt>
<trkpt lat="-27.462105" lon="153.01437"><ele>40</ele><time>2026-01-01T00:19:47Z</time></trkpt>
<trkpt lat="-27.461954" lon="153.014389"><ele>39.8</ele><time>2026-01-01T00:19:53Z</time></trkpt>
<trkpt lat="-27.461746" lon="153.0144"><ele>39.6</ele><time>2026-01-01T00:20:00Z</time></trkpt>
<trkpt lat="-27.461555" lon="153.014422"><ele>39.4</ele><time>2026-01-01T00:20:06Z</time></trkpt>
<trkpt lat="-27.461527" lon="153.014425"><ele>39.4</ele><time>2026-01-01T00:20:07Z</time></trkpt>
<trkpt lat="-27.461436" lon="153.014426"><ele>39.2</ele><time>2026-01-01T00:20:10Z</time></trkpt>
<trkpt lat="-27.461352" lon="153.014437"><ele>39.2</ele><time>2026-01-01T00:20:13Z</time></trkpt>
<trkpt lat="-27.461152" lon="153.014445"><ele>39.2</ele><time>2026-01-01T00:20:19Z</time></trkpt>
<trkpt lat="-27.461089" lon="153.014456"><ele>39.4</ele><time>2026-01-01T00:20:21Z</time></trkpt>
<trkpt lat="-27.460903" lon="153.014455"><ele>40.2</ele><time>2026-01-01T00:20:27Z</time></trkpt>
<trkpt lat="-27.460837" lon="153.014459"><ele>40.4</ele><time>2026-01-01T00:20:29Z</time></trkpt>
<trkpt lat="-27.460644" lon="153.014452"><ele>41</ele><time>2026-01-01T00:20:34Z</time></trkpt>
<trkpt lat="-27.460578" lon="153.014449"><ele>41.2</ele><time>2026-01-01T00:20:36Z</time></trkpt>
<trkpt lat="-27.46044" lon="153.014464"><ele>41.4</ele><time>2026-01-01T00:20:41Z</time></trkpt>
<trkpt lat="-27.460417" lon="153.014464"><ele>41.6</ele><time>2026-01-01T00:20:42Z</time></trkpt>
<trkpt lat="-27.460221" lon="153.014467"><ele>42.2</ele><time>2026-01-01T00:20:49Z</time></trkpt>
<trkpt lat="-27.46006" lon="153.014476"><ele>42.8</ele><time>2026-01-01T00:20:54Z</time></trkpt>
<trkpt lat="-27.459952" lon="153.014484"><ele>43.2</ele><time>2026-01-01T00:20:58Z</time></trkpt>
<trkpt lat="-27.459864" lon="153.014482"><ele>43.6</ele><time>2026-01-01T00:21:04Z</time></trkpt>
<trkpt lat="-27.459849" lon="153.014504"><ele>43.6</ele><time>2026-01-01T00:21:06Z</time></trkpt>
<trkpt lat="-27.459855" lon="153.014591"><ele>43.6</ele><time>2026-01-01T00:21:09Z</time></trkpt>
<trkpt lat="-27.459941" lon="153.014737"><ele>43</ele><time>2026-01-01T00:21:14Z</time></trkpt>
<trkpt lat="-27.459963" lon="153.014775"><ele>43.2</ele><time>2026-01-01T00:21:18Z</time></trkpt>
<trkpt lat="-27.459969" lon="153.014771"><ele>43.4</ele><time>2026-01-01T00:21:27Z</time></trkpt>
<trkpt lat="-27.459971" lon="153.014771"><ele>43.4</ele><time>2026-01-01T00:21:32Z</time></trkpt>
<trkpt lat="-27.459971" lon="153.014771"><ele>43.4</ele><time>2026-01-01T00:21:34Z</time></trkpt>
<trkpt lat="-27.459971" lon="153.014771"><ele>43.4</ele><time>2026-01-01T00:21:37Z</time></trkpt>
<trkpt lat="-27.459973" lon="153.014775"><ele>43.2</ele><time>2026-01-01T00:21:40Z</time></trkpt>
<trkpt lat="-27.460006" lon="153.014822"><ele>43</ele><time>2026-01-01T00:21:42Z</time></trkpt>
<trkpt lat="-27.460051" lon="153.014909"><ele>42.8</ele><time>2026-01-01T00:21:48Z</time></trkpt>
<trkpt lat="-27.460054" lon="153.014927"><ele>42.6</ele><time>2026-01-01T00:21:53Z</time></trkpt>
<trkpt lat="-27.460053" lon="153.014929"><ele>42.6</ele><time>2026-01-01T00:21:57Z</time></trkpt>
<trkpt lat="-27.460054" lon="153.014929"><ele>42.6</ele><time>2026-01-01T00:21:59Z</time></trkpt>
<trkpt lat="-27.460054" lon="153.014929"><ele>42.6</ele><time>2026-01-01T00:22:04Z</time></trkpt>
<trkpt lat="-27.460092" lon="153.01499"><ele>42.2</ele><time>2026-01-01T00:22:07Z</time></trkpt>
<trkpt lat="-27.460173" lon="153.015212"><ele>42.4</ele><time>2026-01-01T00:22:13Z</time></trkpt>
<trkpt lat="-27.46026" lon="153.015405"><ele>42.4</ele><time>2026-01-01T00:22:19Z</time></trkpt>
<trkpt lat="-27.460276" lon="153.015423"><ele>42.4</ele><time>2026-01-01T00:22:20Z</time></trkpt>
<trkpt lat="-27.460349" lon="153.015453"><ele>42.6</ele><time>2026-01-01T00:22:24Z</time></trkpt>
<trkpt lat="-27.460371" lon="153.015459"><ele>42.6</ele><time>2026-01-01T00:22:26Z</time></trkpt>
<trkpt lat="-27.460423" lon="153.015478"><ele>41.6</ele><time>2026-01-01T00:22:30Z</time></trkpt>
<trkpt lat="-27.460443" lon="153.01549"><ele>40.8</ele><time>2026-01-01T00:22:32Z</time></trkpt>
<trkpt lat="-27.46046" lon="153.015501"><ele>40.4</ele><time>2026-01-01T00:22:34Z</time></trkpt>
<trkpt lat="-27.460499" lon="153.015502"><ele>39.2</ele><time>2026-01-01T00:22:37Z</time></trkpt>
<trkpt lat="-27.46052" lon="153.015478"><ele>38.6</ele><time>2026-01-01T00:22:39Z</time></trkpt>
<trkpt lat="-27.460512" lon="153.015433"><ele>38.4</ele><time>2026-01-01T00:22:41Z</time></trkpt>
<trkpt lat="-27.460474" lon="153.015389"><ele>38.2</ele><time>2026-01-01T00:22:43Z</time></trkpt>
<trkpt lat="-27.460317" lon="153.01529"><ele>37.4</ele><time>2026-01-01T00:22:48Z</time></trkpt>
<trkpt lat="-27.460038" lon="153.015243"><ele>37.4</ele><time>2026-01-01T00:22:56Z</time></trkpt>
<trkpt lat="-27.459757" lon="153.015195"><ele>37.8</ele><time>2026-01-01T00:23:03Z</time></trkpt>
<trkpt lat="-27.45972" lon="153.015189"><ele>38</ele><time>2026-01-01T00:23:04Z</time></trkpt>
<trkpt lat="-27.459728" lon="153.015236"><ele>38</ele><time>2026-01-01T00:23:05Z</time></trkpt>
<trkpt lat="-27.459701" lon="153.015246"><ele>38.4</ele><time>2026-01-01T00:23:06Z</time></trkpt>
<trkpt lat="-27.459609" lon="153.015315"><ele>39.2</ele><time>2026-01-01T00:23:10Z</time></trkpt>
<trkpt lat="-27.459564" lon="153.015323"><ele>39.8</ele><time>2026-01-01T00:23:12Z</time></trkpt>
<trkpt lat="-27.459515" lon="153.015348"><ele>40.4</ele><time>2026-01-01T00:23:14Z</time></trkpt>
<trkpt lat="-27.459394" lon="153.015443"><ele>41</ele><time>2026-01-01T00:23:19Z</time></trkpt>
<trkpt lat="-27.459373" lon="153.015457"><ele>41.2</ele><time>2026-01-01T00:23:20Z</time></trkpt>
<trkpt lat="-27.45935" lon="153.015466"><ele>41.4</ele><time>2026-01-01T00:23:21Z</time></trkpt>
<trkpt lat="-27.459251" lon="153.015472"><ele>41.8</ele><time>2026-01-01T00:23:25Z</time></trkpt>
<trkpt lat="-27.459118" lon="153.015504"><ele>40.4</ele><time>2026-01-01T00:23:29Z</time></trkpt>
<trkpt lat="-27.459012" lon="153.01556"><ele>39</ele><time>2026-01-01T00:23:32Z</time></trkpt>
<trkpt lat="-27.458924" lon="153.015608"><ele>37.6</ele><time>2026-01-01T00:23:35Z</time></trkpt>
<trkpt lat="-27.458876" lon="153.015637"><ele>37</ele><time>2026-01-01T00:23:37Z</time></trkpt>
<trkpt lat="-27.458847" lon="153.015649"><ele>36.6</ele><time>2026-01-01T00:23:38Z</time></trkpt>
<trkpt lat="-27.458752" lon="153.015741"><ele>36</ele><time>2026-01-01T00:23:42Z</time></trkpt>
<trkpt lat="-27.458654" lon="153.015885"><ele>35.6</ele><time>2026-01-01T00:23:46Z</time></trkpt>
<trkpt lat="-27.458581" lon="153.016024"><ele>35.2</ele><time>2026-01-01T00:23:50Z</time></trkpt>
<trkpt lat="-27.458543" lon="153.016085"><ele>35.2</ele><time>2026-01-01T00:23:52Z</time></trkpt>
<trkpt lat="-27.458441" lon="153.016253"><ele>34.6</ele><time>2026-01-01T00:23:58Z</time></trkpt>
<trkpt lat="-27.458423" lon="153.016294"><ele>34.6</ele><time>2026-01-01T00:23:59Z</time></trkpt>
<trkpt lat="-27.458345" lon="153.016488"><ele>34</ele><time>2026-01-01T00:24:05Z</time></trkpt>
<trkpt lat="-27.458299" lon="153.016587"><ele>33.8</ele><time>2026-01-01T00:24:08Z</time></trkpt>
<trkpt lat="-27.458272" lon="153.01666"><ele>33.6</ele><time>2026-01-01T00:24:10Z</time></trkpt>
<trkpt lat="-27.45819" lon="153.01687"><ele>34</ele><time>2026-01-01T00:24:17Z</time></trkpt>
<trkpt lat="-27.458124" lon="153.017095"><ele>34.8</ele><time>2026-01-01T00:24:24Z</time></trkpt>
<trkpt lat="-27.458114" lon="153.01714"><ele>34.8</ele><time>2026-01-01T00:24:25Z</time></trkpt>
<trkpt lat="-27.458093" lon="153.017332"><ele>35</ele><time>2026-01-01T00:24:31Z</time></trkpt>
<trkpt lat="-27.458052" lon="153.017546"><ele>35</ele><time>2026-01-01T00:24:38Z</time></trkpt>
<trkpt lat="-27.458046" lon="153.017578"><ele>35</ele><time>2026-01-01T00:24:39Z</time></trkpt>
<trkpt lat="-27.458019" lon="153.017743"><ele>36</ele><time>2026-01-01T00:24:44Z</time></trkpt>
<trkpt lat="-27.458017" lon="153.017767"><ele>36.4</ele><time>2026-01-01T00:24:45Z</time></trkpt>
<trkpt lat="-27.458019" lon="153.017879"><ele>37</ele><time>2026-01-01T00:24:49Z</time></trkpt>
<trkpt lat="-27.45801" lon="153.018033"><ele>37.2</ele><time>2026-01-01T00:24:53Z</time></trkpt>
<trkpt lat="-27.457985" lon="153.018252"><ele>36</ele><time>2026-01-01T00:24:59Z</time></trkpt>
<trkpt lat="-27.457985" lon="153.018278"><ele>35.8</ele><time>2026-01-01T00:25:00Z</time></trkpt>
<trkpt lat="-27.457985" lon="153.01835"><ele>35.4</ele><time>2026-01-01T00:25:02Z</time></trkpt>
<trkpt lat="-27.457987" lon="153.018385"><ele>35.2</ele><time>2026-01-01T00:25:03Z</time></trkpt>
<trkpt lat="-27.457992" lon="153.018465"><ele>34.8</ele><time>2026-01-01T00:25:05Z</time></trkpt>
<trkpt lat="-27.458001" lon="153.018629"><ele>33.6</ele><time>2026-01-01T00:25:10Z</time></trkpt>
<trkpt lat="-27.458" lon="153.018722"><ele>33.4</ele><time>2026-01-01T00:25:13Z</time></trkpt>
<trkpt lat="-27.457974" lon="153.018948"><ele>33.4</ele><time>2026-01-01T00:25:19Z</time></trkpt>
<trkpt lat="-27.45797" lon="153.019009"><ele>33.4</ele><time>2026-01-01T00:25:21Z</time></trkpt>
<trkpt lat="-27.457943" lon="153.019245"><ele>33.2</ele><time>2026-01-01T00:25:28Z</time></trkpt>
<trkpt lat="-27.45793" lon="153.019351"><ele>32.6</ele><time>2026-01-01T00:25:31Z</time></trkpt>
<trkpt lat="-27.457925" lon="153.019386"><ele>32.4</ele><time>2026-01-01T00:25:32Z</time></trkpt>
</trkseg>
<trkseg>
<trkpt lat="-27.45782" lon="153.019122"><ele>33.8</ele><time>2026-01-01T10:48:29Z</time></trkpt>
<trkpt lat="-27.457876" lon="153.018904"><ele>33.4</ele><time>2026-01-01T10:48:36Z</time></trkpt>
<trkpt lat="-27.457896" lon="153.018836"><ele>33.4</ele><time>2026-01-01T10:48:38Z</time></trkpt>
<trkpt lat="-27.457896" lon="153.018637"><ele>33.6</ele><time>2026-01-01T10:48:43Z</time></trkpt>
<trkpt lat="-27.457895" lon="153.018537"><ele>34</ele><time>2026-01-01T10:48:46Z</time></trkpt>
<trkpt lat="-27.457903" lon="153.018504"><ele>34.2</ele><time>2026-01-01T10:48:47Z</time></trkpt>
<trkpt lat="-27.457918" lon="153.018405"><ele>34.6</ele><time>2026-01-01T10:48:50Z</time></trkpt>
<trkpt lat="-27.457923" lon="153.018244"><ele>35.4</ele><time>2026-01-01T10:48:55Z</time></trkpt>
<trkpt lat="-27.457924" lon="153.018185"><ele>35.6</ele><time>2026-01-01T10:48:57Z</time></trkpt>
<trkpt lat="-27.457935" lon="153.018027"><ele>36.6</ele><time>2026-01-01T10:49:02Z</time></trkpt>
<trkpt lat="-27.457944" lon="153.017902"><ele>36.6</ele><time>2026-01-01T10:49:06Z</time></trkpt>
<trkpt lat="-27.457939" lon="153.017753"><ele>35.6</ele><time>2026-01-01T10:49:12Z</time></trkpt>
<trkpt lat="-27.457936" lon="153.017719"><ele>35.4</ele><time>2026-01-01T10:49:13Z</time></trkpt>
<trkpt lat="-27.457987" lon="153.017526"><ele>34.4</ele><time>2026-01-01T10:49:19Z</time></trkpt>
<trkpt lat="-27.458096" lon="153.017327"><ele>34.4</ele><time>2026-01-01T10:49:25Z</time></trkpt>
<trkpt lat="-27.45812" lon="153.01723"><ele>34.2</ele><time>2026-01-01T10:49:28Z</time></trkpt>
<trkpt lat="-27.458149" lon="153.017113"><ele>34.2</ele><time>2026-01-01T10:49:32Z</time></trkpt>
<trkpt lat="-27.45823" lon="153.01691"><ele>33.4</ele><time>2026-01-01T10:49:39Z</time></trkpt>
<trkpt lat="-27.458243" lon="153.016878"><ele>33.4</ele><time>2026-01-01T10:49:40Z</time></trkpt>
<trkpt lat="-27.458257" lon="153.016845"><ele>33.2</ele><time>2026-01-01T10:49:41Z</time></trkpt>
<trkpt lat="-27.458336" lon="153.016721"><ele>32.6</ele><time>2026-01-01T10:49:45Z</time></trkpt>
<trkpt lat="-27.458384" lon="153.016637"><ele>32.4</ele><time>2026-01-01T10:49:48Z</time></trkpt>
<trkpt lat="-27.458406" lon="153.016578"><ele>32.4</ele><time>2026-01-01T10:49:50Z</time></trkpt>
<trkpt lat="-27.458432" lon="153.016523"><ele>32.6</ele><time>2026-01-01T10:49:52Z</time></trkpt>
<trkpt lat="-27.458469" lon="153.016439"><ele>32.8</ele><time>2026-01-01T10:49:55Z</time></trkpt>
<trkpt lat="-27.458511" lon="153.016361"><ele>32.8</ele><time>2026-01-01T10:49:58Z</time></trkpt>
<trkpt lat="-27.458581" lon="153.016184"><ele>33.2</ele><time>2026-01-01T10:50:04Z</time></trkpt>
<trkpt lat="-27.458658" lon="153.016085"><ele>33.6</ele><time>2026-01-01T10:50:08Z</time></trkpt>
<trkpt lat="-27.458704" lon="153.016035"><ele>33.6</ele><time>2026-01-01T10:50:10Z</time></trkpt>
<trkpt lat="-27.458718" lon="153.016006"><ele>33.6</ele><time>2026-01-01T10:50:11Z</time></trkpt>
<trkpt lat="-27.458827" lon="153.015854"><ele>34.2</ele><time>2026-01-01T10:50:17Z</time></trkpt>
<trkpt lat="-27.458868" lon="153.015817"><ele>34.2</ele><time>2026-01-01T10:50:19Z</time></trkpt>
<trkpt lat="-27.458978" lon="153.015718"><ele>35</ele><time>2026-01-01T10:50:25Z</time></trkpt>
<trkpt lat="-27.459024" lon="153.015692"><ele>35.6</ele><time>2026-01-01T10:50:27Z</time></trkpt>
<trkpt lat="-27.459118" lon="153.015645"><ele>36.8</ele><time>2026-01-01T10:50:31Z</time></trkpt>
<trkpt lat="-27.459141" lon="153.015635"><ele>37.4</ele><time>2026-01-01T10:50:32Z</time></trkpt>
<trkpt lat="-27.459187" lon="153.015612"><ele>38.4</ele><time>2026-01-01T10:50:34Z</time></trkpt>
<trkpt lat="-27.459262" lon="153.015574"><ele>39.4</ele><time>2026-01-01T10:50:37Z</time></trkpt>
<trkpt lat="-27.45933" lon="153.01553"><ele>40.2</ele><time>2026-01-01T10:50:40Z</time></trkpt>
<trkpt lat="-27.459402" lon="153.015508"><ele>40.4</ele><time>2026-01-01T10:50:43Z</time></trkpt>
<trkpt lat="-27.459505" lon="153.015462"><ele>39.4</ele><time>2026-01-01T10:50:47Z</time></trkpt>
<trkpt lat="-27.459676" lon="153.015369"><ele>39.8</ele><time>2026-01-01T10:50:53Z</time></trkpt>
<trkpt lat="-27.459703" lon="153.015356"><ele>40</ele><time>2026-01-01T10:50:54Z</time></trkpt>
<trkpt lat="-27.459759" lon="153.015332"><ele>40.6</ele><time>2026-01-01T10:50:56Z</time></trkpt>
<trkpt lat="-27.45985" lon="153.0153"><ele>41</ele><time>2026-01-01T10:51:00Z</time></trkpt>
<trkpt lat="-27.459948" lon="153.015228"><ele>41.2</ele><time>2026-01-01T10:51:05Z</time></trkpt>
<trkpt lat="-27.459931" lon="153.015118"><ele>40.8</ele><time>2026-01-01T10:51:09Z</time></trkpt>
<trkpt lat="-27.459839" lon="153.01497"><ele>41.6</ele><time>2026-01-01T10:51:16Z</time></trkpt>
<trkpt lat="-27.459767" lon="153.014929"><ele>41.6</ele><time>2026-01-01T10:51:23Z</time></trkpt>
<trkpt lat="-27.459753" lon="153.014899"><ele>41.4</ele><time>2026-01-01T10:51:30Z</time></trkpt>
<trkpt lat="-27.459709" lon="153.01479"><ele>41.2</ele><time>2026-01-01T10:51:34Z</time></trkpt>
<trkpt lat="-27.45959" lon="153.014633"><ele>42</ele><time>2026-01-01T10:51:42Z</time></trkpt>
<trkpt lat="-27.459585" lon="153.014634"><ele>41.8</ele><time>2026-01-01T10:51:46Z</time></trkpt>
<trkpt lat="-27.459584" lon="153.014631"><ele>41.8</ele><time>2026-01-01T10:51:57Z</time></trkpt>
<trkpt lat="-27.459544" lon="153.014581"><ele>42</ele><time>2026-01-01T10:52:00Z</time></trkpt>
<trkpt lat="-27.459509" lon="153.014534"><ele>42.2</ele><time>2026-01-01T10:52:04Z</time></trkpt>
<trkpt lat="-27.4595" lon="153.014526"><ele>42.4</ele><time>2026-01-01T10:52:07Z</time></trkpt>
<trkpt lat="-27.459496" lon="153.014525"><ele>42.4</ele><time>2026-01-01T10:52:10Z</time></trkpt>
<trkpt lat="-27.459497" lon="153.014525"><ele>42.2</ele><time>2026-01-01T10:52:20Z</time></trkpt>
<trkpt lat="-27.459497" lon="153.014525"><ele>42.2</ele><time>2026-01-01T10:52:24Z</time></trkpt>
<trkpt lat="-27.459497" lon="153.014525"><ele>42.2</ele><time>2026-01-01T10:52:26Z</time></trkpt>
<trkpt lat="-27.459497" lon="153.014525"><ele>42.2</ele><time>2026-01-01T10:52:28Z</time></trkpt>
<trkpt lat="-27.459496" lon="153.014525"><ele>42</ele><time>2026-01-01T10:52:31Z</time></trkpt>
<trkpt lat="-27.459496" lon="153.014525"><ele>42</ele><time>2026-01-01T10:52:32Z</time></trkpt>
<trkpt lat="-27.459502" lon="153.014525"><ele>42</ele><time>2026-01-01T10:52:33Z</time></trkpt>
<trkpt lat="-27.459535" lon="153.01453"><ele>42</ele><time>2026-01-01T10:52:34Z</time></trkpt>
<trkpt lat="-27.459633" lon="153.01454"><ele>42</ele><time>2026-01-01T10:52:37Z</time></trkpt>
<trkpt lat="-27.45967" lon="153.014543"><ele>41.8</ele><time>2026-01-01T10:52:38Z</time></trkpt>
<trkpt lat="-27.459738" lon="153.014549"><ele>41.6</ele><time>2026-01-01T10:52:40Z</time></trkpt>
<trkpt lat="-27.459811" lon="153.014533"><ele>41.6</ele><time>2026-01-01T10:52:44Z</time></trkpt>
<trkpt lat="-27.459819" lon="153.014535"><ele>41.6</ele><time>2026-01-01T10:52:51Z</time></trkpt>
<trkpt lat="-27.459819" lon="153.014536"><ele>41.6</ele><time>2026-01-01T10:52:54Z</time></trkpt>
<trkpt lat="-27.459819" lon="153.014535"><ele>41.6</ele><time>2026-01-01T10:52:57Z</time></trkpt>
<trkpt lat="-27.459819" lon="153.014535"><ele>41.6</ele><time>2026-01-01T10:53:00Z</time></trkpt>
<trkpt lat="-27.459819" lon="153.014535"><ele>41.6</ele><time>2026-01-01T10:53:01Z</time></trkpt>
<trkpt lat="-27.459819" lon="153.014535"><ele>41.6</ele><time>2026-01-01T10:53:05Z</time></trkpt>
<trkpt lat="-27.459814" lon="153.014498"><ele>41.6</ele><time>2026-01-01T10:53:11Z</time></trkpt>
<trkpt lat="-27.459804" lon="153.014463"><ele>41.6</ele><time>2026-01-01T10:53:12Z</time></trkpt>
<trkpt lat="-27.459701" lon="153.014317"><ele>42.4</ele><time>2026-01-01T10:53:17Z</time></trkpt>
<trkpt lat="-27.459673" lon="153.014288"><ele>42.6</ele><time>2026-01-01T10:53:18Z</time></trkpt>
<trkpt lat="-27.459618" lon="153.014257"><ele>43</ele><time>2026-01-01T10:53:20Z</time></trkpt>
<trkpt lat="-27.459574" lon="153.014226"><ele>43.4</ele><time>2026-01-01T10:53:22Z</time></trkpt>
<trkpt lat="-27.459557" lon="153.014203"><ele>43.4</ele><time>2026-01-01T10:53:23Z</time></trkpt>
<trkpt lat="-27.459498" lon="153.01412"><ele>43.4</ele><time>2026-01-01T10:53:26Z</time></trkpt>
<trkpt lat="-27.459465" lon="153.014065"><ele>43.8</ele><time>2026-01-01T10:53:28Z</time></trkpt>
<trkpt lat="-27.459453" lon="153.014041"><ele>44</ele><time>2026-01-01T10:53:29Z</time></trkpt>
<trkpt lat="-27.459415" lon="153.013979"><ele>44</ele><time>2026-01-01T10:53:31Z</time></trkpt>
<trkpt lat="-27.459352" lon="153.013846"><ele>44.6</ele><time>2026-01-01T10:53:36Z</time></trkpt>
<trkpt lat="-27.459344" lon="153.013823"><ele>44.8</ele><time>2026-01-01T10:53:37Z</time></trkpt>
<trkpt lat="-27.459342" lon="153.013812"><ele>45</ele><time>2026-01-01T10:53:38Z</time></trkpt>
<trkpt lat="-27.459354" lon="153.013791"><ele>45.8</ele><time>2026-01-01T10:53:40Z</time></trkpt>
<trkpt lat="-27.459359" lon="153.013781"><ele>46</ele><time>2026-01-01T10:53:41Z</time></trkpt>
<trkpt lat="-27.459364" lon="153.01376"><ele>46.4</ele><time>2026-01-01T10:53:43Z</time></trkpt>
<trkpt lat="-27.459393" lon="153.013703"><ele>47.2</ele><time>2026-01-01T10:53:46Z</time></trkpt>
<trkpt lat="-27.459407" lon="153.013687"><ele>47.4</ele><time>2026-01-01T10:53:47Z</time></trkpt>
<trkpt lat="-27.459446" lon="153.013622"><ele>48.2</ele><time>2026-01-01T10:53:52Z</time></trkpt>
<trkpt lat="-27.459466" lon="153.013596"><ele>48.6</ele><time>2026-01-01T10:53:54Z</time></trkpt>
<trkpt lat="-27.459472" lon="153.013585"><ele>48.8</ele><time>2026-01-01T10:53:55Z</time></trkpt>
<trkpt lat="-27.459489" lon="153.01357"><ele>49</ele><time>2026-01-01T10:53:56Z</time></trkpt>
<trkpt lat="-27.459517" lon="153.013542"><ele>49.2</ele><time>2026-01-01T10:53:58Z</time></trkpt>
<trkpt lat="-27.459544" lon="153.013512"><ele>49.6</ele><time>2026-01-01T10:54:01Z</time></trkpt>
<trkpt lat="-27.459566" lon="153.013478"><ele>50.2</ele><time>2026-01-01T10:54:04Z</time></trkpt>
<trkpt lat="-27.459575" lon="153.01347"><ele>50.4</ele><time>2026-01-01T10:54:05Z</time></trkpt>
<trkpt lat="-27.459597" lon="153.013445"><ele>50.6</ele><time>2026-01-01T10:54:08Z</time></trkpt>
<trkpt lat="-27.459687" lon="153.013359"><ele>50</ele><time>2026-01-01T10:54:14Z</time></trkpt>
<trkpt lat="-27.459746" lon="153.013295"><ele>49.2</ele><time>2026-01-01T10:54:17Z</time></trkpt>
<trkpt lat="-27.459815" lon="153.013224"><ele>48.2</ele><time>2026-01-01T10:54:21Z</time></trkpt>
<trkpt lat="-27.459876" lon="153.013165"><ele>46.8</ele><time>2026-01-01T10:54:24Z</time></trkpt>
<trkpt lat="-27.459915" lon="153.013126"><ele>45.6</ele><time>2026-01-01T10:54:26Z</time></trkpt>
<trkpt lat="-27.459977" lon="153.013081"><ele>44.2</ele><time>2026-01-01T10:54:29Z</time></trkpt>
<trkpt lat="-27.460018" lon="153.013039"><ele>43.2</ele><time>2026-01-01T10:54:31Z</time></trkpt>
<trkpt lat="-27.460076" lon="153.012986"><ele>41.8</ele><time>2026-01-01T10:54:34Z</time></trkpt>
<trkpt lat="-27.460108" lon="153.012944"><ele>40.6</ele><time>2026-01-01T10:54:36Z</time></trkpt>
<trkpt lat="-27.460167" lon="153.012906"><ele>39.4</ele><time>2026-01-01T10:54:39Z</time></trkpt>
<trkpt lat="-27.460245" lon="153.012915"><ele>38.2</ele><time>2026-01-01T10:54:42Z</time></trkpt>
<trkpt lat="-27.460315" lon="153.012927"><ele>37.4</ele><time>2026-01-01T10:54:45Z</time></trkpt>
<trkpt lat="-27.460359" lon="153.012922"><ele>37</ele><time>2026-01-01T10:54:47Z</time></trkpt>
<trkpt lat="-27.460389" lon="153.012917"><ele>36.6</ele><time>2026-01-01T10:54:48Z</time></trkpt>
<trkpt lat="-27.460413" lon="153.012915"><ele>35.8</ele><time>2026-01-01T10:54:49Z</time></trkpt>
<trkpt lat="-27.460456" lon="153.012906"><ele>35.2</ele><time>2026-01-01T10:54:51Z</time></trkpt>
<trkpt lat="-27.460485" lon="153.012901"><ele>34.8</ele><time>2026-01-01T10:54:52Z</time></trkpt>
<trkpt lat="-27.460565" lon="153.012881"><ele>33.6</ele><time>2026-01-01T10:54:55Z</time></trkpt>
<trkpt lat="-27.460601" lon="153.012873"><ele>33</ele><time>2026-01-01T10:54:56Z</time></trkpt>
<trkpt lat="-27.46066" lon="153.01286"><ele>32.4</ele><time>2026-01-01T10:54:58Z</time></trkpt>
<trkpt lat="-27.46071" lon="153.01285"><ele>31.2</ele><time>2026-01-01T10:55:00Z</time></trkpt>
<trkpt lat="-27.460764" lon="153.012836"><ele>30.2</ele><time>2026-01-01T10:55:02Z</time></trkpt>
<trkpt lat="-27.460828" lon="153.012822"><ele>29.6</ele><time>2026-01-01T10:55:04Z</time></trkpt>
<trkpt lat="-27.460853" lon="153.012819"><ele>29</ele><time>2026-01-01T10:55:05Z</time></trkpt>
<trkpt lat="-27.460932" lon="153.012807"><ele>27.6</ele><time>2026-01-01T10:55:08Z</time></trkpt>
<trkpt lat="-27.46098" lon="153.0128"><ele>26.6</ele><time>2026-01-01T10:55:10Z</time></trkpt>
<trkpt lat="-27.461036" lon="153.012788"><ele>25.4</ele><time>2026-01-01T10:55:12Z</time></trkpt>
<trkpt lat="-27.461126" lon="153.012751"><ele>24.2</ele><time>2026-01-01T10:55:15Z</time></trkpt>
<trkpt lat="-27.461183" lon="153.012721"><ele>23</ele><time>2026-01-01T10:55:17Z</time></trkpt>
<trkpt lat="-27.461227" lon="153.012665"><ele>22</ele><time>2026-01-01T10:55:19Z</time></trkpt>
<trkpt lat="-27.461238" lon="153.012598"><ele>21.4</ele><time>2026-01-01T10:55:21Z</time></trkpt>
<trkpt lat="-27.461205" lon="153.012381"><ele>21.4</ele><time>2026-01-01T10:55:27Z</time></trkpt>
<trkpt lat="-27.461156" lon="153.01219"><ele>21.4</ele><time>2026-01-01T10:55:33Z</time></trkpt>
<trkpt lat="-27.461152" lon="153.012065"><ele>21.2</ele><time>2026-01-01T10:55:37Z</time></trkpt>
<trkpt lat="-27.461147" lon="153.012"><ele>21</ele><time>2026-01-01T10:55:39Z</time></trkpt>
<trkpt lat="-27.461117" lon="153.011821"><ele>19.8</ele><time>2026-01-01T10:55:45Z</time></trkpt>
<trkpt lat="-27.461118" lon="153.011798"><ele>19.6</ele><time>2026-01-01T10:55:46Z</time></trkpt>
<trkpt lat="-27.461134" lon="153.011803"><ele>19.4</ele><time>2026-01-01T10:55:49Z</time></trkpt>
<trkpt lat="-27.461135" lon="153.011823"><ele>19.6</ele><time>2026-01-01T10:55:50Z</time></trkpt>
<trkpt lat="-27.461152" lon="153.011921"><ele>20.6</ele><time>2026-01-01T10:55:55Z</time></trkpt>
<trkpt lat="-27.461149" lon="153.011918"><ele>20.8</ele><time>2026-01-01T10:55:56Z</time></trkpt>
<trkpt lat="-27.461139" lon="153.011886"><ele>21.4</ele><time>2026-01-01T10:55:58Z</time></trkpt>
<trkpt lat="-27.461128" lon="153.011833"><ele>21.8</ele><time>2026-01-01T10:56:00Z</time></trkpt>
<trkpt lat="-27.461114" lon="153.011778"><ele>22.4</ele><time>2026-01-01T10:56:02Z</time></trkpt>
<trkpt lat="-27.461111" lon="153.011733"><ele>23.4</ele><time>2026-01-01T10:56:04Z</time></trkpt>
<trkpt lat="-27.461106" lon="153.011699"><ele>23.8</ele><time>2026-01-01T10:56:05Z</time></trkpt>
<trkpt lat="-27.461093" lon="153.011619"><ele>24.4</ele><time>2026-01-01T10:56:08Z</time></trkpt>
<trkpt lat="-27.461066" lon="153.011477"><ele>25</ele><time>2026-01-01T10:56:13Z</time></trkpt>
<trkpt lat="-27.461059" lon="153.011449"><ele>25</ele><time>2026-01-01T10:56:14Z</time></trkpt>
<trkpt lat="-27.461037" lon="153.011323"><ele>23.8</ele><time>2026-01-01T10:56:19Z</time></trkpt>
<trkpt lat="-27.461042" lon="153.0113"><ele>23.6</ele><time>2026-01-01T10:56:20Z</time></trkpt>
<trkpt lat="-27.461055" lon="153.011278"><ele>23.4</ele><time>2026-01-01T10:56:21Z</time></trkpt>
<trkpt lat="-27.461085" lon="153.01126"><ele>22.8</ele><time>2026-01-01T10:56:23Z</time></trkpt>
<trkpt lat="-27.461093" lon="153.011264"><ele>22.6</ele><time>2026-01-01T10:56:24Z</time></trkpt>
<trkpt lat="-27.461103" lon="153.011275"><ele>22.2</ele><time>2026-01-01T10:56:25Z</time></trkpt>
<trkpt lat="-27.461093" lon="153.011302"><ele>21.4</ele><time>2026-01-01T10:56:27Z</time></trkpt>
<trkpt lat="-27.461073" lon="153.011319"><ele>21</ele><time>2026-01-01T10:56:29Z</time></trkpt>
<trkpt lat="-27.461056" lon="153.011325"><ele>20.8</ele><time>2026-01-01T10:56:30Z</time></trkpt>
<trkpt lat="-27.461013" lon="153.011337"><ele>20</ele><time>2026-01-01T10:56:32Z</time></trkpt>
<trkpt lat="-27.461" lon="153.011337"><ele>19.4</ele><time>2026-01-01T10:56:36Z</time></trkpt>
<trkpt lat="-27.461004" lon="153.011331"><ele>19.4</ele><time>2026-01-01T10:56:37Z</time></trkpt>
<trkpt lat="-27.461015" lon="153.011311"><ele>18.8</ele><time>2026-01-01T10:56:39Z</time></trkpt>
<trkpt lat="-27.461061" lon="153.011257"><ele>17.6</ele><time>2026-01-01T10:56:42Z</time></trkpt>
<trkpt lat="-27.461095" lon="153.011141"><ele>16.6</ele><time>2026-01-01T10:56:46Z</time></trkpt>
<trkpt lat="-27.461108" lon="153.011116"><ele>16.4</ele><time>2026-01-01T10:56:47Z</time></trkpt>
<trkpt lat="-27.461133" lon="153.010971"><ele>16.2</ele><time>2026-01-01T10:56:51Z</time></trkpt>
<trkpt lat="-27.461136" lon="153.010943"><ele>16.2</ele><time>2026-01-01T10:56:52Z</time></trkpt>
<trkpt lat="-27.46118" lon="153.010795"><ele>16</ele><time>2026-01-01T10:56:57Z</time></trkpt>
<trkpt lat="-27.461207" lon="153.010795"><ele>15.8</ele><time>2026-01-01T10:56:58Z</time></trkpt>
<trkpt lat="-27.461259" lon="153.010795"><ele>15</ele><time>2026-01-01T10:57:00Z</time></trkpt>
<trkpt lat="-27.46137" lon="153.010761"><ele>14.2</ele><time>2026-01-01T10:57:04Z</time></trkpt>
<trkpt lat="-27.461397" lon="153.010755"><ele>14</ele><time>2026-01-01T10:57:05Z</time></trkpt>
<trkpt lat="-27.461418" lon="153.010752"><ele>14</ele><time>2026-01-01T10:57:06Z</time></trkpt>
<trkpt lat="-27.461448" lon="153.010747"><ele>13.8</ele><time>2026-01-01T10:57:07Z</time></trkpt>
<trkpt lat="-27.461649" lon="153.010712"><ele>13</ele><time>2026-01-01T10:57:14Z</time></trkpt>
<trkpt lat="-27.461683" lon="153.010705"><ele>13</ele><time>2026-01-01T10:57:15Z</time></trkpt>
<trkpt lat="-27.461853" lon="153.010668"><ele>12.4</ele><time>2026-01-01T10:57:21Z</time></trkpt>
<trkpt lat="-27.461974" lon="153.010639"><ele>12.2</ele><time>2026-01-01T10:57:25Z</time></trkpt>
<trkpt lat="-27.462032" lon="153.010648"><ele>12.2</ele><time>2026-01-01T10:57:27Z</time></trkpt>
<trkpt lat="-27.462055" lon="153.010669"><ele>12</ele><time>2026-01-01T10:57:28Z</time></trkpt>
<trkpt lat="-27.462074" lon="153.010696"><ele>12</ele><time>2026-01-01T10:57:29Z</time></trkpt>
<trkpt lat="-27.462098" lon="153.010749"><ele>11.8</ele><time>2026-01-01T10:57:31Z</time></trkpt>
<trkpt lat="-27.462125" lon="153.010802"><ele>11.8</ele><time>2026-01-01T10:57:33Z</time></trkpt>
<trkpt lat="-27.462187" lon="153.010947"><ele>11.2</ele><time>2026-01-01T10:57:38Z</time></trkpt>
<trkpt lat="-27.462224" lon="153.011004"><ele>11</ele><time>2026-01-01T10:57:40Z</time></trkpt>
<trkpt lat="-27.462271" lon="153.010999"><ele>11</ele><time>2026-01-01T10:57:42Z</time></trkpt>
<trkpt lat="-27.462316" lon="153.01099"><ele>11.2</ele><time>2026-01-01T10:57:44Z</time></trkpt>
<trkpt lat="-27.462346" lon="153.011033"><ele>11.4</ele><time>2026-01-01T10:57:47Z</time></trkpt>
<trkpt lat="-27.462403" lon="153.011095"><ele>11.2</ele><time>2026-01-01T10:57:50Z</time></trkpt>
<trkpt lat="-27.46246" lon="153.011094"><ele>11</ele><time>2026-01-01T10:57:52Z</time></trkpt>
<trkpt lat="-27.462648" lon="153.011061"><ele>10.8</ele><time>2026-01-01T10:57:58Z</time></trkpt>
<trkpt lat="-27.462681" lon="153.011053"><ele>11</ele><time>2026-01-01T10:57:59Z</time></trkpt>
<trkpt lat="-27.46287" lon="153.011012"><ele>12.2</ele><time>2026-01-01T10:58:05Z</time></trkpt>
<trkpt lat="-27.462919" lon="153.011008"><ele>12.8</ele><time>2026-01-01T10:58:07Z</time></trkpt>
<trkpt lat="-27.462968" lon="153.010993"><ele>13.6</ele><time>2026-01-01T10:58:09Z</time></trkpt>
<trkpt lat="-27.463051" lon="153.010958"><ele>14.6</ele><time>2026-01-01T10:58:13Z</time></trkpt>
<trkpt lat="-27.463066" lon="153.010944"><ele>15</ele><time>2026-01-01T10:58:14Z</time></trkpt>
<trkpt lat="-27.463102" lon="153.010857"><ele>15.6</ele><time>2026-01-01T10:58:19Z</time></trkpt>
<trkpt lat="-27.463107" lon="153.010836"><ele>15.6</ele><time>2026-01-01T10:58:24Z</time></trkpt>
<trkpt lat="-27.463103" lon="153.010837"><ele>15.4</ele><time>2026-01-01T10:58:32Z</time></trkpt>
<trkpt lat="-27.463103" lon="153.010837"><ele>15.4</ele><time>2026-01-01T10:58:36Z</time></trkpt>
<trkpt lat="-27.463103" lon="153.010837"><ele>15.2</ele><time>2026-01-01T10:58:39Z</time></trkpt>
<trkpt lat="-27.463103" lon="153.010837"><ele>15.2</ele><time>2026-01-01T10:58:45Z</time></trkpt>
<trkpt lat="-27.463103" lon="153.010837"><ele>15.2</ele><time>2026-01-01T10:58:46Z</time></trkpt>
<trkpt lat="-27.463095" lon="153.010835"><ele>15</ele><time>2026-01-01T10:58:55Z</time></trkpt>
<trkpt lat="-27.463089" lon="153.010833"><ele>15</ele><time>2026-01-01T10:59:03Z</time></trkpt>
<trkpt lat="-27.463085" lon="153.010832"><ele>14.8</ele><time>2026-01-01T10:59:08Z</time></trkpt>
<trkpt lat="-27.463085" lon="153.010832"><ele>14.8</ele><time>2026-01-01T10:59:09Z</time></trkpt>
<trkpt lat="-27.463085" lon="153.010832"><ele>14.8</ele><time>2026-01-01T10:59:10Z</time></trkpt>
<trkpt lat="-27.463085" lon="153.010832"><ele>14.8</ele><time>2026-01-01T10:59:14Z</time></trkpt>
<trkpt lat="-27.463075" lon="153.010832"><ele>14.8</ele><time>2026-01-01T10:59:17Z</time></trkpt>
<trkpt lat="-27.46308" lon="153.010833"><ele>14.6</ele><time>2026-01-01T10:59:21Z</time></trkpt>
<trkpt lat="-27.463158" lon="153.010815"><ele>14.6</ele><time>2026-01-01T10:59:23Z</time></trkpt>
<trkpt lat="-27.463345" lon="153.010828"><ele>15</ele><time>2026-01-01T10:59:28Z</time></trkpt>
<trkpt lat="-27.46345" lon="153.010828"><ele>15.2</ele><time>2026-01-01T10:59:31Z</time></trkpt>
<trkpt lat="-27.463542" lon="153.010841"><ele>15.2</ele><time>2026-01-01T10:59:34Z</time></trkpt>
<trkpt lat="-27.463566" lon="153.01084"><ele>15.2</ele><time>2026-01-01T10:59:35Z</time></trkpt>
<trkpt lat="-27.463763" lon="153.010826"><ele>15</ele><time>2026-01-01T10:59:41Z</time></trkpt>
<trkpt lat="-27.463822" lon="153.010813"><ele>14.8</ele><time>2026-01-01T10:59:43Z</time></trkpt>
<trkpt lat="-27.46403" lon="153.010796"><ele>14.8</ele><time>2026-01-01T10:59:50Z</time></trkpt>
<trkpt lat="-27.464171" lon="153.010757"><ele>14.8</ele><time>2026-01-01T10:59:55Z</time></trkpt>
<trkpt lat="-27.464336" lon="153.010784"><ele>14.8</ele><time>2026-01-01T11:00:01Z</time></trkpt>
<trkpt lat="-27.464467" lon="153.010795"><ele>14.8</ele><time>2026-01-01T11:00:06Z</time></trkpt>
<trkpt lat="-27.464525" lon="153.010801"><ele>15</ele><time>2026-01-01T11:00:08Z</time></trkpt>
<trkpt lat="-27.464726" lon="153.010778"><ele>15</ele><time>2026-01-01T11:00:15Z</time></trkpt>
<trkpt lat="-27.464915" lon="153.010754"><ele>15</ele><time>2026-01-01T11:00:22Z</time></trkpt>
<trkpt lat="-27.46494" lon="153.010756"><ele>15</ele><time>2026-01-01T11:00:23Z</time></trkpt>
<trkpt lat="-27.465131" lon="153.010752"><ele>15</ele><time>2026-01-01T11:00:30Z</time></trkpt>
<trkpt lat="-27.465337" lon="153.010718"><ele>14.8</ele><time>2026-01-01T11:00:37Z</time></trkpt>
<trkpt lat="-27.465526" lon="153.010642"><ele>15</ele><time>2026-01-01T11:00:43Z</time></trkpt>
<trkpt lat="-27.465614" lon="153.010603"><ele>15.2</ele><time>2026-01-01T11:00:46Z</time></trkpt>
<trkpt lat="-27.465744" lon="153.010562"><ele>15.8</ele><time>2026-01-01T11:00:50Z</time></trkpt>
<trkpt lat="-27.465868" lon="153.010544"><ele>16.2</ele><time>2026-01-01T11:00:54Z</time></trkpt>
<trkpt lat="-27.465989" lon="153.01054"><ele>16.6</ele><time>2026-01-01T11:00:58Z</time></trkpt>
<trkpt lat="-27.466079" lon="153.010527"><ele>16.8</ele><time>2026-01-01T11:01:01Z</time></trkpt>
<trkpt lat="-27.466103" lon="153.010522"><ele>16.8</ele><time>2026-01-01T11:01:02Z</time></trkpt>
<trkpt lat="-27.46629" lon="153.010487"><ele>17</ele><time>2026-01-01T11:01:08Z</time></trkpt>
<trkpt lat="-27.466314" lon="153.01048"><ele>17</ele><time>2026-01-01T11:01:09Z</time></trkpt>
<trkpt lat="-27.466497" lon="153.010407"><ele>16.6</ele><time>2026-01-01T11:01:15Z</time></trkpt>
<trkpt lat="-27.466541" lon="153.010362"><ele>16.4</ele><time>2026-01-01T11:01:17Z</time></trkpt>
<trkpt lat="-27.466596" lon="153.010195"><ele>15.8</ele><time>2026-01-01T11:01:22Z</time></trkpt>
<trkpt lat="-27.466602" lon="153.010118"><ele>15.8</ele><time>2026-01-01T11:01:24Z</time></trkpt>
<trkpt lat="-27.466597" lon="153.00991"><ele>15.4</ele><time>2026-01-01T11:01:30Z</time></trkpt>
<trkpt lat="-27.466565" lon="153.009706"><ele>14.8</ele><time>2026-01-01T11:01:36Z</time></trkpt>
<trkpt lat="-27.466562" lon="153.009677"><ele>14.6</ele><time>2026-01-01T11:01:37Z</time></trkpt>
<trkpt lat="-27.46655" lon="153.009599"><ele>14.6</ele><time>2026-01-01T11:01:39Z</time></trkpt>
<trkpt lat="-27.466541" lon="153.009503"><ele>14.4</ele><time>2026-01-01T11:01:42Z</time></trkpt>
<trkpt lat="-27.466545" lon="153.009388"><ele>14.4</ele><time>2026-01-01T11:01:46Z</time></trkpt>
<trkpt lat="-27.466635" lon="153.009251"><ele>14.6</ele><time>2026-01-01T11:01:52Z</time></trkpt>
<trkpt lat="-27.466813" lon="153.009205"><ele>15</ele><time>2026-01-01T11:01:59Z</time></trkpt>
<trkpt lat="-27.466837" lon="153.009197"><ele>15</ele><time>2026-01-01T11:02:00Z</time></trkpt>
<trkpt lat="-27.467002" lon="153.009159"><ele>14.4</ele><time>2026-01-01T11:02:06Z</time></trkpt>
<trkpt lat="-27.467071" lon="153.009141"><ele>14.4</ele><time>2026-01-01T11:02:08Z</time></trkpt>
<trkpt lat="-27.467261" lon="153.009091"><ele>13.8</ele><time>2026-01-01T11:02:15Z</time></trkpt>
<trkpt lat="-27.467281" lon="153.009088"><ele>13.8</ele><time>2026-01-01T11:02:16Z</time></trkpt>
<trkpt lat="-27.467376" lon="153.009069"><ele>13.6</ele><time>2026-01-01T11:02:20Z</time></trkpt>
<trkpt lat="-27.467393" lon="153.009078"><ele>13.6</ele><time>2026-01-01T11:02:21Z</time></trkpt>
<trkpt lat="-27.46738" lon="153.009173"><ele>13.4</ele><time>2026-01-01T11:02:25Z</time></trkpt>
<trkpt lat="-27.467335" lon="153.009393"><ele>12.6</ele><time>2026-01-01T11:02:31Z</time></trkpt>
<trkpt lat="-27.467324" lon="153.009426"><ele>12.6</ele><time>2026-01-01T11:02:32Z</time></trkpt>
<trkpt lat="-27.467313" lon="153.009457"><ele>12.6</ele><time>2026-01-01T11:02:33Z</time></trkpt>
<trkpt lat="-27.467258" lon="153.009658"><ele>11.8</ele><time>2026-01-01T11:02:39Z</time></trkpt>
<trkpt lat="-27.467237" lon="153.009717"><ele>11.6</ele><time>2026-01-01T11:02:41Z</time></trkpt>
<trkpt lat="-27.467224" lon="153.009745"><ele>11.6</ele><time>2026-01-01T11:02:42Z</time></trkpt>
<trkpt lat="-27.467215" lon="153.009775"><ele>11.4</ele><time>2026-01-01T11:02:43Z</time></trkpt>
<trkpt lat="-27.467162" lon="153.009916"><ele>11</ele><time>2026-01-01T11:02:48Z</time></trkpt>
<trkpt lat="-27.46712" lon="153.010099"><ele>10.8</ele><time>2026-01-01T11:02:54Z</time></trkpt>
<trkpt lat="-27.467153" lon="153.010135"><ele>10.8</ele><time>2026-01-01T11:02:56Z</time></trkpt>
<trkpt lat="-27.467205" lon="153.010164"><ele>10.6</ele><time>2026-01-01T11:02:58Z</time></trkpt>
<trkpt lat="-27.467234" lon="153.010173"><ele>10.4</ele><time>2026-01-01T11:02:59Z</time></trkpt>
<trkpt lat="-27.467319" lon="153.010239"><ele>10</ele><time>2026-01-01T11:03:03Z</time></trkpt>
<trkpt lat="-27.467438" lon="153.010297"><ele>9.4</ele><time>2026-01-01T11:03:07Z</time></trkpt>
<trkpt lat="-27.467495" lon="153.010325"><ele>9.2</ele><time>2026-01-01T11:03:09Z</time></trkpt>
<trkpt lat="-27.467557" lon="153.010345"><ele>8.2</ele><time>2026-01-01T11:03:11Z</time></trkpt>
<trkpt lat="-27.46765" lon="153.010278"><ele>8</ele><time>2026-01-01T11:03:14Z</time></trkpt>
<trkpt lat="-27.467787" lon="153.010144"><ele>8.4</ele><time>2026-01-01T11:03:21Z</time></trkpt>
<trkpt lat="-27.467912" lon="153.010025"><ele>8.6</ele><time>2026-01-01T11:03:27Z</time></trkpt>
<trkpt lat="-27.468083" lon="153.009965"><ele>8.6</ele><time>2026-01-01T11:03:32Z</time></trkpt>
<trkpt lat="-27.46824" lon="153.00986"><ele>8.4</ele><time>2026-01-01T11:03:37Z</time></trkpt>
<trkpt lat="-27.468294" lon="153.009828"><ele>8.4</ele><time>2026-01-01T11:03:39Z</time></trkpt>
<trkpt lat="-27.468439" lon="153.00967"><ele>8.2</ele><time>2026-01-01T11:03:45Z</time></trkpt>
<trkpt lat="-27.468596" lon="153.009551"><ele>8.2</ele><time>2026-01-01T11:03:50Z</time></trkpt>
<trkpt lat="-27.468627" lon="153.009537"><ele>8.2</ele><time>2026-01-01T11:03:51Z</time></trkpt>
<trkpt lat="-27.468808" lon="153.009468"><ele>8.4</ele><time>2026-01-01T11:03:58Z</time></trkpt>
<trkpt lat="-27.468822" lon="153.009471"><ele>8.6</ele><time>2026-01-01T11:03:59Z</time></trkpt>
<trkpt lat="-27.468963" lon="153.009514"><ele>9</ele><time>2026-01-01T11:04:05Z</time></trkpt>
<trkpt lat="-27.468996" lon="153.009543"><ele>9.4</ele><time>2026-01-01T11:04:07Z</time></trkpt>
<trkpt lat="-27.469023" lon="153.009568"><ele>9.6</ele><time>2026-01-01T11:04:09Z</time></trkpt>
<trkpt lat="-27.469133" lon="153.009736"><ele>9.4</ele><time>2026-01-01T11:04:16Z</time></trkpt>
<trkpt lat="-27.469231" lon="153.009873"><ele>8.8</ele><time>2026-01-01T11:04:22Z</time></trkpt>
<trkpt lat="-27.469255" lon="153.009857"><ele>8.8</ele><time>2026-01-01T11:04:23Z</time></trkpt>
<trkpt lat="-27.469312" lon="153.009786"><ele>8.4</ele><time>2026-01-01T11:04:25Z</time></trkpt>
<trkpt lat="-27.469372" lon="153.009731"><ele>8.4</ele><time>2026-01-01T11:04:27Z</time></trkpt>
<trkpt lat="-27.469433" lon="153.009654"><ele>7.8</ele><time>2026-01-01T11:04:30Z</time></trkpt>
<trkpt lat="-27.469457" lon="153.009598"><ele>7.2</ele><time>2026-01-01T11:04:32Z</time></trkpt>
<trkpt lat="-27.469501" lon="153.009515"><ele>6.8</ele><time>2026-01-01T11:04:35Z</time></trkpt>
<trkpt lat="-27.469532" lon="153.009469"><ele>6.2</ele><time>2026-01-01T11:04:37Z</time></trkpt>
<trkpt lat="-27.469548" lon="153.00943"><ele>6.2</ele><time>2026-01-01T11:04:38Z</time></trkpt>
<trkpt lat="-27.469674" lon="153.009201"><ele>5.8</ele><time>2026-01-01T11:04:44Z</time></trkpt>
<trkpt lat="-27.469819" lon="153.00912"><ele>5.8</ele><time>2026-01-01T11:04:50Z</time></trkpt>
<trkpt lat="-27.469868" lon="153.009093"><ele>6</ele><time>2026-01-01T11:04:52Z</time></trkpt>
<trkpt lat="-27.470588" lon="153.008691"><ele>6.2</ele><time>2026-01-01T11:04:54Z</time></trkpt>
<trkpt lat="-27.470265" lon="153.009134"><ele>6.2</ele><time>2026-01-01T11:04:55Z</time></trkpt>
<trkpt lat="-27.470175" lon="153.009279"><ele>6.2</ele><time>2026-01-01T11:04:56Z</time></trkpt>
<trkpt lat="-27.470134" lon="153.00941"><ele>6.2</ele><time>2026-01-01T11:04:59Z</time></trkpt>
<trkpt lat="-27.470165" lon="153.009341"><ele>5.6</ele><time>2026-01-01T11:05:04Z</time></trkpt>
<trkpt lat="-27.47021" lon="153.009262"><ele>5.2</ele><time>2026-01-01T11:05:07Z</time></trkpt>
<trkpt lat="-27.470293" lon="153.009162"><ele>5</ele><time>2026-01-01T11:05:12Z</time></trkpt>
<trkpt lat="-27.470418" lon="153.009019"><ele>5.2</ele><time>2026-01-01T11:05:18Z</time></trkpt>
<trkpt lat="-27.470467" lon="153.008982"><ele>5</ele><time>2026-01-01T11:05:20Z</time></trkpt>
<trkpt lat="-27.47062" lon="153.008845"><ele>4.8</ele><time>2026-01-01T11:05:27Z</time></trkpt>
<trkpt lat="-27.470659" lon="153.008788"><ele>4.8</ele><time>2026-01-01T11:05:29Z</time></trkpt>
<trkpt lat="-27.470798" lon="153.008623"><ele>5</ele><time>2026-01-01T11:05:36Z</time></trkpt>
<trkpt lat="-27.470816" lon="153.008606"><ele>5</ele><time>2026-01-01T11:05:37Z</time></trkpt>
<trkpt lat="-27.470926" lon="153.008437"><ele>5.2</ele><time>2026-01-01T11:05:44Z</time></trkpt>
<trkpt lat="-27.470946" lon="153.008413"><ele>5.4</ele><time>2026-01-01T11:05:45Z</time></trkpt>
<trkpt lat="-27.471085" lon="153.008242"><ele>5.2</ele><time>2026-01-01T11:05:52Z</time></trkpt>
<trkpt lat="-27.471107" lon="153.008216"><ele>5.2</ele><time>2026-01-01T11:05:53Z</time></trkpt>
<trkpt lat="-27.471235" lon="153.008065"><ele>5</ele><time>2026-01-01T11:05:59Z</time></trkpt>
<trkpt lat="-27.471297" lon="153.007984"><ele>5</ele><time>2026-01-01T11:06:02Z</time></trkpt>
<trkpt lat="-27.471424" lon="153.007799"><ele>5.2</ele><time>2026-01-01T11:06:09Z</time></trkpt>
<trkpt lat="-27.471464" lon="153.00775"><ele>5.2</ele><time>2026-01-01T11:06:11Z</time></trkpt>
<trkpt lat="-27.471594" lon="153.007578"><ele>5</ele><time>2026-01-01T11:06:18Z</time></trkpt>
<trkpt lat="-27.471611" lon="153.007556"><ele>5</ele><time>2026-01-01T11:06:19Z</time></trkpt>
<trkpt lat="-27.471729" lon="153.007399"><ele>5.2</ele><time>2026-01-01T11:06:25Z</time></trkpt>
<trkpt lat="-27.471788" lon="153.007326"><ele>5.2</ele><time>2026-01-01T11:06:28Z</time></trkpt>
<trkpt lat="-27.471871" lon="153.00721"><ele>5.2</ele><time>2026-01-01T11:06:33Z</time></trkpt>
<trkpt lat="-27.471907" lon="153.007164"><ele>5.2</ele><time>2026-01-01T11:06:35Z</time></trkpt>
<trkpt lat="-27.472053" lon="153.006999"><ele>5</ele><time>2026-01-01T11:06:42Z</time></trkpt>
<trkpt lat="-27.472075" lon="153.006971"><ele>5</ele><time>2026-01-01T11:06:43Z</time></trkpt>
<trkpt lat="-27.472179" lon="153.006846"><ele>5</ele><time>2026-01-01T11:06:48Z</time></trkpt>
<trkpt lat="-27.472247" lon="153.006777"><ele>4.8</ele><time>2026-01-01T11:06:51Z</time></trkpt>
<trkpt lat="-27.472388" lon="153.006602"><ele>4.6</ele><time>2026-01-01T11:06:58Z</time></trkpt>
<trkpt lat="-27.472519" lon="153.006428"><ele>4.8</ele><time>2026-01-01T11:07:05Z</time></trkpt>
<trkpt lat="-27.472536" lon="153.006405"><ele>4.8</ele><time>2026-01-01T11:07:06Z</time></trkpt>
<trkpt lat="-27.472668" lon="153.006236"><ele>5</ele><time>2026-01-01T11:07:13Z</time></trkpt>
<trkpt lat="-27.472737" lon="153.006151"><ele>5</ele><time>2026-01-01T11:07:16Z</time></trkpt>
<trkpt lat="-27.472878" lon="153.005988"><ele>5</ele><time>2026-01-01T11:07:23Z</time></trkpt>
<trkpt lat="-27.472922" lon="153.005943"><ele>5</ele><time>2026-01-01T11:07:25Z</time></trkpt>
<trkpt lat="-27.473048" lon="153.005798"><ele>4.6</ele><time>2026-01-01T11:07:31Z</time></trkpt>
<trkpt lat="-27.473132" lon="153.00569"><ele>4.8</ele><time>2026-01-01T11:07:36Z</time></trkpt>
<trkpt lat="-27.473256" lon="153.005559"><ele>5</ele><time>2026-01-01T11:07:42Z</time></trkpt>
<trkpt lat="-27.473277" lon="153.005536"><ele>5</ele><time>2026-01-01T11:07:43Z</time></trkpt>
<trkpt lat="-27.473405" lon="153.005352"><ele>5</ele><time>2026-01-01T11:07:50Z</time></trkpt>
<trkpt lat="-27.473422" lon="153.005325"><ele>5</ele><time>2026-01-01T11:07:51Z</time></trkpt>
<trkpt lat="-27.473538" lon="153.005141"><ele>5</ele><time>2026-01-01T11:07:58Z</time></trkpt>
<trkpt lat="-27.473597" lon="153.00505"><ele>5</ele><time>2026-01-01T11:08:01Z</time></trkpt>
<trkpt lat="-27.473735" lon="153.004898"><ele>5</ele><time>2026-01-01T11:08:07Z</time></trkpt>
<trkpt lat="-27.473758" lon="153.004872"><ele>5</ele><time>2026-01-01T11:08:08Z</time></trkpt>
<trkpt lat="-27.473872" lon="153.004757"><ele>5</ele><time>2026-01-01T11:08:13Z</time></trkpt>
<trkpt lat="-27.473898" lon="153.004732"><ele>5</ele><time>2026-01-01T11:08:14Z</time></trkpt>
<trkpt lat="-27.473918" lon="153.004712"><ele>5</ele><time>2026-01-01T11:08:15Z</time></trkpt>
<trkpt lat="-27.474054" lon="153.004572"><ele>5.2</ele><time>2026-01-01T11:08:21Z</time></trkpt>
<trkpt lat="-27.474205" lon="153.004411"><ele>5</ele><time>2026-01-01T11:08:28Z</time></trkpt>
<trkpt lat="-27.474237" lon="153.004366"><ele>5.2</ele><time>2026-01-01T11:08:30Z</time></trkpt>
<trkpt lat="-27.474376" lon="153.004228"><ele>5.2</ele><time>2026-01-01T11:08:36Z</time></trkpt>
<trkpt lat="-27.474422" lon="153.004182"><ele>5.4</ele><time>2026-01-01T11:08:38Z</time></trkpt>
<trkpt lat="-27.474574" lon="153.004039"><ele>5.6</ele><time>2026-01-01T11:08:45Z</time></trkpt>
<trkpt lat="-27.474597" lon="153.004021"><ele>5.6</ele><time>2026-01-01T11:08:46Z</time></trkpt>
<trkpt lat="-27.474688" lon="153.003936"><ele>6</ele><time>2026-01-01T11:08:50Z</time></trkpt>
<trkpt lat="-27.47473" lon="153.00389"><ele>6.2</ele><time>2026-01-01T11:08:52Z</time></trkpt>
<trkpt lat="-27.47477" lon="153.003842"><ele>6.4</ele><time>2026-01-01T11:08:54Z</time></trkpt>
<trkpt lat="-27.474914" lon="153.003752"><ele>6.4</ele><time>2026-01-01T11:09:00Z</time></trkpt>
<trkpt lat="-27.475092" lon="153.003654"><ele>6.4</ele><time>2026-01-01T11:09:07Z</time></trkpt>
<trkpt lat="-27.475191" lon="153.003594"><ele>6.2</ele><time>2026-01-01T11:09:11Z</time></trkpt>
<trkpt lat="-27.475335" lon="153.003441"><ele>5.8</ele><time>2026-01-01T11:09:18Z</time></trkpt>
<trkpt lat="-27.475354" lon="153.00342"><ele>5.6</ele><time>2026-01-01T11:09:19Z</time></trkpt>
<trkpt lat="-27.475505" lon="153.00327"><ele>5.6</ele><time>2026-01-01T11:09:26Z</time></trkpt>
<trkpt lat="-27.475555" lon="153.00322"><ele>5.6</ele><time>2026-01-01T11:09:28Z</time></trkpt>
<trkpt lat="-27.475703" lon="153.003058"><ele>5.6</ele><time>2026-01-01T11:09:35Z</time></trkpt>
<trkpt lat="-27.475854" lon="153.002899"><ele>6</ele><time>2026-01-01T11:09:42Z</time></trkpt>
<trkpt lat="-27.475979" lon="153.002751"><ele>6</ele><time>2026-01-01T11:09:48Z</time></trkpt>
<trkpt lat="-27.476128" lon="153.002588"><ele>6</ele><time>2026-01-01T11:09:55Z</time></trkpt>
<trkpt lat="-27.476148" lon="153.002564"><ele>6</ele><time>2026-01-01T11:09:56Z</time></trkpt>
<trkpt lat="-27.476294" lon="153.002399"><ele>6</ele><time>2026-01-01T11:10:03Z</time></trkpt>
<trkpt lat="-27.476442" lon="153.002242"><ele>5.8</ele><time>2026-01-01T11:10:10Z</time></trkpt>
<trkpt lat="-27.476462" lon="153.002223"><ele>5.8</ele><time>2026-01-01T11:10:11Z</time></trkpt>
<trkpt lat="-27.476605" lon="153.002073"><ele>5.8</ele><time>2026-01-01T11:10:18Z</time></trkpt>
<trkpt lat="-27.476752" lon="153.001914"><ele>5.8</ele><time>2026-01-01T11:10:25Z</time></trkpt>
<trkpt lat="-27.476884" lon="153.001756"><ele>5.8</ele><time>2026-01-01T11:10:32Z</time></trkpt>
<trkpt lat="-27.476924" lon="153.001711"><ele>5.8</ele><time>2026-01-01T11:10:34Z</time></trkpt>
<trkpt lat="-27.477055" lon="153.00157"><ele>5.8</ele><time>2026-01-01T11:10:40Z</time></trkpt>
<trkpt lat="-27.477111" lon="153.001494"><ele>5.8</ele><time>2026-01-01T11:10:43Z</time></trkpt>
<trkpt lat="-27.477249" lon="153.001326"><ele>6</ele><time>2026-01-01T11:10:50Z</time></trkpt>
<trkpt lat="-27.477288" lon="153.001275"><ele>6</ele><time>2026-01-01T11:10:52Z</time></trkpt>
<trkpt lat="-27.477393" lon="153.001117"><ele>6.2</ele><time>2026-01-01T11:10:58Z</time></trkpt>
<trkpt lat="-27.477413" lon="153.001091"><ele>6.2</ele><time>2026-01-01T11:10:59Z</time></trkpt>
<trkpt lat="-27.477558" lon="153.000921"><ele>6.4</ele><time>2026-01-01T11:11:06Z</time></trkpt>
<trkpt lat="-27.4776" lon="153.000866"><ele>6.4</ele><time>2026-01-01T11:11:08Z</time></trkpt>
<trkpt lat="-27.477753" lon="153.000712"><ele>6.4</ele><time>2026-01-01T11:11:15Z</time></trkpt>
<trkpt lat="-27.477771" lon="153.000691"><ele>6.4</ele><time>2026-01-01T11:11:16Z</time></trkpt>
<trkpt lat="-27.477876" lon="153.000581"><ele>6.8</ele><time>2026-01-01T11:11:21Z</time></trkpt>
<trkpt lat="-27.477946" lon="153.000512"><ele>6.8</ele><time>2026-01-01T11:11:24Z</time></trkpt>
<trkpt lat="-27.478078" lon="153.000372"><ele>6.6</ele><time>2026-01-01T11:11:30Z</time></trkpt>
<trkpt lat="-27.478118" lon="153.000324"><ele>6.6</ele><time>2026-01-01T11:11:32Z</time></trkpt>
<trkpt lat="-27.478264" lon="153.000167"><ele>6.6</ele><time>2026-01-01T11:11:39Z</time></trkpt>
<trkpt lat="-27.478308" lon="153.000125"><ele>6.6</ele><time>2026-01-01T11:11:41Z</time></trkpt>
<trkpt lat="-27.478449" lon="152.999997"><ele>6.6</ele><time>2026-01-01T11:11:47Z</time></trkpt>
<trkpt lat="-27.478472" lon="152.999975"><ele>6.6</ele><time>2026-01-01T11:11:48Z</time></trkpt>
<trkpt lat="-27.478555" lon="152.999897"><ele>6.4</ele><time>2026-01-01T11:11:52Z</time></trkpt>
<trkpt lat="-27.478596" lon="152.999854"><ele>6.4</ele><time>2026-01-01T11:11:54Z</time></trkpt>
<trkpt lat="-27.478734" lon="152.999722"><ele>6.4</ele><time>2026-01-01T11:12:00Z</time></trkpt>
<trkpt lat="-27.478881" lon="152.999596"><ele>6.4</ele><time>2026-01-01T11:12:06Z</time></trkpt>
<trkpt lat="-27.479034" lon="152.999447"><ele>6.2</ele><time>2026-01-01T11:12:13Z</time></trkpt>
<trkpt lat="-27.479057" lon="152.999425"><ele>6.2</ele><time>2026-01-01T11:12:14Z</time></trkpt>
<trkpt lat="-27.479213" lon="152.999273"><ele>6.2</ele><time>2026-01-01T11:12:21Z</time></trkpt>
<trkpt lat="-27.47937" lon="152.999115"><ele>6.2</ele><time>2026-01-01T11:12:28Z</time></trkpt>
<trkpt lat="-27.479394" lon="152.999094"><ele>6.2</ele><time>2026-01-01T11:12:29Z</time></trkpt>
<trkpt lat="-27.479532" lon="152.998986"><ele>6</ele><time>2026-01-01T11:12:35Z</time></trkpt>
<trkpt lat="-27.479678" lon="152.998845"><ele>6</ele><time>2026-01-01T11:12:41Z</time></trkpt>
<trkpt lat="-27.4797" lon="152.998819"><ele>6.2</ele><time>2026-01-01T11:12:42Z</time></trkpt>
<trkpt lat="-27.479835" lon="152.998669"><ele>6.2</ele><time>2026-01-01T11:12:48Z</time></trkpt>
<trkpt lat="-27.479873" lon="152.998629"><ele>6.4</ele><time>2026-01-01T11:12:50Z</time></trkpt>
<trkpt lat="-27.480021" lon="152.998483"><ele>6.8</ele><time>2026-01-01T11:12:57Z</time></trkpt>
<trkpt lat="-27.480038" lon="152.998471"><ele>6.8</ele><time>2026-01-01T11:12:58Z</time></trkpt>
<trkpt lat="-27.480195" lon="152.998334"><ele>6.8</ele><time>2026-01-01T11:13:05Z</time></trkpt>
<trkpt lat="-27.480229" lon="152.998314"><ele>6.8</ele><time>2026-01-01T11:13:06Z</time></trkpt>
<trkpt lat="-27.480387" lon="152.998193"><ele>6.8</ele><time>2026-01-01T11:13:12Z</time></trkpt>
<trkpt lat="-27.480435" lon="152.998153"><ele>6.8</ele><time>2026-01-01T11:13:14Z</time></trkpt>
<trkpt lat="-27.480592" lon="152.998039"><ele>7</ele><time>2026-01-01T11:13:20Z</time></trkpt>
<trkpt lat="-27.480619" lon="152.998023"><ele>7</ele><time>2026-01-01T11:13:21Z</time></trkpt>
<trkpt lat="-27.480782" lon="152.997922"><ele>7</ele><time>2026-01-01T11:13:27Z</time></trkpt>
<trkpt lat="-27.480861" lon="152.997872"><ele>6.8</ele><time>2026-01-01T11:13:30Z</time></trkpt>
<trkpt lat="-27.481033" lon="152.997769"><ele>6.6</ele><time>2026-01-01T11:13:36Z</time></trkpt>
<trkpt lat="-27.48114" lon="152.997698"><ele>6.6</ele><time>2026-01-01T11:13:40Z</time></trkpt>
<trkpt lat="-27.481217" lon="152.997622"><ele>6.6</ele><time>2026-01-01T11:13:44Z</time></trkpt>
<trkpt lat="-27.481287" lon="152.997572"><ele>6.6</ele><time>2026-01-01T11:13:47Z</time></trkpt>
<trkpt lat="-27.481459" lon="152.997472"><ele>6.6</ele><time>2026-01-01T11:13:53Z</time></trkpt>
<trkpt lat="-27.481486" lon="152.997456"><ele>6.6</ele><time>2026-01-01T11:13:54Z</time></trkpt>
<trkpt lat="-27.481646" lon="152.997346"><ele>6.6</ele><time>2026-01-01T11:14:00Z</time></trkpt>
<trkpt lat="-27.481696" lon="152.997323"><ele>6.6</ele><time>2026-01-01T11:14:02Z</time></trkpt>
<trkpt lat="-27.481888" lon="152.997249"><ele>6.6</ele><time>2026-01-01T11:14:08Z</time></trkpt>
<trkpt lat="-27.482062" lon="152.997159"><ele>6.2</ele><time>2026-01-01T11:14:14Z</time></trkpt>
<trkpt lat="-27.482088" lon="152.997139"><ele>6.2</ele><time>2026-01-01T11:14:15Z</time></trkpt>
<trkpt lat="-27.482243" lon="152.997026"><ele>6.8</ele><time>2026-01-01T11:14:22Z</time></trkpt>
<trkpt lat="-27.482338" lon="152.996961"><ele>7.2</ele><time>2026-01-01T11:14:26Z</time></trkpt>
<trkpt lat="-27.482475" lon="152.996884"><ele>7.8</ele><time>2026-01-01T11:14:31Z</time></trkpt>
<trkpt lat="-27.482645" lon="152.996769"><ele>7.8</ele><time>2026-01-01T11:14:38Z</time></trkpt>
<trkpt lat="-27.482747" lon="152.996708"><ele>8</ele><time>2026-01-01T11:14:42Z</time></trkpt>
</trkseg>
</trk>
</gpx>
