<?xml version="1.0" encoding="UTF-8"?>
<gpx version="1.1" creator="StravaGPX" xmlns="http://www.topografix.com/GPX/1/1">
<trk>
<type>running</type>
<trkseg>
<trkpt lat="-27.482743" lon="152.996613"><ele>10</ele><time>2026-01-01T00:00:00Z</time></trkpt>
<trkpt lat="-27.48258" lon="152.996716"><ele>10</ele><time>2026-01-01T00:00:06Z</time></trkpt>
<trkpt lat="-27.482553" lon="152.996734"><ele>10</ele><time>2026-01-01T00:00:07Z</time></trkpt>
<trkpt lat="-27.48238" lon="152.996837"><ele>9.8</ele><time>2026-01-01T00:00:13Z</time></trkpt>
<trkpt lat="-27.482286" lon="152.996885"><ele>9.4</ele><time>2026-01-01T00:00:16Z</time></trkpt>
<trkpt lat="-27.482259" lon="152.996896"><ele>9.4</ele><time>2026-01-01T00:00:17Z</time></trkpt>
<trkpt lat="-27.482226" lon="152.996907"><ele>9.4</ele><time>2026-01-01T00:00:18Z</time></trkpt>
<trkpt lat="-27.482093" lon="152.996975"><ele>8.8</ele><time>2026-01-01T00:00:22Z</time></trkpt>
<trkpt lat="-27.481946" lon="152.997024"><ele>8.4</ele><time>2026-01-01T00:00:26Z</time></trkpt>
<trkpt lat="-27.481784" lon="152.997118"><ele>8.4</ele><time>2026-01-01T00:00:31Z</time></trkpt>
<trkpt lat="-27.4817" lon="152.997177"><ele>8.4</ele><time>2026-01-01T00:00:34Z</time></trkpt>
<trkpt lat="-27.481597" lon="152.997236"><ele>8.4</ele><time>2026-01-01T00:00:38Z</time></trkpt>
<trkpt lat="-27.481429" lon="152.997362"><ele>8.4</ele><time>2026-01-01T00:00:44Z</time></trkpt>
<trkpt lat="-27.481393" lon="152.997385"><ele>8.4</ele><time>2026-01-01T00:00:45Z</time></trkpt>
<trkpt lat="-27.481231" lon="152.997487"><ele>8.4</ele><time>2026-01-01T00:00:50Z</time></trkpt>
<trkpt lat="-27.481162" lon="152.997565"><ele>8.6</ele><time>2026-01-01T00:00:52Z</time></trkpt>
<trkpt lat="-27.481013" lon="152.997705"><ele>8.2</ele><time>2026-01-01T00:00:57Z</time></trkpt>
<trkpt lat="-27.48092" lon="152.997765"><ele>8</ele><time>2026-01-01T00:01:00Z</time></trkpt>
<trkpt lat="-27.480753" lon="152.997892"><ele>8.4</ele><time>2026-01-01T00:01:06Z</time></trkpt>
<trkpt lat="-27.480649" lon="152.997951"><ele>8.2</ele><time>2026-01-01T00:01:09Z</time></trkpt>
<trkpt lat="-27.480526" lon="152.998033"><ele>8.2</ele><time>2026-01-01T00:01:13Z</time></trkpt>
<trkpt lat="-27.480408" lon="152.99811"><ele>8.4</ele><time>2026-01-01T00:01:17Z</time></trkpt>
<trkpt lat="-27.480257" lon="152.998247"><ele>8.2</ele><time>2026-01-01T00:01:23Z</time></trkpt>
<trkpt lat="-27.480081" lon="152.998371"><ele>8.2</ele><time>2026-01-01T00:01:29Z</time></trkpt>
<trkpt lat="-27.48005" lon="152.998392"><ele>8.2</ele><time>2026-01-01T00:01:30Z</time></trkpt>
<trkpt lat="-27.479898" lon="152.99853"><ele>8</ele><time>2026-01-01T00:01:36Z</time></trkpt>
<trkpt lat="-27.479874" lon="152.998554"><ele>8</ele><time>2026-01-01T00:01:37Z</time></trkpt>
<trkpt lat="-27.479722" lon="152.998694"><ele>7.8</ele><time>2026-01-01T00:01:43Z</time></trkpt>
<trkpt lat="-27.4797" lon="152.998724"><ele>7.6</ele><time>2026-01-01T00:01:44Z</time></trkpt>
<trkpt lat="-27.47963" lon="152.998801"><ele>7.2</ele><time>2026-01-01T00:01:47Z</time></trkpt>
<trkpt lat="-27.479489" lon="152.998905"><ele>7.2</ele><time>2026-01-01T00:01:52Z</time></trkpt>
<trkpt lat="-27.479364" lon="152.999008"><ele>7.2</ele><time>2026-01-01T00:01:57Z</time></trkpt>
<trkpt lat="-27.479339" lon="152.999032"><ele>7.2</ele><time>2026-01-01T00:01:58Z</time></trkpt>
<trkpt lat="-27.479293" lon="152.999083"><ele>7.4</ele><time>2026-01-01T00:02:00Z</time></trkpt>
<trkpt lat="-27.479161" lon="152.999224"><ele>7.4</ele><time>2026-01-01T00:02:06Z</time></trkpt>
<trkpt lat="-27.47909" lon="152.999291"><ele>7.4</ele><time>2026-01-01T00:02:09Z</time></trkpt>
<trkpt lat="-27.478938" lon="152.999437"><ele>7.4</ele><time>2026-01-01T00:02:15Z</time></trkpt>
<trkpt lat="-27.478868" lon="152.999514"><ele>7.4</ele><time>2026-01-01T00:02:18Z</time></trkpt>
<trkpt lat="-27.478709" lon="152.999659"><ele>7.6</ele><time>2026-01-01T00:02:25Z</time></trkpt>
<trkpt lat="-27.478683" lon="152.999683"><ele>7.6</ele><time>2026-01-01T00:02:26Z</time></trkpt>
<trkpt lat="-27.478542" lon="152.999834"><ele>7.6</ele><time>2026-01-01T00:02:33Z</time></trkpt>
<trkpt lat="-27.47851" lon="152.999879"><ele>7.6</ele><time>2026-01-01T00:02:35Z</time></trkpt>
<trkpt lat="-27.478373" lon="153.000009"><ele>7.8</ele><time>2026-01-01T00:02:41Z</time></trkpt>
<trkpt lat="-27.478232" lon="153.000137"><ele>7.8</ele><time>2026-01-01T00:02:46Z</time></trkpt>
<trkpt lat="-27.478208" lon="153.000162"><ele>7.8</ele><time>2026-01-01T00:02:47Z</time></trkpt>
<trkpt lat="-27.478185" lon="153.000186"><ele>7.8</ele><time>2026-01-01T00:02:48Z</time></trkpt>
<trkpt lat="-27.47803" lon="153.000344"><ele>7.8</ele><time>2026-01-01T00:02:54Z</time></trkpt>
<trkpt lat="-27.47801" lon="153.000372"><ele>7.8</ele><time>2026-01-01T00:02:55Z</time></trkpt>
<trkpt lat="-27.477881" lon="153.000522"><ele>7.8</ele><time>2026-01-01T00:03:01Z</time></trkpt>
<trkpt lat="-27.477818" lon="153.000594"><ele>7.8</ele><time>2026-01-01T00:03:04Z</time></trkpt>
<trkpt lat="-27.477683" lon="153.000698"><ele>7.8</ele><time>2026-01-01T00:03:09Z</time></trkpt>
<trkpt lat="-27.477647" lon="153.000713"><ele>7.6</ele><time>2026-01-01T00:03:10Z</time></trkpt>
<trkpt lat="-27.477491" lon="153.000846"><ele>7.6</ele><time>2026-01-01T00:03:16Z</time></trkpt>
<trkpt lat="-27.47747" lon="153.000872"><ele>7.6</ele><time>2026-01-01T00:03:17Z</time></trkpt>
<trkpt lat="-27.477338" lon="153.001058"><ele>7.6</ele><time>2026-01-01T00:03:23Z</time></trkpt>
<trkpt lat="-27.477184" lon="153.001219"><ele>7.4</ele><time>2026-01-01T00:03:29Z</time></trkpt>
<trkpt lat="-27.47713" lon="153.001283"><ele>7.4</ele><time>2026-01-01T00:03:31Z</time></trkpt>
<trkpt lat="-27.477005" lon="153.001434"><ele>7.2</ele><time>2026-01-01T00:03:37Z</time></trkpt>
<trkpt lat="-27.476987" lon="153.001461"><ele>7.2</ele><time>2026-01-01T00:03:38Z</time></trkpt>
<trkpt lat="-27.476974" lon="153.001485"><ele>7.2</ele><time>2026-01-01T00:03:39Z</time></trkpt>
<trkpt lat="-27.476847" lon="153.001654"><ele>7.2</ele><time>2026-01-01T00:03:46Z</time></trkpt>
<trkpt lat="-27.476805" lon="153.001702"><ele>7.4</ele><time>2026-01-01T00:03:48Z</time></trkpt>
<trkpt lat="-27.47672" lon="153.001803"><ele>7.6</ele><time>2026-01-01T00:03:52Z</time></trkpt>
<trkpt lat="-27.476619" lon="153.001896"><ele>7.8</ele><time>2026-01-01T00:03:56Z</time></trkpt>
<trkpt lat="-27.476525" lon="153.001984"><ele>7.8</ele><time>2026-01-01T00:04:00Z</time></trkpt>
<trkpt lat="-27.476433" lon="153.002091"><ele>8</ele><time>2026-01-01T00:04:04Z</time></trkpt>
<trkpt lat="-27.476356" lon="153.002162"><ele>8.2</ele><time>2026-01-01T00:04:07Z</time></trkpt>
<trkpt lat="-27.476254" lon="153.002266"><ele>8.2</ele><time>2026-01-01T00:04:11Z</time></trkpt>
<trkpt lat="-27.476109" lon="153.002434"><ele>8.4</ele><time>2026-01-01T00:04:17Z</time></trkpt>
<trkpt lat="-27.476071" lon="153.002482"><ele>8.6</ele><time>2026-01-01T00:04:19Z</time></trkpt>
<trkpt lat="-27.475963" lon="153.002665"><ele>8.6</ele><time>2026-01-01T00:04:25Z</time></trkpt>
<trkpt lat="-27.475943" lon="153.002695"><ele>8.6</ele><time>2026-01-01T00:04:26Z</time></trkpt>
<trkpt lat="-27.475795" lon="153.002844"><ele>8.6</ele><time>2026-01-01T00:04:32Z</time></trkpt>
<trkpt lat="-27.475776" lon="153.002869"><ele>8.6</ele><time>2026-01-01T00:04:33Z</time></trkpt>
<trkpt lat="-27.475648" lon="153.003012"><ele>8.4</ele><time>2026-01-01T00:04:39Z</time></trkpt>
<trkpt lat="-27.475598" lon="153.003085"><ele>8.4</ele><time>2026-01-01T00:04:42Z</time></trkpt>
<trkpt lat="-27.475447" lon="153.003239"><ele>8.4</ele><time>2026-01-01T00:04:48Z</time></trkpt>
<trkpt lat="-27.475357" lon="153.003332"><ele>8.4</ele><time>2026-01-01T00:04:52Z</time></trkpt>
<trkpt lat="-27.475248" lon="153.003437"><ele>8.4</ele><time>2026-01-01T00:04:56Z</time></trkpt>
<trkpt lat="-27.475162" lon="153.003506"><ele>8.8</ele><time>2026-01-01T00:04:59Z</time></trkpt>
<trkpt lat="-27.475111" lon="153.003543"><ele>9</ele><time>2026-01-01T00:05:01Z</time></trkpt>
<trkpt lat="-27.475054" lon="153.003576"><ele>9.2</ele><time>2026-01-01T00:05:03Z</time></trkpt>
<trkpt lat="-27.475027" lon="153.003593"><ele>9.2</ele><time>2026-01-01T00:05:04Z</time></trkpt>
<trkpt lat="-27.474918" lon="153.003658"><ele>9.4</ele><time>2026-01-01T00:05:08Z</time></trkpt>
<trkpt lat="-27.474816" lon="153.003714"><ele>9.6</ele><time>2026-01-01T00:05:12Z</time></trkpt>
<trkpt lat="-27.474656" lon="153.00385"><ele>9.4</ele><time>2026-01-01T00:05:18Z</time></trkpt>
<trkpt lat="-27.474604" lon="153.003901"><ele>9.2</ele><time>2026-01-01T00:05:20Z</time></trkpt>
<trkpt lat="-27.474451" lon="153.004044"><ele>8.8</ele><time>2026-01-01T00:05:26Z</time></trkpt>
<trkpt lat="-27.474375" lon="153.004116"><ele>8.6</ele><time>2026-01-01T00:05:29Z</time></trkpt>
<trkpt lat="-27.474228" lon="153.004253"><ele>8.4</ele><time>2026-01-01T00:05:35Z</time></trkpt>
<trkpt lat="-27.474097" lon="153.004367"><ele>8.4</ele><time>2026-01-01T00:05:40Z</time></trkpt>
<trkpt lat="-27.473904" lon="153.004478"><ele>8.4</ele><time>2026-01-01T00:05:45Z</time></trkpt>
<trkpt lat="-27.473839" lon="153.004548"><ele>8.4</ele><time>2026-01-01T00:05:48Z</time></trkpt>
<trkpt lat="-27.473726" lon="153.004702"><ele>8.6</ele><time>2026-01-01T00:05:54Z</time></trkpt>
<trkpt lat="-27.473587" lon="153.00487"><ele>8.6</ele><time>2026-01-01T00:06:00Z</time></trkpt>
<trkpt lat="-27.47348" lon="153.005035"><ele>8.6</ele><time>2026-01-01T00:06:06Z</time></trkpt>
<trkpt lat="-27.473404" lon="153.005153"><ele>8.8</ele><time>2026-01-01T00:06:10Z</time></trkpt>
<trkpt lat="-27.473386" lon="153.005186"><ele>8.8</ele><time>2026-01-01T00:06:11Z</time></trkpt>
<trkpt lat="-27.473338" lon="153.005279"><ele>9</ele><time>2026-01-01T00:06:14Z</time></trkpt>
<trkpt lat="-27.473224" lon="153.005472"><ele>8.8</ele><time>2026-01-01T00:06:21Z</time></trkpt>
<trkpt lat="-27.473102" lon="153.0056"><ele>8.8</ele><time>2026-01-01T00:06:26Z</time></trkpt>
<trkpt lat="-27.47308" lon="153.005628"><ele>8.8</ele><time>2026-01-01T00:06:27Z</time></trkpt>
<trkpt lat="-27.473011" lon="153.005708"><ele>8.6</ele><time>2026-01-01T00:06:30Z</time></trkpt>
<trkpt lat="-27.472879" lon="153.005871"><ele>9</ele><time>2026-01-01T00:06:36Z</time></trkpt>
<trkpt lat="-27.47279" lon="153.005975"><ele>9</ele><time>2026-01-01T00:06:40Z</time></trkpt>
<trkpt lat="-27.472746" lon="153.006028"><ele>9</ele><time>2026-01-01T00:06:42Z</time></trkpt>
<trkpt lat="-27.472703" lon="153.006077"><ele>9</ele><time>2026-01-01T00:06:44Z</time></trkpt>
<trkpt lat="-27.472575" lon="153.006235"><ele>9.2</ele><time>2026-01-01T00:06:50Z</time></trkpt>
<trkpt lat="-27.472508" lon="153.006319"><ele>9.4</ele><time>2026-01-01T00:06:53Z</time></trkpt>
<trkpt lat="-27.472385" lon="153.006475"><ele>9.4</ele><time>2026-01-01T00:06:59Z</time></trkpt>
<trkpt lat="-27.472367" lon="153.0065"><ele>9.4</ele><time>2026-01-01T00:07:00Z</time></trkpt>
<trkpt lat="-27.472247" lon="153.006657"><ele>9.2</ele><time>2026-01-01T00:07:06Z</time></trkpt>
<trkpt lat="-27.472163" lon="153.00676"><ele>9.2</ele><time>2026-01-01T00:07:10Z</time></trkpt>
<trkpt lat="-27.472047" lon="153.006924"><ele>9.4</ele><time>2026-01-01T00:07:16Z</time></trkpt>
<trkpt lat="-27.471978" lon="153.007"><ele>9.6</ele><time>2026-01-01T00:07:19Z</time></trkpt>
<trkpt lat="-27.471851" lon="153.007146"><ele>9.6</ele><time>2026-01-01T00:07:25Z</time></trkpt>
<trkpt lat="-27.471839" lon="153.007166"><ele>9.6</ele><time>2026-01-01T00:07:26Z</time></trkpt>
<trkpt lat="-27.471832" lon="153.007184"><ele>9.6</ele><time>2026-01-01T00:07:27Z</time></trkpt>
<trkpt lat="-27.471766" lon="153.007306"><ele>9.8</ele><time>2026-01-01T00:08:20Z</time></trkpt>
<trkpt lat="-27.471732" lon="153.007345"><ele>9.8</ele><time>2026-01-01T00:08:22Z</time></trkpt>
<trkpt lat="-27.471609" lon="153.007498"><ele>10</ele><time>2026-01-01T00:08:28Z</time></trkpt>
<trkpt lat="-27.471576" lon="153.00753"><ele>10</ele><time>2026-01-01T00:08:29Z</time></trkpt>
<trkpt lat="-27.471486" lon="153.00765"><ele>10</ele><time>2026-01-01T00:08:33Z</time></trkpt>
<trkpt lat="-27.471437" lon="153.007704"><ele>10.2</ele><time>2026-01-01T00:08:35Z</time></trkpt>
<trkpt lat="-27.471345" lon="153.007829"><ele>10.2</ele><time>2026-01-01T00:08:39Z</time></trkpt>
<trkpt lat="-27.47124" lon="153.007949"><ele>10</ele><time>2026-01-01T00:08:43Z</time></trkpt>
<trkpt lat="-27.471106" lon="153.008111"><ele>10.2</ele><time>2026-01-01T00:08:49Z</time></trkpt>
<trkpt lat="-27.471083" lon="153.00814"><ele>10.2</ele><time>2026-01-01T00:08:50Z</time></trkpt>
<trkpt lat="-27.470934" lon="153.008307"><ele>10.4</ele><time>2026-01-01T00:08:56Z</time></trkpt>
<trkpt lat="-27.470801" lon="153.008464"><ele>10.4</ele><time>2026-01-01T00:09:02Z</time></trkpt>
<trkpt lat="-27.470732" lon="153.008546"><ele>10.4</ele><time>2026-01-01T00:09:05Z</time></trkpt>
<trkpt lat="-27.470601" lon="153.008713"><ele>10.2</ele><time>2026-01-01T00:09:11Z</time></trkpt>
<trkpt lat="-27.470558" lon="153.008769"><ele>10.2</ele><time>2026-01-01T00:09:13Z</time></trkpt>
<trkpt lat="-27.470412" lon="153.008922"><ele>10.2</ele><time>2026-01-01T00:09:19Z</time></trkpt>
<trkpt lat="-27.470358" lon="153.008968"><ele>10.2</ele><time>2026-01-01T00:09:21Z</time></trkpt>
<trkpt lat="-27.470205" lon="153.009136"><ele>10.4</ele><time>2026-01-01T00:09:27Z</time></trkpt>
<trkpt lat="-27.470066" lon="153.009322"><ele>10.6</ele><time>2026-01-01T00:09:33Z</time></trkpt>
<trkpt lat="-27.470044" lon="153.009351"><ele>10.6</ele><time>2026-01-01T00:09:34Z</time></trkpt>
<trkpt lat="-27.469982" lon="153.009431"><ele>11</ele><time>2026-01-01T00:09:37Z</time></trkpt>
<trkpt lat="-27.469961" lon="153.009461"><ele>11.2</ele><time>2026-01-01T00:09:38Z</time></trkpt>
<trkpt lat="-27.469941" lon="153.009493"><ele>11.4</ele><time>2026-01-01T00:09:39Z</time></trkpt>
<trkpt lat="-27.469896" lon="153.009549"><ele>11.4</ele><time>2026-01-01T00:09:41Z</time></trkpt>
<trkpt lat="-27.469762" lon="153.009692"><ele>12.2</ele><time>2026-01-01T00:09:47Z</time></trkpt>
<trkpt lat="-27.469721" lon="153.009737"><ele>12.4</ele><time>2026-01-01T00:09:49Z</time></trkpt>
<trkpt lat="-27.469696" lon="153.009761"><ele>12.8</ele><time>2026-01-01T00:09:50Z</time></trkpt>
<trkpt lat="-27.469601" lon="153.00986"><ele>13.6</ele><time>2026-01-01T00:09:54Z</time></trkpt>
<trkpt lat="-27.469492" lon="153.009998"><ele>14.2</ele><time>2026-01-01T00:09:59Z</time></trkpt>
<trkpt lat="-27.469393" lon="153.010171"><ele>14.6</ele><time>2026-01-01T00:10:05Z</time></trkpt>
<trkpt lat="-27.46928" lon="153.010338"><ele>14.2</ele><time>2026-01-01T00:10:11Z</time></trkpt>
<trkpt lat="-27.4692" lon="153.010408"><ele>13.8</ele><time>2026-01-01T00:10:14Z</time></trkpt>
<trkpt lat="-27.469051" lon="153.010558"><ele>13.2</ele><time>2026-01-01T00:10:20Z</time></trkpt>
<trkpt lat="-27.469054" lon="153.010597"><ele>13.2</ele><time>2026-01-01T00:10:23Z</time></trkpt>
<trkpt lat="-27.46901" lon="153.010738"><ele>12.4</ele><time>2026-01-01T00:10:27Z</time></trkpt>
<trkpt lat="-27.468897" lon="153.010917"><ele>11.8</ele><time>2026-01-01T00:10:33Z</time></trkpt>
<trkpt lat="-27.46888" lon="153.010948"><ele>11.8</ele><time>2026-01-01T00:10:34Z</time></trkpt>
<trkpt lat="-27.468822" lon="153.011028"><ele>11.2</ele><time>2026-01-01T00:10:37Z</time></trkpt>
<trkpt lat="-27.468791" lon="153.011091"><ele>10.8</ele><time>2026-01-01T00:10:39Z</time></trkpt>
<trkpt lat="-27.468793" lon="153.011127"><ele>10.6</ele><time>2026-01-01T00:10:40Z</time></trkpt>
<trkpt lat="-27.468793" lon="153.011127"><ele>10.4</ele><time>2026-01-01T00:10:45Z</time></trkpt>
<trkpt lat="-27.468793" lon="153.011127"><ele>10.4</ele><time>2026-01-01T00:10:51Z</time></trkpt>
<trkpt lat="-27.468632" lon="153.011677"><ele>10.4</ele><time>2026-01-01T00:10:57Z</time></trkpt>
<trkpt lat="-27.468613" lon="153.011879"><ele>10.4</ele><time>2026-01-01T00:11:02Z</time></trkpt>
<trkpt lat="-27.468486" lon="153.011987"><ele>10</ele><time>2026-01-01T00:11:08Z</time></trkpt>
<trkpt lat="-27.468496" lon="153.012002"><ele>10.4</ele><time>2026-01-01T00:11:12Z</time></trkpt>
<trkpt lat="-27.468485" lon="153.01199"><ele>11.4</ele><time>2026-01-01T00:11:14Z</time></trkpt>
<trkpt lat="-27.468493" lon="153.011964"><ele>12.6</ele><time>2026-01-01T00:11:17Z</time></trkpt>
<trkpt lat="-27.468491" lon="153.011956"><ele>13.2</ele><time>2026-01-01T00:11:19Z</time></trkpt>
<trkpt lat="-27.468496" lon="153.011955"><ele>13.6</ele><time>2026-01-01T00:11:20Z</time></trkpt>
<trkpt lat="-27.468512" lon="153.011908"><ele>14.8</ele><time>2026-01-01T00:11:24Z</time></trkpt>
<trkpt lat="-27.468529" lon="153.01188"><ele>15.2</ele><time>2026-01-01T00:11:26Z</time></trkpt>
<trkpt lat="-27.468565" lon="153.011809"><ele>15.6</ele><time>2026-01-01T00:11:31Z</time></trkpt>
<trkpt lat="-27.468601" lon="153.01176"><ele>15.8</ele><time>2026-01-01T00:11:34Z</time></trkpt>
<trkpt lat="-27.46862" lon="153.011727"><ele>16</ele><time>2026-01-01T00:11:36Z</time></trkpt>
<trkpt lat="-27.468646" lon="153.011659"><ele>16.2</ele><time>2026-01-01T00:11:40Z</time></trkpt>
<trkpt lat="-27.468669" lon="153.011595"><ele>16.4</ele><time>2026-01-01T00:11:44Z</time></trkpt>
<trkpt lat="-27.468678" lon="153.011561"><ele>16.6</ele><time>2026-01-01T00:11:46Z</time></trkpt>
<trkpt lat="-27.468688" lon="153.011521"><ele>16.6</ele><time>2026-01-01T00:11:49Z</time></trkpt>
<trkpt lat="-27.468702" lon="153.011515"><ele>16.8</ele><time>2026-01-01T00:11:50Z</time></trkpt>
<trkpt lat="-27.468785" lon="153.011498"><ele>17.4</ele><time>2026-01-01T00:11:55Z</time></trkpt>
<trkpt lat="-27.468844" lon="153.011536"><ele>17.8</ele><time>2026-01-01T00:11:58Z</time></trkpt>
<trkpt lat="-27.468883" lon="153.011572"><ele>18</ele><time>2026-01-01T00:12:00Z</time></trkpt>
<trkpt lat="-27.469025" lon="153.011725"><ele>19</ele><time>2026-01-01T00:12:07Z</time></trkpt>
<trkpt lat="-27.469078" lon="153.011775"><ele>19.4</ele><time>2026-01-01T00:12:09Z</time></trkpt>
<trkpt lat="-27.469209" lon="153.01191"><ele>20</ele><time>2026-01-01T00:12:15Z</time></trkpt>
<trkpt lat="-27.469278" lon="153.011974"><ele>20.6</ele><time>2026-01-01T00:12:18Z</time></trkpt>
<trkpt lat="-27.469378" lon="153.012061"><ele>21.2</ele><time>2026-01-01T00:12:22Z</time></trkpt>
<trkpt lat="-27.469497" lon="153.012167"><ele>21.8</ele><time>2026-01-01T00:12:27Z</time></trkpt>
<trkpt lat="-27.469595" lon="153.012254"><ele>22.2</ele><time>2026-01-01T00:12:31Z</time></trkpt>
<trkpt lat="-27.469745" lon="153.012384"><ele>22.8</ele><time>2026-01-01T00:12:37Z</time></trkpt>
<trkpt lat="-27.469765" lon="153.012407"><ele>22.8</ele><time>2026-01-01T00:12:38Z</time></trkpt>
<trkpt lat="-27.469811" lon="153.01245"><ele>22.6</ele><time>2026-01-01T00:12:40Z</time></trkpt>
<trkpt lat="-27.46996" lon="153.01258"><ele>22.6</ele><time>2026-01-01T00:12:46Z</time></trkpt>
<trkpt lat="-27.47006" lon="153.012663"><ele>22.2</ele><time>2026-01-01T00:12:50Z</time></trkpt>
<trkpt lat="-27.470212" lon="153.012789"><ele>21.2</ele><time>2026-01-01T00:12:56Z</time></trkpt>
<trkpt lat="-27.470239" lon="153.012809"><ele>21.2</ele><time>2026-01-01T00:12:57Z</time></trkpt>
<trkpt lat="-27.470282" lon="153.012848"><ele>20.8</ele><time>2026-01-01T00:12:59Z</time></trkpt>
<trkpt lat="-27.470405" lon="153.012967"><ele>20</ele><time>2026-01-01T00:13:04Z</time></trkpt>
<trkpt lat="-27.470526" lon="153.013079"><ele>19.2</ele><time>2026-01-01T00:13:09Z</time></trkpt>
<trkpt lat="-27.470552" lon="153.0131"><ele>19</ele><time>2026-01-01T00:13:10Z</time></trkpt>
<trkpt lat="-27.470713" lon="153.013228"><ele>17.6</ele><time>2026-01-01T00:13:16Z</time></trkpt>
<trkpt lat="-27.47083" lon="153.013352"><ele>16.8</ele><time>2026-01-01T00:13:21Z</time></trkpt>
<trkpt lat="-27.470852" lon="153.013385"><ele>16.6</ele><time>2026-01-01T00:13:22Z</time></trkpt>
<trkpt lat="-27.47095" lon="153.013538"><ele>15.8</ele><time>2026-01-01T00:13:29Z</time></trkpt>
<trkpt lat="-27.47096" lon="153.013565"><ele>15.2</ele><time>2026-01-01T00:13:31Z</time></trkpt>
<trkpt lat="-27.470979" lon="153.013585"><ele>13.8</ele><time>2026-01-01T00:13:33Z</time></trkpt>
<trkpt lat="-27.47101" lon="153.013634"><ele>13.6</ele><time>2026-01-01T00:13:35Z</time></trkpt>
<trkpt lat="-27.471038" lon="153.01368"><ele>12.8</ele><time>2026-01-01T00:13:37Z</time></trkpt>
<trkpt lat="-27.471057" lon="153.013775"><ele>12.6</ele><time>2026-01-01T00:13:41Z</time></trkpt>
<trkpt lat="-27.470947" lon="153.013798"><ele>12.2</ele><time>2026-01-01T00:13:45Z</time></trkpt>
<trkpt lat="-27.470751" lon="153.013859"><ele>11.8</ele><time>2026-01-01T00:13:51Z</time></trkpt>
<trkpt lat="-27.47072" lon="153.013866"><ele>11.8</ele><time>2026-01-01T00:13:52Z</time></trkpt>
<trkpt lat="-27.470671" lon="153.013869"><ele>11.8</ele><time>2026-01-01T00:13:54Z</time></trkpt>
<trkpt lat="-27.470565" lon="153.013877"><ele>11.6</ele><time>2026-01-01T00:13:58Z</time></trkpt>
<trkpt lat="-27.470372" lon="153.013948"><ele>11.2</ele><time>2026-01-01T00:14:03Z</time></trkpt>
<trkpt lat="-27.470314" lon="153.014021"><ele>11.2</ele><time>2026-01-01T00:14:06Z</time></trkpt>
<trkpt lat="-27.470189" lon="153.014114"><ele>11</ele><time>2026-01-01T00:14:11Z</time></trkpt>
<trkpt lat="-27.470135" lon="153.014314"><ele>11</ele><time>2026-01-01T00:14:16Z</time></trkpt>
<trkpt lat="-27.47009" lon="153.014441"><ele>11.2</ele><time>2026-01-01T00:14:19Z</time></trkpt>
<trkpt lat="-27.470073" lon="153.01454"><ele>11.6</ele><time>2026-01-01T00:14:22Z</time></trkpt>
<trkpt lat="-27.470015" lon="153.014733"><ele>11.8</ele><time>2026-01-01T00:14:28Z</time></trkpt>
<trkpt lat="-27.469988" lon="153.014801"><ele>11.8</ele><time>2026-01-01T00:14:30Z</time></trkpt>
<trkpt lat="-27.469962" lon="153.014976"><ele>11.8</ele><time>2026-01-01T00:14:36Z</time></trkpt>
<trkpt lat="-27.469857" lon="153.015168"><ele>11.4</ele><time>2026-01-01T00:14:42Z</time></trkpt>
<trkpt lat="-27.469842" lon="153.015198"><ele>11.4</ele><time>2026-01-01T00:14:43Z</time></trkpt>
<trkpt lat="-27.469738" lon="153.015362"><ele>11</ele><time>2026-01-01T00:14:49Z</time></trkpt>
<trkpt lat="-27.469628" lon="153.015548"><ele>11.2</ele><time>2026-01-01T00:14:55Z</time></trkpt>
<trkpt lat="-27.469622" lon="153.015656"><ele>11.4</ele><time>2026-01-01T00:14:58Z</time></trkpt>
<trkpt lat="-27.469616" lon="153.01575"><ele>11.4</ele><time>2026-01-01T00:15:00Z</time></trkpt>
<trkpt lat="-27.46958" lon="153.015956"><ele>11.2</ele><time>2026-01-01T00:15:06Z</time></trkpt>
<trkpt lat="-27.469542" lon="153.016183"><ele>10.8</ele><time>2026-01-01T00:15:12Z</time></trkpt>
<trkpt lat="-27.469528" lon="153.016218"><ele>10.6</ele><time>2026-01-01T00:15:13Z</time></trkpt>
<trkpt lat="-27.469521" lon="153.016433"><ele>10.2</ele><time>2026-01-01T00:15:19Z</time></trkpt>
<trkpt lat="-27.469531" lon="153.016464"><ele>10.2</ele><time>2026-01-01T00:15:20Z</time></trkpt>
<trkpt lat="-27.469573" lon="153.016684"><ele>10.2</ele><time>2026-01-01T00:15:26Z</time></trkpt>
<trkpt lat="-27.469613" lon="153.01675"><ele>10.2</ele><time>2026-01-01T00:15:28Z</time></trkpt>
<trkpt lat="-27.469734" lon="153.016934"><ele>10.4</ele><time>2026-01-01T00:15:34Z</time></trkpt>
<trkpt lat="-27.469766" lon="153.016969"><ele>10.4</ele><time>2026-01-01T00:15:35Z</time></trkpt>
<trkpt lat="-27.469784" lon="153.017077"><ele>10.4</ele><time>2026-01-01T00:15:40Z</time></trkpt>
<trkpt lat="-27.469734" lon="153.017099"><ele>10.4</ele><time>2026-01-01T00:15:45Z</time></trkpt>
<trkpt lat="-27.469692" lon="153.017056"><ele>10.6</ele><time>2026-01-01T00:15:47Z</time></trkpt>
<trkpt lat="-27.469638" lon="153.016976"><ele>10.8</ele><time>2026-01-01T00:15:50Z</time></trkpt>
<trkpt lat="-27.469595" lon="153.016807"><ele>11.6</ele><time>2026-01-01T00:15:55Z</time></trkpt>
<trkpt lat="-27.469583" lon="153.01674"><ele>11.8</ele><time>2026-01-01T00:15:57Z</time></trkpt>
<trkpt lat="-27.469581" lon="153.016671"><ele>12.2</ele><time>2026-01-01T00:15:59Z</time></trkpt>
<trkpt lat="-27.469588" lon="153.016609"><ele>12.6</ele><time>2026-01-01T00:16:01Z</time></trkpt>
<trkpt lat="-27.469611" lon="153.016576"><ele>12.8</ele><time>2026-01-01T00:16:03Z</time></trkpt>
<trkpt lat="-27.469625" lon="153.016566"><ele>12.8</ele><time>2026-01-01T00:16:05Z</time></trkpt>
<trkpt lat="-27.469633" lon="153.016571"><ele>12.8</ele><time>2026-01-01T00:16:06Z</time></trkpt>
<trkpt lat="-27.469644" lon="153.01662"><ele>13</ele><time>2026-01-01T00:16:08Z</time></trkpt>
<trkpt lat="-27.469645" lon="153.016642"><ele>13.2</ele><time>2026-01-01T00:16:09Z</time></trkpt>
<trkpt lat="-27.469679" lon="153.016761"><ele>13.8</ele><time>2026-01-01T00:16:14Z</time></trkpt>
<trkpt lat="-27.46968" lon="153.016794"><ele>13.8</ele><time>2026-01-01T00:16:15Z</time></trkpt>
<trkpt lat="-27.469659" lon="153.016948"><ele>14.6</ele><time>2026-01-01T00:16:19Z</time></trkpt>
<trkpt lat="-27.469618" lon="153.017115"><ele>15</ele><time>2026-01-01T00:16:23Z</time></trkpt>
<trkpt lat="-27.469604" lon="153.017152"><ele>15.2</ele><time>2026-01-01T00:16:24Z</time></trkpt>
<trkpt lat="-27.469583" lon="153.017218"><ele>15.4</ele><time>2026-01-01T00:16:26Z</time></trkpt>
<trkpt lat="-27.469546" lon="153.017316"><ele>15.6</ele><time>2026-01-01T00:16:29Z</time></trkpt>
<trkpt lat="-27.469515" lon="153.017419"><ele>16.2</ele><time>2026-01-01T00:16:32Z</time></trkpt>
<trkpt lat="-27.469484" lon="153.017533"><ele>16.6</ele><time>2026-01-01T00:16:36Z</time></trkpt>
<trkpt lat="-27.469472" lon="153.017704"><ele>17.2</ele><time>2026-01-01T00:16:42Z</time></trkpt>
<trkpt lat="-27.469473" lon="153.017734"><ele>17.4</ele><time>2026-01-01T00:16:43Z</time></trkpt>
<trkpt lat="-27.469399" lon="153.017899"><ele>18.2</ele><time>2026-01-01T00:16:49Z</time></trkpt>
<trkpt lat="-27.469386" lon="153.017957"><ele>18.6</ele><time>2026-01-01T00:16:51Z</time></trkpt>
<trkpt lat="-27.469283" lon="153.018145"><ele>19</ele><time>2026-01-01T00:16:56Z</time></trkpt>
<trkpt lat="-27.469229" lon="153.018254"><ele>19.2</ele><time>2026-01-01T00:16:59Z</time></trkpt>
<trkpt lat="-27.469224" lon="153.018279"><ele>19.4</ele><time>2026-01-01T00:17:00Z</time></trkpt>
<trkpt lat="-27.46922" lon="153.018389"><ele>20</ele><time>2026-01-01T00:17:05Z</time></trkpt>
<trkpt lat="-27.469224" lon="153.018454"><ele>20.4</ele><time>2026-01-01T00:17:08Z</time></trkpt>
<trkpt lat="-27.469185" lon="153.01857"><ele>20.8</ele><time>2026-01-01T00:17:11Z</time></trkpt>
<trkpt lat="-27.46917" lon="153.018619"><ele>21</ele><time>2026-01-01T00:17:13Z</time></trkpt>
<trkpt lat="-27.469145" lon="153.018705"><ele>21.4</ele><time>2026-01-01T00:17:17Z</time></trkpt>
<trkpt lat="-27.469136" lon="153.018725"><ele>21.4</ele><time>2026-01-01T00:17:18Z</time></trkpt>
<trkpt lat="-27.469124" lon="153.018761"><ele>21.6</ele><time>2026-01-01T00:17:20Z</time></trkpt>
<trkpt lat="-27.469069" lon="153.018959"><ele>21.8</ele><time>2026-01-01T00:17:27Z</time></trkpt>
<trkpt lat="-27.468993" lon="153.019167"><ele>21.8</ele><time>2026-01-01T00:17:34Z</time></trkpt>
<trkpt lat="-27.46898" lon="153.019194"><ele>21.6</ele><time>2026-01-01T00:17:35Z</time></trkpt>
<trkpt lat="-27.468865" lon="153.019306"><ele>21.2</ele><time>2026-01-01T00:17:41Z</time></trkpt>
<trkpt lat="-27.468695" lon="153.019337"><ele>21</ele><time>2026-01-01T00:17:46Z</time></trkpt>
<trkpt lat="-27.468569" lon="153.01939"><ele>20</ele><time>2026-01-01T00:17:51Z</time></trkpt>
<trkpt lat="-27.468548" lon="153.019412"><ele>19.8</ele><time>2026-01-01T00:17:52Z</time></trkpt>
<trkpt lat="-27.468398" lon="153.019511"><ele>19</ele><time>2026-01-01T00:17:57Z</time></trkpt>
<trkpt lat="-27.468362" lon="153.019537"><ele>19</ele><time>2026-01-01T00:17:58Z</time></trkpt>
<trkpt lat="-27.468338" lon="153.01957"><ele>18.8</ele><time>2026-01-01T00:17:59Z</time></trkpt>
<trkpt lat="-27.468276" lon="153.019641"><ele>18.8</ele><time>2026-01-01T00:18:01Z</time></trkpt>
<trkpt lat="-27.468245" lon="153.019669"><ele>18.6</ele><time>2026-01-01T00:18:02Z</time></trkpt>
<trkpt lat="-27.468203" lon="153.019727"><ele>18.6</ele><time>2026-01-01T00:18:04Z</time></trkpt>
<trkpt lat="-27.468167" lon="153.01991"><ele>18.2</ele><time>2026-01-01T00:18:09Z</time></trkpt>
<trkpt lat="-27.468103" lon="153.020043"><ele>18</ele><time>2026-01-01T00:18:13Z</time></trkpt>
<trkpt lat="-27.468084" lon="153.020094"><ele>17.8</ele><time>2026-01-01T00:18:15Z</time></trkpt>
<trkpt lat="-27.468069" lon="153.020112"><ele>17.8</ele><time>2026-01-01T00:18:16Z</time></trkpt>
<trkpt lat="-27.46793" lon="153.020221"><ele>17.4</ele><time>2026-01-01T00:18:21Z</time></trkpt>
<trkpt lat="-27.467877" lon="153.020357"><ele>17.4</ele><time>2026-01-01T00:18:26Z</time></trkpt>
<trkpt lat="-27.467817" lon="153.020468"><ele>17.2</ele><time>2026-01-01T00:18:31Z</time></trkpt>
<trkpt lat="-27.467741" lon="153.020571"><ele>16.8</ele><time>2026-01-01T00:18:35Z</time></trkpt>
<trkpt lat="-27.467717" lon="153.020607"><ele>16.8</ele><time>2026-01-01T00:18:36Z</time></trkpt>
<trkpt lat="-27.46757" lon="153.020746"><ele>17.4</ele><time>2026-01-01T00:18:41Z</time></trkpt>
<trkpt lat="-27.467524" lon="153.02081"><ele>17.6</ele><time>2026-01-01T00:18:43Z</time></trkpt>
<trkpt lat="-27.46739" lon="153.020915"><ele>17.6</ele><time>2026-01-01T00:18:47Z</time></trkpt>
<trkpt lat="-27.467338" lon="153.021015"><ele>17.6</ele><time>2026-01-01T00:18:50Z</time></trkpt>
<trkpt lat="-27.467261" lon="153.021168"><ele>17.8</ele><time>2026-01-01T00:18:56Z</time></trkpt>
<trkpt lat="-27.467135" lon="153.021274"><ele>17.4</ele><time>2026-01-01T00:19:02Z</time></trkpt>
<trkpt lat="-27.466994" lon="153.021427"><ele>17.4</ele><time>2026-01-01T00:19:08Z</time></trkpt>
<trkpt lat="-27.467004" lon="153.02148"><ele>17.4</ele><time>2026-01-01T00:19:09Z</time></trkpt>
<trkpt lat="-27.467056" lon="153.021662"><ele>17.2</ele><time>2026-01-01T00:19:14Z</time></trkpt>
<trkpt lat="-27.467146" lon="153.02185"><ele>16.8</ele><time>2026-01-01T00:19:20Z</time></trkpt>
<trkpt lat="-27.46721" lon="153.022064"><ele>17</ele><time>2026-01-01T00:19:25Z</time></trkpt>
<trkpt lat="-27.467213" lon="153.022096"><ele>17.2</ele><time>2026-01-01T00:19:26Z</time></trkpt>
<trkpt lat="-27.467244" lon="153.022304"><ele>18.8</ele><time>2026-01-01T00:19:33Z</time></trkpt>
<trkpt lat="-27.467254" lon="153.022346"><ele>19</ele><time>2026-01-01T00:19:34Z</time></trkpt>
<trkpt lat="-27.467286" lon="153.022503"><ele>20.2</ele><time>2026-01-01T00:19:40Z</time></trkpt>
<trkpt lat="-27.467297" lon="153.022541"><ele>20.8</ele><time>2026-01-01T00:19:42Z</time></trkpt>
<trkpt lat="-27.467336" lon="153.02262"><ele>21.4</ele><time>2026-01-01T00:19:47Z</time></trkpt>
<trkpt lat="-27.46728" lon="153.022654"><ele>21.8</ele><time>2026-01-01T00:19:52Z</time></trkpt>
<trkpt lat="-27.467262" lon="153.022651"><ele>22</ele><time>2026-01-01T00:19:53Z</time></trkpt>
<trkpt lat="-27.46722" lon="153.022632"><ele>22.8</ele><time>2026-01-01T00:19:55Z</time></trkpt>
<trkpt lat="-27.467164" lon="153.022601"><ele>23.4</ele><time>2026-01-01T00:19:58Z</time></trkpt>
<trkpt lat="-27.467099" lon="153.022541"><ele>24</ele><time>2026-01-01T00:20:02Z</time></trkpt>
<trkpt lat="-27.467012" lon="153.022476"><ele>25</ele><time>2026-01-01T00:20:06Z</time></trkpt>
<trkpt lat="-27.466987" lon="153.022461"><ele>25</ele><time>2026-01-01T00:20:07Z</time></trkpt>
<trkpt lat="-27.466868" lon="153.022366"><ele>26.4</ele><time>2026-01-01T00:20:13Z</time></trkpt>
<trkpt lat="-27.466849" lon="153.022348"><ele>26.4</ele><time>2026-01-01T00:20:14Z</time></trkpt>
<trkpt lat="-27.466683" lon="153.022207"><ele>27.6</ele><time>2026-01-01T00:20:21Z</time></trkpt>
<trkpt lat="-27.466659" lon="153.022187"><ele>27.8</ele><time>2026-01-01T00:20:22Z</time></trkpt>
<trkpt lat="-27.466564" lon="153.022062"><ele>28.6</ele><time>2026-01-01T00:20:27Z</time></trkpt>
<trkpt lat="-27.466496" lon="153.022008"><ele>29</ele><time>2026-01-01T00:20:30Z</time></trkpt>
<trkpt lat="-27.466373" lon="153.021936"><ele>29.8</ele><time>2026-01-01T00:20:34Z</time></trkpt>
<trkpt lat="-27.466353" lon="153.021879"><ele>29.8</ele><time>2026-01-01T00:20:36Z</time></trkpt>
<trkpt lat="-27.466287" lon="153.021746"><ele>30.6</ele><time>2026-01-01T00:20:41Z</time></trkpt>
<trkpt lat="-27.466155" lon="153.021605"><ele>30.6</ele><time>2026-01-01T00:20:47Z</time></trkpt>
<trkpt lat="-27.466114" lon="153.021551"><ele>30.6</ele><time>2026-01-01T00:20:49Z</time></trkpt>
<trkpt lat="-27.466064" lon="153.021508"><ele>30.6</ele><time>2026-01-01T00:20:51Z</time></trkpt>
<trkpt lat="-27.465948" lon="153.021397"><ele>30.4</ele><time>2026-01-01T00:20:56Z</time></trkpt>
<trkpt lat="-27.465787" lon="153.021255"><ele>30.2</ele><time>2026-01-01T00:21:03Z</time></trkpt>
<trkpt lat="-27.465767" lon="153.021231"><ele>30.2</ele><time>2026-01-01T00:21:04Z</time></trkpt>
<trkpt lat="-27.465609" lon="153.021079"><ele>30</ele><time>2026-01-01T00:21:11Z</time></trkpt>
<trkpt lat="-27.465587" lon="153.021057"><ele>30</ele><time>2026-01-01T00:21:12Z</time></trkpt>
<trkpt lat="-27.465481" lon="153.020916"><ele>30</ele><time>2026-01-01T00:21:18Z</time></trkpt>
<trkpt lat="-27.465444" lon="153.020853"><ele>30</ele><time>2026-01-01T00:21:20Z</time></trkpt>
<trkpt lat="-27.465355" lon="153.02072"><ele>29.8</ele><time>2026-01-01T00:21:25Z</time></trkpt>
<trkpt lat="-27.465307" lon="153.020641"><ele>29.8</ele><time>2026-01-01T00:21:28Z</time></trkpt>
<trkpt lat="-27.465171" lon="153.020463"><ele>29.6</ele><time>2026-01-01T00:21:34Z</time></trkpt>
<trkpt lat="-27.465139" lon="153.020411"><ele>29.6</ele><time>2026-01-01T00:21:36Z</time></trkpt>
<trkpt lat="-27.46501" lon="153.020292"><ele>29.2</ele><time>2026-01-01T00:21:43Z</time></trkpt>
<trkpt lat="-27.464901" lon="153.020205"><ele>29</ele><time>2026-01-01T00:21:49Z</time></trkpt>
<trkpt lat="-27.464788" lon="153.020104"><ele>28.8</ele><time>2026-01-01T00:21:55Z</time></trkpt>
<trkpt lat="-27.46476" lon="153.020077"><ele>28.6</ele><time>2026-01-01T00:21:56Z</time></trkpt>
<trkpt lat="-27.464598" lon="153.01995"><ele>28.6</ele><time>2026-01-01T00:22:03Z</time></trkpt>
<trkpt lat="-27.464582" lon="153.019931"><ele>28.6</ele><time>2026-01-01T00:22:04Z</time></trkpt>
<trkpt lat="-27.464542" lon="153.0199"><ele>28.6</ele><time>2026-01-01T00:22:06Z</time></trkpt>
<trkpt lat="-27.464433" lon="153.019775"><ele>28.6</ele><time>2026-01-01T00:22:12Z</time></trkpt>
<trkpt lat="-27.464268" lon="153.019643"><ele>28.2</ele><time>2026-01-01T00:22:19Z</time></trkpt>
<trkpt lat="-27.464127" lon="153.019489"><ele>28</ele><time>2026-01-01T00:22:25Z</time></trkpt>
<trkpt lat="-27.464073" lon="153.019427"><ele>28</ele><time>2026-01-01T00:22:27Z</time></trkpt>
<trkpt lat="-27.463953" lon="153.019394"><ele>28</ele><time>2026-01-01T00:22:33Z</time></trkpt>
<trkpt lat="-27.463925" lon="153.019388"><ele>28</ele><time>2026-01-01T00:22:34Z</time></trkpt>
<trkpt lat="-27.463896" lon="153.01937"><ele>27.8</ele><time>2026-01-01T00:22:35Z</time></trkpt>
<trkpt lat="-27.463869" lon="153.019346"><ele>27.8</ele><time>2026-01-01T00:22:36Z</time></trkpt>
<trkpt lat="-27.463691" lon="153.019216"><ele>28</ele><time>2026-01-01T00:22:42Z</time></trkpt>
<trkpt lat="-27.463661" lon="153.019194"><ele>28.2</ele><time>2026-01-01T00:22:43Z</time></trkpt>
<trkpt lat="-27.463484" lon="153.019108"><ele>28.4</ele><time>2026-01-01T00:22:49Z</time></trkpt>
<trkpt lat="-27.463407" lon="153.019094"><ele>28.6</ele><time>2026-01-01T00:22:52Z</time></trkpt>
<trkpt lat="-27.463268" lon="153.019032"><ele>28.8</ele><time>2026-01-01T00:22:57Z</time></trkpt>
<trkpt lat="-27.46322" lon="153.01898"><ele>29</ele><time>2026-01-01T00:22:59Z</time></trkpt>
<trkpt lat="-27.463069" lon="153.018842"><ele>29.6</ele><time>2026-01-01T00:23:06Z</time></trkpt>
<trkpt lat="-27.463" lon="153.01877"><ele>29.6</ele><time>2026-01-01T00:23:10Z</time></trkpt>
<trkpt lat="-27.46289" lon="153.018651"><ele>29.4</ele><time>2026-01-01T00:23:16Z</time></trkpt>
<trkpt lat="-27.462829" lon="153.018595"><ele>29.8</ele><time>2026-01-01T00:23:19Z</time></trkpt>
<trkpt lat="-27.462734" lon="153.018528"><ele>30</ele><time>2026-01-01T00:23:23Z</time></trkpt>
<trkpt lat="-27.462549" lon="153.018478"><ele>30.6</ele><time>2026-01-01T00:23:30Z</time></trkpt>
<trkpt lat="-27.462489" lon="153.018466"><ele>31</ele><time>2026-01-01T00:23:32Z</time></trkpt>
<trkpt lat="-27.462307" lon="153.018446"><ele>31.8</ele><time>2026-01-01T00:23:38Z</time></trkpt>
<trkpt lat="-27.462215" lon="153.018449"><ele>32</ele><time>2026-01-01T00:23:42Z</time></trkpt>
<trkpt lat="-27.462204" lon="153.018445"><ele>32.6</ele><time>2026-01-01T00:23:44Z</time></trkpt>
<trkpt lat="-27.462208" lon="153.018423"><ele>32.8</ele><time>2026-01-01T00:23:46Z</time></trkpt>
<trkpt lat="-27.462238" lon="153.018375"><ele>32.8</ele><time>2026-01-01T00:23:50Z</time></trkpt>
<trkpt lat="-27.462279" lon="153.018287"><ele>33.2</ele><time>2026-01-01T00:23:54Z</time></trkpt>
<trkpt lat="-27.462298" lon="153.018232"><ele>33.4</ele><time>2026-01-01T00:23:56Z</time></trkpt>
<trkpt lat="-27.462284" lon="153.0181"><ele>33.8</ele><time>2026-01-01T00:24:01Z</time></trkpt>
<trkpt lat="-27.462249" lon="153.018016"><ele>34.2</ele><time>2026-01-01T00:24:04Z</time></trkpt>
<trkpt lat="-27.462172" lon="153.017914"><ele>34.8</ele><time>2026-01-01T00:24:08Z</time></trkpt>
<trkpt lat="-27.462125" lon="153.01787"><ele>34.8</ele><time>2026-01-01T00:24:10Z</time></trkpt>
<trkpt lat="-27.462019" lon="153.017766"><ele>35.4</ele><time>2026-01-01T00:24:15Z</time></trkpt>
<trkpt lat="-27.461857" lon="153.017662"><ele>36.2</ele><time>2026-01-01T00:24:21Z</time></trkpt>
<trkpt lat="-27.461802" lon="153.01765"><ele>36.4</ele><time>2026-01-01T00:24:23Z</time></trkpt>
<trkpt lat="-27.461776" lon="153.017653"><ele>36.4</ele><time>2026-01-01T00:24:24Z</time></trkpt>
<trkpt lat="-27.461755" lon="153.017667"><ele>36.6</ele><time>2026-01-01T00:24:25Z</time></trkpt>
<trkpt lat="-27.461736" lon="153.017718"><ele>37.2</ele><time>2026-01-01T00:24:27Z</time></trkpt>
<trkpt lat="-27.461726" lon="153.017796"><ele>37.6</ele><time>2026-01-01T00:24:29Z</time></trkpt>
<trkpt lat="-27.461704" lon="153.017934"><ele>38.4</ele><time>2026-01-01T00:24:33Z</time></trkpt>
<trkpt lat="-27.4617" lon="153.017962"><ele>38.6</ele><time>2026-01-01T00:24:34Z</time></trkpt>
<trkpt lat="-27.461648" lon="153.01809"><ele>39.6</ele><time>2026-01-01T00:24:39Z</time></trkpt>
<trkpt lat="-27.461629" lon="153.018131"><ele>40</ele><time>2026-01-01T00:24:41Z</time></trkpt>
<trkpt lat="-27.461618" lon="153.01815"><ele>40.4</ele><time>2026-01-01T00:24:42Z</time></trkpt>
<trkpt lat="-27.46158" lon="153.018174"><ele>40.8</ele><time>2026-01-01T00:24:44Z</time></trkpt>
<trkpt lat="-27.461513" lon="153.018198"><ele>41.6</ele><time>2026-01-01T00:24:47Z</time></trkpt>
<trkpt lat="-27.461491" lon="153.018204"><ele>41.8</ele><time>2026-01-01T00:24:48Z</time></trkpt>
<trkpt lat="-27.461396" lon="153.018216"><ele>43</ele><time>2026-01-01T00:24:52Z</time></trkpt>
<trkpt lat="-27.461322" lon="153.018218"><ele>43.8</ele><time>2026-01-01T00:24:55Z</time></trkpt>
<trkpt lat="-27.461294" lon="153.018221"><ele>44</ele><time>2026-01-01T00:24:56Z</time></trkpt>
<trkpt lat="-27.461216" lon="153.018242"><ele>45.2</ele><time>2026-01-01T00:24:59Z</time></trkpt>
<trkpt lat="-27.46117" lon="153.01827"><ele>45.4</ele><time>2026-01-01T00:25:01Z</time></trkpt>
<trkpt lat="-27.461139" lon="153.018308"><ele>46.6</ele><time>2026-01-01T00:25:04Z</time></trkpt>
<trkpt lat="-27.461129" lon="153.018328"><ele>47</ele><time>2026-01-01T00:25:06Z</time></trkpt>
<trkpt lat="-27.461065" lon="153.018356"><ele>47.4</ele><time>2026-01-01T00:25:13Z</time></trkpt>
<trkpt lat="-27.461044" lon="153.018344"><ele>47.4</ele><time>2026-01-01T00:25:17Z</time></trkpt>
<trkpt lat="-27.461048" lon="153.018339"><ele>47.6</ele><time>2026-01-01T00:25:20Z</time></trkpt>
<trkpt lat="-27.461047" lon="153.018337"><ele>47.6</ele><time>2026-01-01T00:25:24Z</time></trkpt>
<trkpt lat="-27.461046" lon="153.018337"><ele>47.6</ele><time>2026-01-01T00:25:29Z</time></trkpt>
<trkpt lat="-27.461046" lon="153.018337"><ele>47.6</ele><time>2026-01-01T00:25:38Z</time></trkpt>
<trkpt lat="-27.461046" lon="153.018337"><ele>47.6</ele><time>2026-01-01T00:25:40Z</time></trkpt>
<trkpt lat="-27.461046" lon="153.018337"><ele>47.6</ele><time>2026-01-01T00:25:44Z</time></trkpt>
<trkpt lat="-27.461044" lon="153.018336"><ele>47.4</ele><time>2026-01-01T00:25:48Z</time></trkpt>
<trkpt lat="-27.461043" lon="153.018336"><ele>47.4</ele><time>2026-01-01T00:25:49Z</time></trkpt>
<trkpt lat="-27.461042" lon="153.018336"><ele>47.4</ele><time>2026-01-01T00:25:50Z</time></trkpt>
<trkpt lat="-27.461041" lon="153.018336"><ele>47.6</ele><time>2026-01-01T00:25:51Z</time></trkpt>
<trkpt lat="-27.461041" lon="153.018336"><ele>47.4</ele><time>2026-01-01T00:25:53Z</time></trkpt>
<trkpt lat="-27.46104" lon="153.018336"><ele>47.6</ele><time>2026-01-01T00:25:55Z</time></trkpt>
<trkpt lat="-27.46104" lon="153.018336"><ele>47.6</ele><time>2026-01-01T00:25:56Z</time></trkpt>
<trkpt lat="-27.461038" lon="153.018335"><ele>47.4</ele><time>2026-01-01T00:25:58Z</time></trkpt>
<trkpt lat="-27.461038" lon="153.018335"><ele>47.4</ele><time>2026-01-01T00:26:01Z</time></trkpt>
<trkpt lat="-27.461038" lon="153.018335"><ele>47.4</ele><time>2026-01-01T00:26:03Z</time></trkpt>
<trkpt lat="-27.461037" lon="153.018335"><ele>47.4</ele><time>2026-01-01T00:26:07Z</time></trkpt>
<trkpt lat="-27.461034" lon="153.018342"><ele>47.4</ele><time>2026-01-01T00:26:21Z</time></trkpt>
<trkpt lat="-27.460966" lon="153.018388"><ele>47.6</ele><time>2026-01-01T00:26:24Z</time></trkpt>
<trkpt lat="-27.460844" lon="153.018485"><ele>47.8</ele><time>2026-01-01T00:26:28Z</time></trkpt>
<trkpt lat="-27.460766" lon="153.018543"><ele>48</ele><time>2026-01-01T00:26:31Z</time></trkpt>
<trkpt lat="-27.460719" lon="153.018599"><ele>48.6</ele><time>2026-01-01T00:26:34Z</time></trkpt>
<trkpt lat="-27.460684" lon="153.018638"><ele>48.8</ele><time>2026-01-01T00:26:36Z</time></trkpt>
<trkpt lat="-27.460656" lon="153.01865"><ele>48.8</ele><time>2026-01-01T00:26:37Z</time></trkpt>
<trkpt lat="-27.460508" lon="153.018712"><ele>49</ele><time>2026-01-01T00:26:42Z</time></trkpt>
<trkpt lat="-27.460384" lon="153.01878"><ele>49.6</ele><time>2026-01-01T00:26:47Z</time></trkpt>
<trkpt lat="-27.460324" lon="153.018803"><ele>49.8</ele><time>2026-01-01T00:26:49Z</time></trkpt>
<trkpt lat="-27.460155" lon="153.018883"><ele>50.2</ele><time>2026-01-01T00:26:55Z</time></trkpt>
<trkpt lat="-27.460136" lon="153.018896"><ele>50.2</ele><time>2026-01-01T00:26:56Z</time></trkpt>
<trkpt lat="-27.460109" lon="153.018916"><ele>50.4</ele><time>2026-01-01T00:27:01Z</time></trkpt>
<trkpt lat="-27.460109" lon="153.018915"><ele>50.4</ele><time>2026-01-01T00:27:03Z</time></trkpt>
<trkpt lat="-27.460108" lon="153.018915"><ele>50.4</ele><time>2026-01-01T00:27:05Z</time></trkpt>
<trkpt lat="-27.460108" lon="153.018913"><ele>50.4</ele><time>2026-01-01T00:27:11Z</time></trkpt>
<trkpt lat="-27.460108" lon="153.018913"><ele>50.4</ele><time>2026-01-01T00:27:13Z</time></trkpt>
<trkpt lat="-27.460108" lon="153.018913"><ele>50.4</ele><time>2026-01-01T00:27:18Z</time></trkpt>
<trkpt lat="-27.460108" lon="153.018914"><ele>50.2</ele><time>2026-01-01T00:27:21Z</time></trkpt>
<trkpt lat="-27.460108" lon="153.018914"><ele>50.2</ele><time>2026-01-01T00:27:28Z</time></trkpt>
<trkpt lat="-27.460108" lon="153.018914"><ele>50.2</ele><time>2026-01-01T00:27:31Z</time></trkpt>
<trkpt lat="-27.460108" lon="153.018914"><ele>50.2</ele><time>2026-01-01T00:27:34Z</time></trkpt>
<trkpt lat="-27.460108" lon="153.018914"><ele>50.2</ele><time>2026-01-01T00:27:44Z</time></trkpt>
<trkpt lat="-27.460108" lon="153.018914"><ele>50.2</ele><time>2026-01-01T00:27:45Z</time></trkpt>
<trkpt lat="-27.460108" lon="153.018914"><ele>50.2</ele><time>2026-01-01T00:27:47Z</time></trkpt>
<trkpt lat="-27.460108" lon="153.018914"><ele>50.2</ele><time>2026-01-01T00:27:49Z</time></trkpt>
<trkpt lat="-27.460107" lon="153.018914"><ele>50.2</ele><time>2026-01-01T00:27:51Z</time></trkpt>
<trkpt lat="-27.460107" lon="153.018914"><ele>50.2</ele><time>2026-01-01T00:27:53Z</time></trkpt>
<trkpt lat="-27.460099" lon="153.018908"><ele>50.2</ele><time>2026-01-01T00:27:57Z</time></trkpt>
<trkpt lat="-27.460095" lon="153.018907"><ele>50.2</ele><time>2026-01-01T00:28:09Z</time></trkpt>
<trkpt lat="-27.460026" lon="153.018959"><ele>49.8</ele><time>2026-01-01T00:28:12Z</time></trkpt>
<trkpt lat="-27.459875" lon="153.019099"><ele>50</ele><time>2026-01-01T00:28:17Z</time></trkpt>
<trkpt lat="-27.459825" lon="153.01916"><ele>50</ele><time>2026-01-01T00:28:19Z</time></trkpt>
<trkpt lat="-27.459757" lon="153.01924"><ele>50</ele><time>2026-01-01T00:28:22Z</time></trkpt>
<trkpt lat="-27.459664" lon="153.019338"><ele>50</ele><time>2026-01-01T00:28:26Z</time></trkpt>
<trkpt lat="-27.459618" lon="153.019394"><ele>50</ele><time>2026-01-01T00:28:28Z</time></trkpt>
<trkpt lat="-27.459533" lon="153.019499"><ele>50</ele><time>2026-01-01T00:28:32Z</time></trkpt>
<trkpt lat="-27.459506" lon="153.019525"><ele>50</ele><time>2026-01-01T00:28:33Z</time></trkpt>
<trkpt lat="-27.459374" lon="153.019689"><ele>50.2</ele><time>2026-01-01T00:28:39Z</time></trkpt>
<trkpt lat="-27.459361" lon="153.019712"><ele>50.2</ele><time>2026-01-01T00:28:40Z</time></trkpt>
<trkpt lat="-27.45931" lon="153.019832"><ele>50.4</ele><time>2026-01-01T00:28:44Z</time></trkpt>
<trkpt lat="-27.459237" lon="153.01999"><ele>49.6</ele><time>2026-01-01T00:28:49Z</time></trkpt>
<trkpt lat="-27.459229" lon="153.020016"><ele>49.6</ele><time>2026-01-01T00:28:50Z</time></trkpt>
<trkpt lat="-27.459189" lon="153.020116"><ele>49.2</ele><time>2026-01-01T00:28:53Z</time></trkpt>
<trkpt lat="-27.459141" lon="153.020247"><ele>48.8</ele><time>2026-01-01T00:28:57Z</time></trkpt>
<trkpt lat="-27.459127" lon="153.020281"><ele>48.8</ele><time>2026-01-01T00:28:58Z</time></trkpt>
<trkpt lat="-27.459108" lon="153.020321"><ele>48.6</ele><time>2026-01-01T00:28:59Z</time></trkpt>
<trkpt lat="-27.459054" lon="153.020498"><ele>47.6</ele><time>2026-01-01T00:29:04Z</time></trkpt>
<trkpt lat="-27.45904" lon="153.020528"><ele>47.4</ele><time>2026-01-01T00:29:05Z</time></trkpt>
<trkpt lat="-27.459006" lon="153.020665"><ele>46.6</ele><time>2026-01-01T00:29:10Z</time></trkpt>
<trkpt lat="-27.458972" lon="153.02073"><ele>46.4</ele><time>2026-01-01T00:29:12Z</time></trkpt>
<trkpt lat="-27.45893" lon="153.020899"><ele>45.8</ele><time>2026-01-01T00:29:17Z</time></trkpt>
<trkpt lat="-27.458896" lon="153.021008"><ele>45.2</ele><time>2026-01-01T00:29:20Z</time></trkpt>
<trkpt lat="-27.458829" lon="153.021177"><ele>44.4</ele><time>2026-01-01T00:29:25Z</time></trkpt>
<trkpt lat="-27.458793" lon="153.021317"><ele>44</ele><time>2026-01-01T00:29:29Z</time></trkpt>
<trkpt lat="-27.458778" lon="153.021448"><ele>43.6</ele><time>2026-01-01T00:29:33Z</time></trkpt>
<trkpt lat="-27.458737" lon="153.021656"><ele>43</ele><time>2026-01-01T00:29:39Z</time></trkpt>
</trkseg>
<trkseg>
<trkpt lat="-27.457699" lon="153.019781"><ele>32</ele><time>2026-01-01T10:01:02Z</time></trkpt>
<trkpt lat="-27.457768" lon="153.019636"><ele>31.8</ele><time>2026-01-01T10:01:08Z</time></trkpt>
<trkpt lat="-27.457838" lon="153.019487"><ele>32.4</ele><time>2026-01-01T10:01:14Z</time></trkpt>
<trkpt lat="-27.457879" lon="153.019394"><ele>32.6</ele><time>2026-01-01T10:01:17Z</time></trkpt>
<trkpt lat="-27.457881" lon="153.019365"><ele>32.8</ele><time>2026-01-01T10:01:18Z</time></trkpt>
<trkpt lat="-27.457884" lon="153.019332"><ele>32.8</ele><time>2026-01-01T10:01:19Z</time></trkpt>
<trkpt lat="-27.457896" lon="153.019262"><ele>33</ele><time>2026-01-01T10:01:21Z</time></trkpt>
<trkpt lat="-27.457922" lon="153.019092"><ele>33.4</ele><time>2026-01-01T10:01:26Z</time></trkpt>
<trkpt lat="-27.457937" lon="153.018897"><ele>33.6</ele><time>2026-01-01T10:01:32Z</time></trkpt>
<trkpt lat="-27.457965" lon="153.018843"><ele>33.4</ele><time>2026-01-01T10:01:34Z</time></trkpt>
<trkpt lat="-27.457977" lon="153.018741"><ele>33.4</ele><time>2026-01-01T10:01:37Z</time></trkpt>
<trkpt lat="-27.457966" lon="153.018644"><ele>33.4</ele><time>2026-01-01T10:01:40Z</time></trkpt>
<trkpt lat="-27.457967" lon="153.018614"><ele>33.4</ele><time>2026-01-01T10:01:41Z</time></trkpt>
<trkpt lat="-27.457973" lon="153.018554"><ele>33.4</ele><time>2026-01-01T10:01:43Z</time></trkpt>
<trkpt lat="-27.457996" lon="153.0185"><ele>33.8</ele><time>2026-01-01T10:01:45Z</time></trkpt>
<trkpt lat="-27.458003" lon="153.018467"><ele>34</ele><time>2026-01-01T10:01:46Z</time></trkpt>
<trkpt lat="-27.458011" lon="153.018282"><ele>35</ele><time>2026-01-01T10:01:51Z</time></trkpt>
<trkpt lat="-27.458027" lon="153.018169"><ele>35.6</ele><time>2026-01-01T10:01:54Z</time></trkpt>
<trkpt lat="-27.458041" lon="153.018063"><ele>36</ele><time>2026-01-01T10:01:57Z</time></trkpt>
<trkpt lat="-27.458028" lon="153.01795"><ele>36.2</ele><time>2026-01-01T10:02:00Z</time></trkpt>
<trkpt lat="-27.458038" lon="153.017742"><ele>35.6</ele><time>2026-01-01T10:02:06Z</time></trkpt>
<trkpt lat="-27.458038" lon="153.017699"><ele>35.4</ele><time>2026-01-01T10:02:07Z</time></trkpt>
<trkpt lat="-27.458041" lon="153.017667"><ele>35</ele><time>2026-01-01T10:02:08Z</time></trkpt>
<trkpt lat="-27.458061" lon="153.017504"><ele>34.2</ele><time>2026-01-01T10:02:12Z</time></trkpt>
<trkpt lat="-27.458141" lon="153.017301"><ele>34.2</ele><time>2026-01-01T10:02:18Z</time></trkpt>
<trkpt lat="-27.458152" lon="153.017274"><ele>34</ele><time>2026-01-01T10:02:19Z</time></trkpt>
<trkpt lat="-27.45817" lon="153.017198"><ele>34</ele><time>2026-01-01T10:02:21Z</time></trkpt>
<trkpt lat="-27.458219" lon="153.017012"><ele>33.6</ele><time>2026-01-01T10:02:27Z</time></trkpt>
<trkpt lat="-27.458304" lon="153.016819"><ele>33</ele><time>2026-01-01T10:02:33Z</time></trkpt>
<trkpt lat="-27.45834" lon="153.01676"><ele>32.8</ele><time>2026-01-01T10:02:35Z</time></trkpt>
<trkpt lat="-27.458385" lon="153.01666"><ele>32.4</ele><time>2026-01-01T10:02:38Z</time></trkpt>
<trkpt lat="-27.458431" lon="153.016563"><ele>32.4</ele><time>2026-01-01T10:02:41Z</time></trkpt>
<trkpt lat="-27.458505" lon="153.016374"><ele>32.6</ele><time>2026-01-01T10:02:47Z</time></trkpt>
<trkpt lat="-27.458555" lon="153.016149"><ele>33</ele><time>2026-01-01T10:02:54Z</time></trkpt>
<trkpt lat="-27.458674" lon="153.01598"><ele>33.6</ele><time>2026-01-01T10:03:00Z</time></trkpt>
<trkpt lat="-27.458737" lon="153.015879"><ele>33.8</ele><time>2026-01-01T10:03:03Z</time></trkpt>
<trkpt lat="-27.458838" lon="153.015742"><ele>34.4</ele><time>2026-01-01T10:03:08Z</time></trkpt>
<trkpt lat="-27.458937" lon="153.015658"><ele>35</ele><time>2026-01-01T10:03:12Z</time></trkpt>
<trkpt lat="-27.458979" lon="153.015625"><ele>35.2</ele><time>2026-01-01T10:03:14Z</time></trkpt>
<trkpt lat="-27.459002" lon="153.015612"><ele>35.4</ele><time>2026-01-01T10:03:15Z</time></trkpt>
<trkpt lat="-27.459056" lon="153.015579"><ele>36</ele><time>2026-01-01T10:03:17Z</time></trkpt>
<trkpt lat="-27.459139" lon="153.015545"><ele>37.4</ele><time>2026-01-01T10:03:20Z</time></trkpt>
<trkpt lat="-27.459191" lon="153.015519"><ele>38</ele><time>2026-01-01T10:03:22Z</time></trkpt>
<trkpt lat="-27.459221" lon="153.015512"><ele>38.4</ele><time>2026-01-01T10:03:23Z</time></trkpt>
<trkpt lat="-27.4593" lon="153.015496"><ele>39.6</ele><time>2026-01-01T10:03:26Z</time></trkpt>
<trkpt lat="-27.459352" lon="153.015476"><ele>40.8</ele><time>2026-01-01T10:03:28Z</time></trkpt>
<trkpt lat="-27.459375" lon="153.015466"><ele>40.8</ele><time>2026-01-01T10:03:29Z</time></trkpt>
<trkpt lat="-27.459523" lon="153.015399"><ele>39.8</ele><time>2026-01-01T10:03:34Z</time></trkpt>
<trkpt lat="-27.459682" lon="153.015338"><ele>39.8</ele><time>2026-01-01T10:03:39Z</time></trkpt>
<trkpt lat="-27.459798" lon="153.015303"><ele>40.4</ele><time>2026-01-01T10:03:43Z</time></trkpt>
<trkpt lat="-27.45983" lon="153.015299"><ele>40.6</ele><time>2026-01-01T10:03:44Z</time></trkpt>
<trkpt lat="-27.459863" lon="153.015289"><ele>40.8</ele><time>2026-01-01T10:03:45Z</time></trkpt>
<trkpt lat="-27.459894" lon="153.015274"><ele>41</ele><time>2026-01-01T10:03:46Z</time></trkpt>
<trkpt lat="-27.460022" lon="153.015196"><ele>41.4</ele><time>2026-01-01T10:03:52Z</time></trkpt>
<trkpt lat="-27.459993" lon="153.01503"><ele>41</ele><time>2026-01-01T10:03:56Z</time></trkpt>
<trkpt lat="-27.459882" lon="153.014848"><ele>41.2</ele><time>2026-01-01T10:04:02Z</time></trkpt>
<trkpt lat="-27.459861" lon="153.014822"><ele>41.2</ele><time>2026-01-01T10:04:03Z</time></trkpt>
<trkpt lat="-27.459727" lon="153.014646"><ele>41.6</ele><time>2026-01-01T10:04:10Z</time></trkpt>
<trkpt lat="-27.459687" lon="153.014605"><ele>41.8</ele><time>2026-01-01T10:04:12Z</time></trkpt>
<trkpt lat="-27.459666" lon="153.014584"><ele>41.8</ele><time>2026-01-01T10:04:13Z</time></trkpt>
<trkpt lat="-27.459579" lon="153.014478"><ele>42.2</ele><time>2026-01-01T10:04:19Z</time></trkpt>
<trkpt lat="-27.459579" lon="153.014471"><ele>42.6</ele><time>2026-01-01T10:04:20Z</time></trkpt>
<trkpt lat="-27.459542" lon="153.014446"><ele>42.8</ele><time>2026-01-01T10:04:26Z</time></trkpt>
<trkpt lat="-27.459539" lon="153.014451"><ele>42.8</ele><time>2026-01-01T10:04:30Z</time></trkpt>
<trkpt lat="-27.459535" lon="153.014465"><ele>42.6</ele><time>2026-01-01T10:04:37Z</time></trkpt>
<trkpt lat="-27.459537" lon="153.014463"><ele>42.6</ele><time>2026-01-01T10:04:41Z</time></trkpt>
<trkpt lat="-27.459537" lon="153.014463"><ele>42.6</ele><time>2026-01-01T10:04:43Z</time></trkpt>
<trkpt lat="-27.459541" lon="153.014466"><ele>42.2</ele><time>2026-01-01T10:04:48Z</time></trkpt>
<trkpt lat="-27.459594" lon="153.01448"><ele>42.2</ele><time>2026-01-01T10:04:50Z</time></trkpt>
<trkpt lat="-27.459692" lon="153.014495"><ele>42.2</ele><time>2026-01-01T10:04:53Z</time></trkpt>
<trkpt lat="-27.459724" lon="153.014496"><ele>42.2</ele><time>2026-01-01T10:04:54Z</time></trkpt>
<trkpt lat="-27.459811" lon="153.014511"><ele>42.2</ele><time>2026-01-01T10:04:59Z</time></trkpt>
<trkpt lat="-27.459813" lon="153.014511"><ele>42.2</ele><time>2026-01-01T10:05:00Z</time></trkpt>
<trkpt lat="-27.459815" lon="153.01451"><ele>42.2</ele><time>2026-01-01T10:05:06Z</time></trkpt>
<trkpt lat="-27.459815" lon="153.01451"><ele>42.2</ele><time>2026-01-01T10:05:17Z</time></trkpt>
<trkpt lat="-27.459817" lon="153.014506"><ele>42.2</ele><time>2026-01-01T10:05:24Z</time></trkpt>
<trkpt lat="-27.459867" lon="153.014485"><ele>42</ele><time>2026-01-01T10:05:26Z</time></trkpt>
<trkpt lat="-27.459973" lon="153.014492"><ele>41.8</ele><time>2026-01-01T10:05:29Z</time></trkpt>
<trkpt lat="-27.460009" lon="153.014497"><ele>41.6</ele><time>2026-01-01T10:05:30Z</time></trkpt>
<trkpt lat="-27.460191" lon="153.014515"><ele>41.2</ele><time>2026-01-01T10:05:35Z</time></trkpt>
<trkpt lat="-27.460263" lon="153.014511"><ele>41</ele><time>2026-01-01T10:05:37Z</time></trkpt>
<trkpt lat="-27.460461" lon="153.014541"><ele>40.8</ele><time>2026-01-01T10:05:43Z</time></trkpt>
<trkpt lat="-27.460485" lon="153.01453"><ele>40.8</ele><time>2026-01-01T10:05:44Z</time></trkpt>
<trkpt lat="-27.460515" lon="153.014425"><ele>40.8</ele><time>2026-01-01T10:05:47Z</time></trkpt>
<trkpt lat="-27.460524" lon="153.014331"><ele>41.8</ele><time>2026-01-01T10:05:50Z</time></trkpt>
<trkpt lat="-27.460518" lon="153.014244"><ele>43.2</ele><time>2026-01-01T10:05:53Z</time></trkpt>
<trkpt lat="-27.460501" lon="153.014161"><ele>44</ele><time>2026-01-01T10:05:56Z</time></trkpt>
<trkpt lat="-27.460504" lon="153.014133"><ele>44.2</ele><time>2026-01-01T10:05:57Z</time></trkpt>
<trkpt lat="-27.460544" lon="153.013996"><ele>45.2</ele><time>2026-01-01T10:06:01Z</time></trkpt>
<trkpt lat="-27.460533" lon="153.013771"><ele>45.4</ele><time>2026-01-01T10:06:07Z</time></trkpt>
<trkpt lat="-27.46053" lon="153.013741"><ele>45.4</ele><time>2026-01-01T10:06:08Z</time></trkpt>
<trkpt lat="-27.46049" lon="153.013524"><ele>45</ele><time>2026-01-01T10:06:15Z</time></trkpt>
<trkpt lat="-27.460482" lon="153.013499"><ele>44.8</ele><time>2026-01-01T10:06:16Z</time></trkpt>
<trkpt lat="-27.460464" lon="153.013369"><ele>43.6</ele><time>2026-01-01T10:06:20Z</time></trkpt>
<trkpt lat="-27.460454" lon="153.013275"><ele>42.8</ele><time>2026-01-01T10:06:23Z</time></trkpt>
<trkpt lat="-27.460449" lon="153.013245"><ele>42.6</ele><time>2026-01-01T10:06:24Z</time></trkpt>
<trkpt lat="-27.460422" lon="153.013155"><ele>41.6</ele><time>2026-01-01T10:06:27Z</time></trkpt>
<trkpt lat="-27.460412" lon="153.013128"><ele>41</ele><time>2026-01-01T10:06:28Z</time></trkpt>
<trkpt lat="-27.4604" lon="153.013067"><ele>40.4</ele><time>2026-01-01T10:06:30Z</time></trkpt>
<trkpt lat="-27.460396" lon="153.013038"><ele>40</ele><time>2026-01-01T10:06:31Z</time></trkpt>
<trkpt lat="-27.460393" lon="153.013007"><ele>39.4</ele><time>2026-01-01T10:06:32Z</time></trkpt>
<trkpt lat="-27.460389" lon="153.012907"><ele>38.2</ele><time>2026-01-01T10:06:35Z</time></trkpt>
<trkpt lat="-27.460414" lon="153.012853"><ele>37.4</ele><time>2026-01-01T10:06:37Z</time></trkpt>
<trkpt lat="-27.46043" lon="153.012835"><ele>37</ele><time>2026-01-01T10:06:38Z</time></trkpt>
<trkpt lat="-27.460513" lon="153.012813"><ele>35.6</ele><time>2026-01-01T10:06:41Z</time></trkpt>
<trkpt lat="-27.460576" lon="153.012805"><ele>34.4</ele><time>2026-01-01T10:06:43Z</time></trkpt>
<trkpt lat="-27.460666" lon="153.012797"><ele>33.2</ele><time>2026-01-01T10:06:46Z</time></trkpt>
<trkpt lat="-27.460749" lon="153.012775"><ele>32</ele><time>2026-01-01T10:06:49Z</time></trkpt>
<trkpt lat="-27.460778" lon="153.01277"><ele>31.6</ele><time>2026-01-01T10:06:50Z</time></trkpt>
<trkpt lat="-27.46083" lon="153.012763"><ele>30.6</ele><time>2026-01-01T10:06:52Z</time></trkpt>
<trkpt lat="-27.460883" lon="153.012754"><ele>29.4</ele><time>2026-01-01T10:06:54Z</time></trkpt>
<trkpt lat="-27.460964" lon="153.01274"><ele>28</ele><time>2026-01-01T10:06:57Z</time></trkpt>
<trkpt lat="-27.461017" lon="153.012729"><ele>27.2</ele><time>2026-01-01T10:06:59Z</time></trkpt>
<trkpt lat="-27.461045" lon="153.012721"><ele>26.8</ele><time>2026-01-01T10:07:00Z</time></trkpt>
<trkpt lat="-27.461131" lon="153.0127"><ele>25.4</ele><time>2026-01-01T10:07:03Z</time></trkpt>
<trkpt lat="-27.461155" lon="153.012688"><ele>24.8</ele><time>2026-01-01T10:07:04Z</time></trkpt>
<trkpt lat="-27.461186" lon="153.012664"><ele>24.2</ele><time>2026-01-01T10:07:05Z</time></trkpt>
<trkpt lat="-27.46122" lon="153.012599"><ele>23.2</ele><time>2026-01-01T10:07:07Z</time></trkpt>
<trkpt lat="-27.461229" lon="153.012561"><ele>22.8</ele><time>2026-01-01T10:07:08Z</time></trkpt>
<trkpt lat="-27.461246" lon="153.012323"><ele>22.4</ele><time>2026-01-01T10:07:14Z</time></trkpt>
<trkpt lat="-27.461244" lon="153.012277"><ele>22.4</ele><time>2026-01-01T10:07:15Z</time></trkpt>
<trkpt lat="-27.461194" lon="153.012062"><ele>22.2</ele><time>2026-01-01T10:07:21Z</time></trkpt>
<trkpt lat="-27.461187" lon="153.01203"><ele>22.2</ele><time>2026-01-01T10:07:22Z</time></trkpt>
<trkpt lat="-27.461176" lon="153.011964"><ele>22.2</ele><time>2026-01-01T10:07:24Z</time></trkpt>
<trkpt lat="-27.461143" lon="153.011783"><ele>21.4</ele><time>2026-01-01T10:07:30Z</time></trkpt>
<trkpt lat="-27.461145" lon="153.01176"><ele>21</ele><time>2026-01-01T10:07:32Z</time></trkpt>
<trkpt lat="-27.461152" lon="153.01178"><ele>21</ele><time>2026-01-01T10:07:34Z</time></trkpt>
<trkpt lat="-27.461158" lon="153.011804"><ele>21</ele><time>2026-01-01T10:07:35Z</time></trkpt>
<trkpt lat="-27.46116" lon="153.011868"><ele>21.4</ele><time>2026-01-01T10:07:38Z</time></trkpt>
<trkpt lat="-27.461147" lon="153.011857"><ele>22.2</ele><time>2026-01-01T10:07:40Z</time></trkpt>
<trkpt lat="-27.461146" lon="153.011831"><ele>22.4</ele><time>2026-01-01T10:07:41Z</time></trkpt>
<trkpt lat="-27.461145" lon="153.011704"><ele>23.6</ele><time>2026-01-01T10:07:45Z</time></trkpt>
<trkpt lat="-27.461132" lon="153.011608"><ele>24.8</ele><time>2026-01-01T10:07:48Z</time></trkpt>
<trkpt lat="-27.461109" lon="153.011484"><ele>26</ele><time>2026-01-01T10:07:52Z</time></trkpt>
<trkpt lat="-27.461102" lon="153.011454"><ele>26.2</ele><time>2026-01-01T10:07:53Z</time></trkpt>
<trkpt lat="-27.461044" lon="153.011248"><ele>25</ele><time>2026-01-01T10:08:01Z</time></trkpt>
<trkpt lat="-27.461052" lon="153.011229"><ele>24.8</ele><time>2026-01-01T10:08:02Z</time></trkpt>
<trkpt lat="-27.461082" lon="153.011212"><ele>23.8</ele><time>2026-01-01T10:08:04Z</time></trkpt>
<trkpt lat="-27.461102" lon="153.011219"><ele>23.6</ele><time>2026-01-01T10:08:05Z</time></trkpt>
<trkpt lat="-27.461111" lon="153.011235"><ele>23.2</ele><time>2026-01-01T10:08:06Z</time></trkpt>
<trkpt lat="-27.461109" lon="153.011271"><ele>22.6</ele><time>2026-01-01T10:08:08Z</time></trkpt>
<trkpt lat="-27.461095" lon="153.011283"><ele>22.4</ele><time>2026-01-01T10:08:09Z</time></trkpt>
<trkpt lat="-27.461015" lon="153.011313"><ele>21.6</ele><time>2026-01-01T10:08:13Z</time></trkpt>
<trkpt lat="-27.461005" lon="153.011316"><ele>21.2</ele><time>2026-01-01T10:08:14Z</time></trkpt>
<trkpt lat="-27.460995" lon="153.011315"><ele>20.8</ele><time>2026-01-01T10:08:17Z</time></trkpt>
<trkpt lat="-27.461006" lon="153.011281"><ele>20.2</ele><time>2026-01-01T10:08:19Z</time></trkpt>
<trkpt lat="-27.461012" lon="153.011261"><ele>19.8</ele><time>2026-01-01T10:08:20Z</time></trkpt>
<trkpt lat="-27.46104" lon="153.011176"><ele>18.6</ele><time>2026-01-01T10:08:23Z</time></trkpt>
<trkpt lat="-27.461116" lon="153.010961"><ele>17.6</ele><time>2026-01-01T10:08:29Z</time></trkpt>
<trkpt lat="-27.461116" lon="153.010929"><ele>17.6</ele><time>2026-01-01T10:08:30Z</time></trkpt>
<trkpt lat="-27.461166" lon="153.010742"><ele>17</ele><time>2026-01-01T10:08:36Z</time></trkpt>
<trkpt lat="-27.461234" lon="153.010713"><ele>16.2</ele><time>2026-01-01T10:08:39Z</time></trkpt>
<trkpt lat="-27.4613" lon="153.010709"><ele>15.8</ele><time>2026-01-01T10:08:41Z</time></trkpt>
<trkpt lat="-27.461483" lon="153.010706"><ele>15.4</ele><time>2026-01-01T10:08:46Z</time></trkpt>
<trkpt lat="-27.461573" lon="153.010707"><ele>15.2</ele><time>2026-01-01T10:08:49Z</time></trkpt>
<trkpt lat="-27.461606" lon="153.010701"><ele>15</ele><time>2026-01-01T10:08:50Z</time></trkpt>
<trkpt lat="-27.46179" lon="153.010665"><ele>14.4</ele><time>2026-01-01T10:08:56Z</time></trkpt>
<trkpt lat="-27.46189" lon="153.010639"><ele>14</ele><time>2026-01-01T10:08:59Z</time></trkpt>
<trkpt lat="-27.462072" lon="153.010604"><ele>13.6</ele><time>2026-01-01T10:09:05Z</time></trkpt>
<trkpt lat="-27.462109" lon="153.01059"><ele>13.6</ele><time>2026-01-01T10:09:07Z</time></trkpt>
<trkpt lat="-27.462134" lon="153.010586"><ele>13.6</ele><time>2026-01-01T10:09:11Z</time></trkpt>
<trkpt lat="-27.462158" lon="153.010533"><ele>13.6</ele><time>2026-01-01T10:09:19Z</time></trkpt>
<trkpt lat="-27.462145" lon="153.010509"><ele>13.6</ele><time>2026-01-01T10:09:21Z</time></trkpt>
<trkpt lat="-27.462098" lon="153.01047"><ele>13.4</ele><time>2026-01-01T10:09:25Z</time></trkpt>
<trkpt lat="-27.462081" lon="153.010416"><ele>13.8</ele><time>2026-01-01T10:09:30Z</time></trkpt>
<trkpt lat="-27.462076" lon="153.01037"><ele>14</ele><time>2026-01-01T10:09:33Z</time></trkpt>
<trkpt lat="-27.462067" lon="153.010358"><ele>14</ele><time>2026-01-01T10:09:34Z</time></trkpt>
<trkpt lat="-27.462059" lon="153.010291"><ele>13.8</ele><time>2026-01-01T10:09:39Z</time></trkpt>
<trkpt lat="-27.462056" lon="153.010275"><ele>13.8</ele><time>2026-01-01T10:09:41Z</time></trkpt>
<trkpt lat="-27.462053" lon="153.010272"><ele>13.4</ele><time>2026-01-01T10:09:46Z</time></trkpt>
<trkpt lat="-27.462052" lon="153.010217"><ele>13.2</ele><time>2026-01-01T10:09:51Z</time></trkpt>
<trkpt lat="-27.462042" lon="153.010198"><ele>13.2</ele><time>2026-01-01T10:09:52Z</time></trkpt>
<trkpt lat="-27.462032" lon="153.010179"><ele>13</ele><time>2026-01-01T10:09:53Z</time></trkpt>
<trkpt lat="-27.462002" lon="153.010099"><ele>12.4</ele><time>2026-01-01T10:09:58Z</time></trkpt>
<trkpt lat="-27.461982" lon="153.010055"><ele>12.2</ele><time>2026-01-01T10:10:03Z</time></trkpt>
<trkpt lat="-27.461999" lon="153.010026"><ele>12.2</ele><time>2026-01-01T10:10:06Z</time></trkpt>
<trkpt lat="-27.462007" lon="153.010001"><ele>11.8</ele><time>2026-01-01T10:10:08Z</time></trkpt>
<trkpt lat="-27.462012" lon="153.009965"><ele>10.6</ele><time>2026-01-01T10:10:10Z</time></trkpt>
<trkpt lat="-27.461998" lon="153.009945"><ele>10</ele><time>2026-01-01T10:10:12Z</time></trkpt>
<trkpt lat="-27.461986" lon="153.00994"><ele>9.8</ele><time>2026-01-01T10:10:13Z</time></trkpt>
<trkpt lat="-27.461967" lon="153.009929"><ele>9.6</ele><time>2026-01-01T10:10:15Z</time></trkpt>
<trkpt lat="-27.461964" lon="153.009919"><ele>9.6</ele><time>2026-01-01T10:10:16Z</time></trkpt>
<trkpt lat="-27.461974" lon="153.009884"><ele>9.6</ele><time>2026-01-01T10:10:19Z</time></trkpt>
<trkpt lat="-27.461977" lon="153.009871"><ele>9.4</ele><time>2026-01-01T10:10:20Z</time></trkpt>
<trkpt lat="-27.461983" lon="153.009783"><ele>9.2</ele><time>2026-01-01T10:10:25Z</time></trkpt>
<trkpt lat="-27.461975" lon="153.009723"><ele>9.2</ele><time>2026-01-01T10:10:29Z</time></trkpt>
<trkpt lat="-27.461941" lon="153.009554"><ele>9</ele><time>2026-01-01T10:10:36Z</time></trkpt>
<trkpt lat="-27.461886" lon="153.009355"><ele>9.4</ele><time>2026-01-01T10:10:42Z</time></trkpt>
<trkpt lat="-27.461875" lon="153.009326"><ele>9.6</ele><time>2026-01-01T10:10:43Z</time></trkpt>
<trkpt lat="-27.461852" lon="153.009273"><ele>10.2</ele><time>2026-01-01T10:10:45Z</time></trkpt>
<trkpt lat="-27.461868" lon="153.009252"><ele>10.8</ele><time>2026-01-01T10:10:46Z</time></trkpt>
<trkpt lat="-27.461925" lon="153.009216"><ele>11.6</ele><time>2026-01-01T10:10:48Z</time></trkpt>
<trkpt lat="-27.461947" lon="153.0092"><ele>12</ele><time>2026-01-01T10:10:49Z</time></trkpt>
<trkpt lat="-27.461991" lon="153.009172"><ele>12.2</ele><time>2026-01-01T10:10:51Z</time></trkpt>
<trkpt lat="-27.462036" lon="153.009147"><ele>13.2</ele><time>2026-01-01T10:10:53Z</time></trkpt>
<trkpt lat="-27.462106" lon="153.009124"><ele>13.6</ele><time>2026-01-01T10:10:56Z</time></trkpt>
<trkpt lat="-27.462179" lon="153.009111"><ele>14.8</ele><time>2026-01-01T10:10:59Z</time></trkpt>
<trkpt lat="-27.462251" lon="153.009119"><ele>15.8</ele><time>2026-01-01T10:11:02Z</time></trkpt>
<trkpt lat="-27.462265" lon="153.009132"><ele>16</ele><time>2026-01-01T10:11:03Z</time></trkpt>
<trkpt lat="-27.462287" lon="153.009161"><ele>16.2</ele><time>2026-01-01T10:11:09Z</time></trkpt>
<trkpt lat="-27.462287" lon="153.009162"><ele>16.2</ele><time>2026-01-01T10:11:13Z</time></trkpt>
<trkpt lat="-27.462286" lon="153.009161"><ele>16</ele><time>2026-01-01T10:11:17Z</time></trkpt>
<trkpt lat="-27.462286" lon="153.009161"><ele>16</ele><time>2026-01-01T10:11:22Z</time></trkpt>
<trkpt lat="-27.462286" lon="153.009161"><ele>16</ele><time>2026-01-01T10:11:26Z</time></trkpt>
<trkpt lat="-27.462286" lon="153.009161"><ele>16</ele><time>2026-01-01T10:11:30Z</time></trkpt>
<trkpt lat="-27.462282" lon="153.00916"><ele>15.8</ele><time>2026-01-01T10:11:38Z</time></trkpt>
<trkpt lat="-27.462281" lon="153.00916"><ele>15.8</ele><time>2026-01-01T10:11:41Z</time></trkpt>
<trkpt lat="-27.462287" lon="153.009159"><ele>15.8</ele><time>2026-01-01T10:11:45Z</time></trkpt>
<trkpt lat="-27.462376" lon="153.009144"><ele>15.8</ele><time>2026-01-01T10:11:47Z</time></trkpt>
<trkpt lat="-27.46259" lon="153.009106"><ele>16.2</ele><time>2026-01-01T10:11:52Z</time></trkpt>
<trkpt lat="-27.462667" lon="153.009086"><ele>16.6</ele><time>2026-01-01T10:11:54Z</time></trkpt>
<trkpt lat="-27.46277" lon="153.009076"><ele>17</ele><time>2026-01-01T10:11:57Z</time></trkpt>
<trkpt lat="-27.462901" lon="153.00905"><ele>16.6</ele><time>2026-01-01T10:12:01Z</time></trkpt>
<trkpt lat="-27.462936" lon="153.009046"><ele>16.4</ele><time>2026-01-01T10:12:02Z</time></trkpt>
<trkpt lat="-27.463035" lon="153.009033"><ele>15.6</ele><time>2026-01-01T10:12:05Z</time></trkpt>
<trkpt lat="-27.463161" lon="153.008987"><ele>15</ele><time>2026-01-01T10:12:09Z</time></trkpt>
<trkpt lat="-27.463216" lon="153.008964"><ele>14.6</ele><time>2026-01-01T10:12:11Z</time></trkpt>
<trkpt lat="-27.463291" lon="153.008922"><ele>14</ele><time>2026-01-01T10:12:14Z</time></trkpt>
<trkpt lat="-27.463431" lon="153.008902"><ele>13.6</ele><time>2026-01-01T10:12:18Z</time></trkpt>
<trkpt lat="-27.463504" lon="153.00888"><ele>13.6</ele><time>2026-01-01T10:12:20Z</time></trkpt>
<trkpt lat="-27.463566" lon="153.008845"><ele>13.4</ele><time>2026-01-01T10:12:22Z</time></trkpt>
<trkpt lat="-27.463681" lon="153.008804"><ele>12.6</ele><time>2026-01-01T10:12:26Z</time></trkpt>
<trkpt lat="-27.463741" lon="153.008789"><ele>12.2</ele><time>2026-01-01T10:12:28Z</time></trkpt>
<trkpt lat="-27.463861" lon="153.008768"><ele>11.4</ele><time>2026-01-01T10:12:32Z</time></trkpt>
<trkpt lat="-27.463993" lon="153.008729"><ele>11</ele><time>2026-01-01T10:12:36Z</time></trkpt>
<trkpt lat="-27.464018" lon="153.008718"><ele>10.8</ele><time>2026-01-01T10:12:37Z</time></trkpt>
<trkpt lat="-27.464189" lon="153.00867"><ele>9.8</ele><time>2026-01-01T10:12:43Z</time></trkpt>
<trkpt lat="-27.464282" lon="153.008645"><ele>9.4</ele><time>2026-01-01T10:12:46Z</time></trkpt>
<trkpt lat="-27.464338" lon="153.00864"><ele>9.2</ele><time>2026-01-01T10:12:48Z</time></trkpt>
<trkpt lat="-27.464484" lon="153.008658"><ele>8.6</ele><time>2026-01-01T10:12:54Z</time></trkpt>
<trkpt lat="-27.464513" lon="153.008666"><ele>8.6</ele><time>2026-01-01T10:12:55Z</time></trkpt>
<trkpt lat="-27.464542" lon="153.008663"><ele>8.4</ele><time>2026-01-01T10:12:56Z</time></trkpt>
<trkpt lat="-27.464601" lon="153.008652"><ele>8.4</ele><time>2026-01-01T10:12:58Z</time></trkpt>
<trkpt lat="-27.464633" lon="153.008645"><ele>8.2</ele><time>2026-01-01T10:12:59Z</time></trkpt>
<trkpt lat="-27.464766" lon="153.00862"><ele>8.2</ele><time>2026-01-01T10:13:04Z</time></trkpt>
<trkpt lat="-27.464794" lon="153.008634"><ele>8</ele><time>2026-01-01T10:13:05Z</time></trkpt>
<trkpt lat="-27.464921" lon="153.008632"><ele>8</ele><time>2026-01-01T10:13:10Z</time></trkpt>
<trkpt lat="-27.464952" lon="153.008609"><ele>7.8</ele><time>2026-01-01T10:13:11Z</time></trkpt>
<trkpt lat="-27.465139" lon="153.008537"><ele>7.8</ele><time>2026-01-01T10:13:16Z</time></trkpt>
<trkpt lat="-27.46517" lon="153.008534"><ele>7.8</ele><time>2026-01-01T10:13:17Z</time></trkpt>
<trkpt lat="-27.465242" lon="153.008508"><ele>7.8</ele><time>2026-01-01T10:13:19Z</time></trkpt>
<trkpt lat="-27.465348" lon="153.008487"><ele>7.8</ele><time>2026-01-01T10:13:22Z</time></trkpt>
<trkpt lat="-27.46553" lon="153.008437"><ele>7.8</ele><time>2026-01-01T10:13:27Z</time></trkpt>
<trkpt lat="-27.465641" lon="153.008413"><ele>7.8</ele><time>2026-01-01T10:13:31Z</time></trkpt>
<trkpt lat="-27.46567" lon="153.008464"><ele>8</ele><time>2026-01-01T10:13:33Z</time></trkpt>
<trkpt lat="-27.465679" lon="153.008501"><ele>8</ele><time>2026-01-01T10:13:34Z</time></trkpt>
<trkpt lat="-27.465674" lon="153.008569"><ele>8.8</ele><time>2026-01-01T10:13:38Z</time></trkpt>
<trkpt lat="-27.465672" lon="153.008585"><ele>9.4</ele><time>2026-01-01T10:13:39Z</time></trkpt>
<trkpt lat="-27.46565" lon="153.008629"><ele>9.8</ele><time>2026-01-01T10:13:41Z</time></trkpt>
<trkpt lat="-27.46564" lon="153.008655"><ele>10</ele><time>2026-01-01T10:13:42Z</time></trkpt>
<trkpt lat="-27.465636" lon="153.008688"><ele>10</ele><time>2026-01-01T10:13:43Z</time></trkpt>
<trkpt lat="-27.465662" lon="153.00882"><ele>10</ele><time>2026-01-01T10:13:47Z</time></trkpt>
<trkpt lat="-27.465666" lon="153.008841"><ele>10.2</ele><time>2026-01-01T10:13:48Z</time></trkpt>
<trkpt lat="-27.465672" lon="153.008882"><ele>10.6</ele><time>2026-01-01T10:13:51Z</time></trkpt>
<trkpt lat="-27.465672" lon="153.008897"><ele>11</ele><time>2026-01-01T10:13:52Z</time></trkpt>
<trkpt lat="-27.465673" lon="153.008915"><ele>11.4</ele><time>2026-01-01T10:13:53Z</time></trkpt>
<trkpt lat="-27.465736" lon="153.008928"><ele>11.6</ele><time>2026-01-01T10:13:57Z</time></trkpt>
<trkpt lat="-27.465755" lon="153.008923"><ele>12.2</ele><time>2026-01-01T10:13:59Z</time></trkpt>
<trkpt lat="-27.465792" lon="153.008918"><ele>13.2</ele><time>2026-01-01T10:14:04Z</time></trkpt>
<trkpt lat="-27.465835" lon="153.008912"><ele>14.4</ele><time>2026-01-01T10:14:09Z</time></trkpt>
<trkpt lat="-27.465845" lon="153.008907"><ele>14.6</ele><time>2026-01-01T10:14:11Z</time></trkpt>
<trkpt lat="-27.465885" lon="153.008905"><ele>15.6</ele><time>2026-01-01T10:14:14Z</time></trkpt>
<trkpt lat="-27.465961" lon="153.008899"><ele>16.4</ele><time>2026-01-01T10:14:19Z</time></trkpt>
<trkpt lat="-27.465983" lon="153.008907"><ele>16.8</ele><time>2026-01-01T10:14:20Z</time></trkpt>
<trkpt lat="-27.466044" lon="153.008975"><ele>17</ele><time>2026-01-01T10:14:23Z</time></trkpt>
<trkpt lat="-27.466218" lon="153.009111"><ele>17</ele><time>2026-01-01T10:14:29Z</time></trkpt>
<trkpt lat="-27.466251" lon="153.009127"><ele>17</ele><time>2026-01-01T10:14:30Z</time></trkpt>
<trkpt lat="-27.466421" lon="153.009265"><ele>17</ele><time>2026-01-01T10:14:36Z</time></trkpt>
<trkpt lat="-27.466486" lon="153.009288"><ele>17</ele><time>2026-01-01T10:14:38Z</time></trkpt>
<trkpt lat="-27.466553" lon="153.009284"><ele>17</ele><time>2026-01-01T10:14:40Z</time></trkpt>
<trkpt lat="-27.466705" lon="153.009282"><ele>17.2</ele><time>2026-01-01T10:14:45Z</time></trkpt>
<trkpt lat="-27.466759" lon="153.009261"><ele>17.4</ele><time>2026-01-01T10:14:47Z</time></trkpt>
<trkpt lat="-27.466958" lon="153.009171"><ele>17</ele><time>2026-01-01T10:14:54Z</time></trkpt>
<trkpt lat="-27.467148" lon="153.009115"><ele>16.8</ele><time>2026-01-01T10:15:00Z</time></trkpt>
<trkpt lat="-27.4672" lon="153.009104"><ele>16.6</ele><time>2026-01-01T10:15:02Z</time></trkpt>
<trkpt lat="-27.467376" lon="153.009092"><ele>16.2</ele><time>2026-01-01T10:15:09Z</time></trkpt>
<trkpt lat="-27.467387" lon="153.009105"><ele>16.2</ele><time>2026-01-01T10:15:10Z</time></trkpt>
<trkpt lat="-27.467391" lon="153.00913"><ele>16.2</ele><time>2026-01-01T10:15:11Z</time></trkpt>
<trkpt lat="-27.467368" lon="153.009229"><ele>15.6</ele><time>2026-01-01T10:15:14Z</time></trkpt>
<trkpt lat="-27.467311" lon="153.009403"><ele>15</ele><time>2026-01-01T10:15:19Z</time></trkpt>
<trkpt lat="-27.467269" lon="153.00953"><ele>14.6</ele><time>2026-01-01T10:15:23Z</time></trkpt>
<trkpt lat="-27.467259" lon="153.009566"><ele>14.6</ele><time>2026-01-01T10:15:24Z</time></trkpt>
<trkpt lat="-27.467199" lon="153.009772"><ele>14</ele><time>2026-01-01T10:15:30Z</time></trkpt>
<trkpt lat="-27.467154" lon="153.009902"><ele>13.6</ele><time>2026-01-01T10:15:34Z</time></trkpt>
<trkpt lat="-27.467127" lon="153.009963"><ele>13.6</ele><time>2026-01-01T10:15:36Z</time></trkpt>
<trkpt lat="-27.467105" lon="153.01008"><ele>13.4</ele><time>2026-01-01T10:15:40Z</time></trkpt>
<trkpt lat="-27.467116" lon="153.010102"><ele>13.4</ele><time>2026-01-01T10:15:41Z</time></trkpt>
<trkpt lat="-27.467191" lon="153.010177"><ele>13.4</ele><time>2026-01-01T10:15:45Z</time></trkpt>
<trkpt lat="-27.467209" lon="153.010206"><ele>13.4</ele><time>2026-01-01T10:15:46Z</time></trkpt>
<trkpt lat="-27.467241" lon="153.01022"><ele>13.2</ele><time>2026-01-01T10:15:47Z</time></trkpt>
<trkpt lat="-27.467373" lon="153.010253"><ele>12.8</ele><time>2026-01-01T10:15:50Z</time></trkpt>
<trkpt lat="-27.467402" lon="153.010264"><ele>12.4</ele><time>2026-01-01T10:15:51Z</time></trkpt>
<trkpt lat="-27.467583" lon="153.01032"><ele>11.6</ele><time>2026-01-01T10:15:57Z</time></trkpt>
<trkpt lat="-27.467618" lon="153.010309"><ele>11.2</ele><time>2026-01-01T10:15:58Z</time></trkpt>
<trkpt lat="-27.467724" lon="153.010209"><ele>11</ele><time>2026-01-01T10:16:02Z</time></trkpt>
<trkpt lat="-27.467862" lon="153.010069"><ele>11.4</ele><time>2026-01-01T10:16:08Z</time></trkpt>
<trkpt lat="-27.46798" lon="153.009944"><ele>11.4</ele><time>2026-01-01T10:16:14Z</time></trkpt>
<trkpt lat="-27.468129" lon="153.009779"><ele>11.2</ele><time>2026-01-01T10:16:21Z</time></trkpt>
<trkpt lat="-27.46833" lon="153.009714"><ele>11</ele><time>2026-01-01T10:16:27Z</time></trkpt>
<trkpt lat="-27.468421" lon="153.009592"><ele>10.8</ele><time>2026-01-01T10:16:32Z</time></trkpt>
<trkpt lat="-27.468503" lon="153.009451"><ele>11</ele><time>2026-01-01T10:16:37Z</time></trkpt>
<trkpt lat="-27.46859" lon="153.009405"><ele>11.2</ele><time>2026-01-01T10:16:40Z</time></trkpt>
<trkpt lat="-27.468657" lon="153.009397"><ele>11.2</ele><time>2026-01-01T10:16:42Z</time></trkpt>
<trkpt lat="-27.46881" lon="153.00946"><ele>11.6</ele><time>2026-01-01T10:16:47Z</time></trkpt>
<trkpt lat="-27.468928" lon="153.009513"><ele>12</ele><time>2026-01-01T10:16:51Z</time></trkpt>
<trkpt lat="-27.468975" lon="153.009571"><ele>12.2</ele><time>2026-01-01T10:16:53Z</time></trkpt>
<trkpt lat="-27.469095" lon="153.009741"><ele>11.6</ele><time>2026-01-01T10:16:59Z</time></trkpt>
<trkpt lat="-27.469155" lon="153.00986"><ele>11.2</ele><time>2026-01-01T10:17:02Z</time></trkpt>
<trkpt lat="-27.469184" lon="153.009859"><ele>11</ele><time>2026-01-01T10:17:03Z</time></trkpt>
<trkpt lat="-27.469208" lon="153.009852"><ele>11</ele><time>2026-01-01T10:17:04Z</time></trkpt>
<trkpt lat="-27.4693" lon="153.009757"><ele>10.6</ele><time>2026-01-01T10:17:08Z</time></trkpt>
<trkpt lat="-27.469343" lon="153.009694"><ele>10.2</ele><time>2026-01-01T10:17:10Z</time></trkpt>
<trkpt lat="-27.469424" lon="153.009551"><ele>9.4</ele><time>2026-01-01T10:17:14Z</time></trkpt>
<trkpt lat="-27.46945" lon="153.009532"><ele>9</ele><time>2026-01-01T10:17:15Z</time></trkpt>
<trkpt lat="-27.46951" lon="153.009453"><ele>8.4</ele><time>2026-01-01T10:17:18Z</time></trkpt>
<trkpt lat="-27.469555" lon="153.009397"><ele>8</ele><time>2026-01-01T10:17:20Z</time></trkpt>
<trkpt lat="-27.469694" lon="153.009455"><ele>8</ele><time>2026-01-01T10:17:24Z</time></trkpt>
<trkpt lat="-27.469908" lon="153.009544"><ele>8</ele><time>2026-01-01T10:17:31Z</time></trkpt>
<trkpt lat="-27.469959" lon="153.009565"><ele>8.2</ele><time>2026-01-01T10:17:33Z</time></trkpt>
<trkpt lat="-27.469956" lon="153.009522"><ele>8.2</ele><time>2026-01-01T10:17:35Z</time></trkpt>
<trkpt lat="-27.470045" lon="153.009397"><ele>7.6</ele><time>2026-01-01T10:17:39Z</time></trkpt>
<trkpt lat="-27.470122" lon="153.009277"><ele>7.4</ele><time>2026-01-01T10:17:43Z</time></trkpt>
<trkpt lat="-27.470234" lon="153.009114"><ele>7.2</ele><time>2026-01-01T10:17:48Z</time></trkpt>
<trkpt lat="-27.470295" lon="153.009051"><ele>7.2</ele><time>2026-01-01T10:17:50Z</time></trkpt>
<trkpt lat="-27.470446" lon="153.008918"><ele>7</ele><time>2026-01-01T10:17:56Z</time></trkpt>
<trkpt lat="-27.470474" lon="153.008896"><ele>7</ele><time>2026-01-01T10:17:57Z</time></trkpt>
<trkpt lat="-27.47063" lon="153.008742"><ele>6.8</ele><time>2026-01-01T10:18:03Z</time></trkpt>
<trkpt lat="-27.470656" lon="153.008719"><ele>6.8</ele><time>2026-01-01T10:18:04Z</time></trkpt>
<trkpt lat="-27.470719" lon="153.008638"><ele>6.8</ele><time>2026-01-01T10:18:07Z</time></trkpt>
<trkpt lat="-27.470855" lon="153.008478"><ele>7</ele><time>2026-01-01T10:18:13Z</time></trkpt>
<trkpt lat="-27.470876" lon="153.008453"><ele>7.2</ele><time>2026-01-01T10:18:14Z</time></trkpt>
<trkpt lat="-27.471006" lon="153.008298"><ele>7.2</ele><time>2026-01-01T10:18:20Z</time></trkpt>
<trkpt lat="-27.471147" lon="153.008133"><ele>7</ele><time>2026-01-01T10:18:26Z</time></trkpt>
<trkpt lat="-27.471168" lon="153.008106"><ele>7.2</ele><time>2026-01-01T10:18:27Z</time></trkpt>
<trkpt lat="-27.471308" lon="153.007956"><ele>7</ele><time>2026-01-01T10:18:33Z</time></trkpt>
<trkpt lat="-27.471443" lon="153.007794"><ele>7.2</ele><time>2026-01-01T10:18:39Z</time></trkpt>
<trkpt lat="-27.471463" lon="153.007766"><ele>7.2</ele><time>2026-01-01T10:18:40Z</time></trkpt>
<trkpt lat="-27.471496" lon="153.007712"><ele>7.2</ele><time>2026-01-01T10:18:42Z</time></trkpt>
<trkpt lat="-27.471623" lon="153.00755"><ele>7.2</ele><time>2026-01-01T10:18:48Z</time></trkpt>
<trkpt lat="-27.471647" lon="153.007524"><ele>7.2</ele><time>2026-01-01T10:18:49Z</time></trkpt>
<trkpt lat="-27.471746" lon="153.007346"><ele>7.2</ele><time>2026-01-01T10:18:55Z</time></trkpt>
<trkpt lat="-27.471766" lon="153.00732"><ele>7.2</ele><time>2026-01-01T10:18:56Z</time></trkpt>
<trkpt lat="-27.471904" lon="153.007141"><ele>7.2</ele><time>2026-01-01T10:19:03Z</time></trkpt>
<trkpt lat="-27.471928" lon="153.007115"><ele>7.2</ele><time>2026-01-01T10:19:04Z</time></trkpt>
<trkpt lat="-27.472072" lon="153.006949"><ele>7</ele><time>2026-01-01T10:19:10Z</time></trkpt>
<trkpt lat="-27.472093" lon="153.006924"><ele>7</ele><time>2026-01-01T10:19:11Z</time></trkpt>
<trkpt lat="-27.472116" lon="153.0069"><ele>7</ele><time>2026-01-01T10:19:12Z</time></trkpt>
<trkpt lat="-27.472236" lon="153.006724"><ele>7</ele><time>2026-01-01T10:19:18Z</time></trkpt>
<trkpt lat="-27.4723" lon="153.006637"><ele>7</ele><time>2026-01-01T10:19:21Z</time></trkpt>
<trkpt lat="-27.472424" lon="153.006519"><ele>7</ele><time>2026-01-01T10:19:26Z</time></trkpt>
<trkpt lat="-27.472549" lon="153.006357"><ele>7</ele><time>2026-01-01T10:19:32Z</time></trkpt>
<trkpt lat="-27.472594" lon="153.006308"><ele>7</ele><time>2026-01-01T10:19:34Z</time></trkpt>
<trkpt lat="-27.472715" lon="153.006141"><ele>7.2</ele><time>2026-01-01T10:19:40Z</time></trkpt>
<trkpt lat="-27.472791" lon="153.006043"><ele>7</ele><time>2026-01-01T10:19:44Z</time></trkpt>
<trkpt lat="-27.47294" lon="153.005877"><ele>6.8</ele><time>2026-01-01T10:19:50Z</time></trkpt>
<trkpt lat="-27.472965" lon="153.005851"><ele>6.8</ele><time>2026-01-01T10:19:51Z</time></trkpt>
<trkpt lat="-27.473089" lon="153.005702"><ele>6.8</ele><time>2026-01-01T10:19:57Z</time></trkpt>
<trkpt lat="-27.473108" lon="153.005679"><ele>6.8</ele><time>2026-01-01T10:19:58Z</time></trkpt>
<trkpt lat="-27.473237" lon="153.005526"><ele>6.8</ele><time>2026-01-01T10:20:04Z</time></trkpt>
<trkpt lat="-27.473313" lon="153.005437"><ele>7</ele><time>2026-01-01T10:20:08Z</time></trkpt>
<trkpt lat="-27.473371" lon="153.005286"><ele>6.8</ele><time>2026-01-01T10:20:14Z</time></trkpt>
<trkpt lat="-27.473409" lon="153.005222"><ele>6.8</ele><time>2026-01-01T10:20:17Z</time></trkpt>
<trkpt lat="-27.473454" lon="153.005167"><ele>6.8</ele><time>2026-01-01T10:20:19Z</time></trkpt>
<trkpt lat="-27.473561" lon="153.005007"><ele>6.8</ele><time>2026-01-01T10:20:24Z</time></trkpt>
<trkpt lat="-27.473712" lon="153.004865"><ele>7</ele><time>2026-01-01T10:20:29Z</time></trkpt>
<trkpt lat="-27.473741" lon="153.004836"><ele>7</ele><time>2026-01-01T10:20:30Z</time></trkpt>
<trkpt lat="-27.473878" lon="153.004703"><ele>7</ele><time>2026-01-01T10:20:35Z</time></trkpt>
<trkpt lat="-27.473932" lon="153.004659"><ele>7</ele><time>2026-01-01T10:20:37Z</time></trkpt>
<trkpt lat="-27.474059" lon="153.004511"><ele>7</ele><time>2026-01-01T10:20:43Z</time></trkpt>
<trkpt lat="-27.474087" lon="153.004484"><ele>7</ele><time>2026-01-01T10:20:44Z</time></trkpt>
<trkpt lat="-27.474206" lon="153.004347"><ele>7.2</ele><time>2026-01-01T10:20:49Z</time></trkpt>
<trkpt lat="-27.474249" lon="153.004296"><ele>7.2</ele><time>2026-01-01T10:20:51Z</time></trkpt>
<trkpt lat="-27.474387" lon="153.004157"><ele>7.2</ele><time>2026-01-01T10:20:57Z</time></trkpt>
<trkpt lat="-27.474412" lon="153.004138"><ele>7.2</ele><time>2026-01-01T10:20:58Z</time></trkpt>
<trkpt lat="-27.474575" lon="153.004005"><ele>7.6</ele><time>2026-01-01T10:21:04Z</time></trkpt>
<trkpt lat="-27.474657" lon="153.003934"><ele>7.8</ele><time>2026-01-01T10:21:07Z</time></trkpt>
<trkpt lat="-27.474727" lon="153.003869"><ele>8</ele><time>2026-01-01T10:21:10Z</time></trkpt>
<trkpt lat="-27.474822" lon="153.003795"><ele>8.2</ele><time>2026-01-01T10:21:14Z</time></trkpt>
<trkpt lat="-27.47485" lon="153.003784"><ele>8.2</ele><time>2026-01-01T10:21:15Z</time></trkpt>
<trkpt lat="-27.475043" lon="153.003677"><ele>8</ele><time>2026-01-01T10:21:22Z</time></trkpt>
<trkpt lat="-27.47507" lon="153.003657"><ele>8</ele><time>2026-01-01T10:21:23Z</time></trkpt>
<trkpt lat="-27.475219" lon="153.003527"><ele>7.8</ele><time>2026-01-01T10:21:29Z</time></trkpt>
<trkpt lat="-27.47524" lon="153.003505"><ele>7.6</ele><time>2026-01-01T10:21:30Z</time></trkpt>
<trkpt lat="-27.475362" lon="153.003367"><ele>7.2</ele><time>2026-01-01T10:21:36Z</time></trkpt>
<trkpt lat="-27.475408" lon="153.003324"><ele>7.2</ele><time>2026-01-01T10:21:38Z</time></trkpt>
<trkpt lat="-27.475554" lon="153.003177"><ele>7.2</ele><time>2026-01-01T10:21:44Z</time></trkpt>
<trkpt lat="-27.47561" lon="153.003129"><ele>7.2</ele><time>2026-01-01T10:21:46Z</time></trkpt>
<trkpt lat="-27.47578" lon="153.002986"><ele>7.2</ele><time>2026-01-01T10:21:52Z</time></trkpt>
<trkpt lat="-27.475805" lon="153.00296"><ele>7.2</ele><time>2026-01-01T10:21:53Z</time></trkpt>
<trkpt lat="-27.475944" lon="153.002805"><ele>7.8</ele><time>2026-01-01T10:21:59Z</time></trkpt>
<trkpt lat="-27.475968" lon="153.002781"><ele>7.8</ele><time>2026-01-01T10:22:00Z</time></trkpt>
<trkpt lat="-27.476101" lon="153.002614"><ele>7.6</ele><time>2026-01-01T10:22:06Z</time></trkpt>
<trkpt lat="-27.476122" lon="153.002588"><ele>7.6</ele><time>2026-01-01T10:22:07Z</time></trkpt>
<trkpt lat="-27.47625" lon="153.002427"><ele>7.4</ele><time>2026-01-01T10:22:13Z</time></trkpt>
<trkpt lat="-27.476271" lon="153.002402"><ele>7.6</ele><time>2026-01-01T10:22:14Z</time></trkpt>
<trkpt lat="-27.476411" lon="153.002242"><ele>7.4</ele><time>2026-01-01T10:22:20Z</time></trkpt>
<trkpt lat="-27.476511" lon="153.00214"><ele>7.4</ele><time>2026-01-01T10:22:24Z</time></trkpt>
<trkpt lat="-27.476649" lon="153.001988"><ele>7.6</ele><time>2026-01-01T10:22:30Z</time></trkpt>
<trkpt lat="-27.476759" lon="153.001865"><ele>7.6</ele><time>2026-01-01T10:22:35Z</time></trkpt>
<trkpt lat="-27.476891" lon="153.001701"><ele>7.6</ele><time>2026-01-01T10:22:41Z</time></trkpt>
<trkpt lat="-27.476912" lon="153.001677"><ele>7.6</ele><time>2026-01-01T10:22:42Z</time></trkpt>
<trkpt lat="-27.477073" lon="153.001533"><ele>7.4</ele><time>2026-01-01T10:22:48Z</time></trkpt>
<trkpt lat="-27.477093" lon="153.001507"><ele>7.4</ele><time>2026-01-01T10:22:49Z</time></trkpt>
<trkpt lat="-27.477221" lon="153.001339"><ele>7.6</ele><time>2026-01-01T10:22:55Z</time></trkpt>
<trkpt lat="-27.477286" lon="153.001254"><ele>7.6</ele><time>2026-01-01T10:22:58Z</time></trkpt>
<trkpt lat="-27.47742" lon="153.001078"><ele>7.8</ele><time>2026-01-01T10:23:04Z</time></trkpt>
<trkpt lat="-27.477569" lon="153.000909"><ele>8</ele><time>2026-01-01T10:23:10Z</time></trkpt>
<trkpt lat="-27.477631" lon="153.000831"><ele>8</ele><time>2026-01-01T10:23:13Z</time></trkpt>
<trkpt lat="-27.477773" lon="153.000677"><ele>8</ele><time>2026-01-01T10:23:19Z</time></trkpt>
<trkpt lat="-27.477909" lon="153.000526"><ele>8</ele><time>2026-01-01T10:23:25Z</time></trkpt>
<trkpt lat="-27.477954" lon="153.000478"><ele>8</ele><time>2026-01-01T10:23:27Z</time></trkpt>
<trkpt lat="-27.478106" lon="153.000327"><ele>8</ele><time>2026-01-01T10:23:33Z</time></trkpt>
<trkpt lat="-27.478161" lon="153.000275"><ele>8</ele><time>2026-01-01T10:23:35Z</time></trkpt>
<trkpt lat="-27.478307" lon="153.000126"><ele>8.2</ele><time>2026-01-01T10:23:41Z</time></trkpt>
<trkpt lat="-27.478351" lon="153.000077"><ele>8.2</ele><time>2026-01-01T10:23:43Z</time></trkpt>
<trkpt lat="-27.478487" lon="152.999936"><ele>8</ele><time>2026-01-01T10:23:49Z</time></trkpt>
<trkpt lat="-27.47851" lon="152.999907"><ele>8</ele><time>2026-01-01T10:23:50Z</time></trkpt>
<trkpt lat="-27.478665" lon="152.999746"><ele>8</ele><time>2026-01-01T10:23:57Z</time></trkpt>
<trkpt lat="-27.478715" lon="152.999702"><ele>8</ele><time>2026-01-01T10:23:59Z</time></trkpt>
<trkpt lat="-27.478797" lon="152.999637"><ele>8</ele><time>2026-01-01T10:24:02Z</time></trkpt>
<trkpt lat="-27.478875" lon="152.999566"><ele>8</ele><time>2026-01-01T10:24:05Z</time></trkpt>
<trkpt lat="-27.478967" lon="152.999467"><ele>8</ele><time>2026-01-01T10:24:09Z</time></trkpt>
<trkpt lat="-27.47904" lon="152.999392"><ele>8</ele><time>2026-01-01T10:24:12Z</time></trkpt>
<trkpt lat="-27.479158" lon="152.999282"><ele>8</ele><time>2026-01-01T10:24:17Z</time></trkpt>
<trkpt lat="-27.47918" lon="152.999258"><ele>8</ele><time>2026-01-01T10:24:18Z</time></trkpt>
<trkpt lat="-27.479332" lon="152.999112"><ele>8</ele><time>2026-01-01T10:24:24Z</time></trkpt>
<trkpt lat="-27.479413" lon="152.999034"><ele>8</ele><time>2026-01-01T10:24:27Z</time></trkpt>
<trkpt lat="-27.479573" lon="152.998905"><ele>7.8</ele><time>2026-01-01T10:24:33Z</time></trkpt>
<trkpt lat="-27.479622" lon="152.99886"><ele>7.6</ele><time>2026-01-01T10:24:35Z</time></trkpt>
<trkpt lat="-27.479764" lon="152.998707"><ele>7.8</ele><time>2026-01-01T10:24:41Z</time></trkpt>
<trkpt lat="-27.479806" lon="152.998656"><ele>7.8</ele><time>2026-01-01T10:24:43Z</time></trkpt>
<trkpt lat="-27.479957" lon="152.998521"><ele>8.4</ele><time>2026-01-01T10:24:49Z</time></trkpt>
<trkpt lat="-27.479986" lon="152.998502"><ele>8.4</ele><time>2026-01-01T10:24:50Z</time></trkpt>
<trkpt lat="-27.480142" lon="152.998394"><ele>8.4</ele><time>2026-01-01T10:24:56Z</time></trkpt>
<trkpt lat="-27.480272" lon="152.998299"><ele>8.4</ele><time>2026-01-01T10:25:01Z</time></trkpt>
<trkpt lat="-27.480421" lon="152.998176"><ele>8.4</ele><time>2026-01-01T10:25:07Z</time></trkpt>
<trkpt lat="-27.48047" lon="152.998134"><ele>8.2</ele><time>2026-01-01T10:25:09Z</time></trkpt>
<trkpt lat="-27.48062" lon="152.998009"><ele>8.4</ele><time>2026-01-01T10:25:15Z</time></trkpt>
<trkpt lat="-27.480792" lon="152.997909"><ele>8.4</ele><time>2026-01-01T10:25:20Z</time></trkpt>
<trkpt lat="-27.480846" lon="152.997878"><ele>8.4</ele><time>2026-01-01T10:25:22Z</time></trkpt>
<trkpt lat="-27.480986" lon="152.997792"><ele>7.8</ele><time>2026-01-01T10:25:27Z</time></trkpt>
<trkpt lat="-27.481149" lon="152.997656"><ele>8</ele><time>2026-01-01T10:25:33Z</time></trkpt>
<trkpt lat="-27.481306" lon="152.997517"><ele>8</ele><time>2026-01-01T10:25:39Z</time></trkpt>
<trkpt lat="-27.481338" lon="152.997497"><ele>8.2</ele><time>2026-01-01T10:25:40Z</time></trkpt>
<trkpt lat="-27.481516" lon="152.997393"><ele>8</ele><time>2026-01-01T10:25:46Z</time></trkpt>
<trkpt lat="-27.481574" lon="152.997363"><ele>8</ele><time>2026-01-01T10:25:48Z</time></trkpt>
<trkpt lat="-27.481726" lon="152.997251"><ele>7.8</ele><time>2026-01-01T10:25:54Z</time></trkpt>
<trkpt lat="-27.481848" lon="152.997198"><ele>7.8</ele><time>2026-01-01T10:25:58Z</time></trkpt>
<trkpt lat="-27.482019" lon="152.997101"><ele>7.8</ele><time>2026-01-01T10:26:04Z</time></trkpt>
<trkpt lat="-27.482079" lon="152.997065"><ele>7.8</ele><time>2026-01-01T10:26:06Z</time></trkpt>
<trkpt lat="-27.482251" lon="152.996965"><ele>8.2</ele><time>2026-01-01T10:26:12Z</time></trkpt>
<trkpt lat="-27.482309" lon="152.996929"><ele>8.6</ele><time>2026-01-01T10:26:14Z</time></trkpt>
<trkpt lat="-27.482483" lon="152.996853"><ele>9</ele><time>2026-01-01T10:26:20Z</time></trkpt>
<trkpt lat="-27.482507" lon="152.996835"><ele>9.2</ele><time>2026-01-01T10:26:21Z</time></trkpt>
<trkpt lat="-27.482629" lon="152.996747"><ele>9.2</ele><time>2026-01-01T10:26:26Z</time></trkpt>
<trkpt lat="-27.482718" lon="152.996695"><ele>9.4</ele><time>2026-01-01T10:26:29Z</time></trkpt>
</trkseg>
</trk>
</gpx>
